code,name_zh,name_en,name_pinyin,alpha,level,latitude,longitude
110000,北京市,Beijing,,BJ,1,39.9081726,116.3979471
110100,市辖区,City area,Beijing shixiaqu,,2,,
110101,东城区,Beijing: Dongcheng qu,Beijing: Dongcheng qu,,3,39.9351199,116.4093947
110102,西城区,Beijing: Xicheng qu,Beijing: Xicheng qu,,3,39.9351775,116.3638616
110105,朝阳区,Beijing: Chaoyang qu,Beijing: Chaoyang qu,,3,39.9527472,116.4977252
110106,丰台区,Beijing: Fengtai qu,Beijing: Fengtai qu,,3,39.8307687,116.2682462
110107,石景山区,Beijing: Shijingshan qu,Beijing: Shijingshan qu,,3,39.933779,116.1843467
110108,海淀区,Beijing: Haidian qu,Beijing: Haidian qu,,3,40.0222002,116.219945
110109,门头沟区,Beijing: Mentougou qu,Beijing: Mentougou qu,,3,39.9956735,115.797379
110111,房山区,Beijing: Fangshan qu,Beijing: Fangshan qu,,3,39.7161498,115.8388889
110112,通州区,,,,3,39.8137941,116.7393494
110113,顺义区,,,,3,40.159271,116.7279768
110114,昌平区,,,,3,40.2105317,116.1764824
110115,大兴区,,,,3,39.6365467,116.4718795
110116,怀柔区,,,,3,40.6455941,116.5880084
110117,平谷区,,,,3,40.204075,117.1602738
110200,县,County,Beijing shixiaxian,,2,,
110228,密云县,Miyun,Miyun,,3,40.5088887,117.0934224
110229,延庆县,Yanqing,Yanqing,,3,40.526351,116.154896
120000,天津市,Tianjin,,TJ,1,39.1038561,117.2523808
120100,市辖区,City area,Tianjin shixiaqu,,2,,
120101,和平区,Tianjin: Heping qu,Tianjin: Heping qu,,3,39.119648,117.1986401
120102,河东区,Tianjin: Hedong qu,Tianjin: Hedong qu,,3,39.1210713,117.2568977
120103,河西区,Tianjin: Hexi qu,Tianjin: Hexi qu,,3,39.0838301,117.2356224
120104,南开区,Tianjin: Nankai qu,Tianjin: Nankai qu,,3,39.107128,117.1532679
120105,河北区,Tianjin: Hebei qu,Tianjin: Hebei qu,,3,39.1618784,117.2140682
120106,红桥区,Tianjin: Hongqiao qu,Tianjin: Hongqiao qu,,3,39.1663205,117.1602416
120110,东丽区,Tianjin: Dongli qu,Tianjin: Dongli qu,,3,39.1204804,117.4016726
120111,西青区,Tianjin: Xiqing qu,Tianjin: Xiqing qu,,3,39.0002343,117.1217895
120112,津南区,Tianjin: Jinnan qu,Tianjin: Jinnan qu,,3,38.9608437,117.3934865
120113,北辰区,Tianjin: Beichen qu,Tianjin: Beichen qu,,3,39.2567314,117.1766567
120114,武清区,,,,3,39.4223536,117.0672548
120115,宝坻区,,,,3,39.5961733,117.4242568
120116,滨海新区,,,,3,,
120200,县,County,Tianjin shixiaxian,,2,,
120221,宁河县,,,,3,39.3865823,117.6742923
120223,静海县,Jinghai,Jinghai,,3,38.8266031,116.9773901
120225,蓟县,Ji xian,Ji xian,,3,40.0026596,117.473706
130000,河北省,Hebei,,HE,1,38.0451279,114.4897766
130100,石家庄市,Shijiazhuang shi,Shijiazhuang shi,SJW,2,38.0741259,114.4892442
130101,市辖区,City area,Shijiazhuang shixiaqu,,3,,
130102,长安区,Shijiazhuang: Chang'an qu,Shijiazhuang: Chang'an qu,,3,33.9910854,108.902683
130103,桥东区,Shijiazhuang: Qiaodong qu,Shijiazhuang: Qiaodong qu,,3,37.0680193,114.5072579
130104,桥西区,Shijiazhuang: Qiaoxi qu,Shijiazhuang: Qiaoxi qu,,3,38.0322139,114.4697714
130105,新华区,Shijiazhuang: Xinhua qu,Shijiazhuang: Xinhua qu,,3,38.0508791,114.4632697
130107,井陉矿区,Shijiazhuang: Jingxing Kuangqu,Shijiazhuang: Jingxing Kuangqu,,3,37.9543245,114.0532351
130108,裕华区,,,,3,38.0064515,114.5314193
130121,井陉县,Jingxing,Jingxing,,3,37.9543245,114.0532351
130123,正定县,Zhengding,Zhengding,,3,38.1630914,114.548049
130124,栾城县,Luancheng,Luancheng,,3,37.9068248,114.6399522
130125,行唐县,Xingtang,Xingtang,,3,38.5231731,114.4223499
130126,灵寿县,Lingshou,Lingshou,,3,38.5034954,114.1631949
130127,高邑县,Gaoyi,Gaoyi,,3,37.6183702,114.5974553
130128,深泽县,Shenze,Shenze,,3,38.2071794,115.2276027
130129,赞皇县,Zanhuang,Zanhuang,,3,37.6028593,114.273026
130130,无极县,Wuji,Wuji,,3,38.1792016,114.9565065
130131,平山县,Pingshan,Pingshan,,3,38.4629226,113.9016473
130132,元氏县,Yuanshi,Yuanshi,,3,37.7992387,114.4134235
130133,赵县,Zhao xian,Zhao xian,,3,37.7562451,114.8517823
130181,辛集市,Xinji shi,Xinji shi,,3,37.8840669,115.3085518
130182,藁城市,Gaocheng shi,Gaocheng shi,,3,38.0055808,114.8130083
130183,晋州市,Jinzhou shi,Jinzhou shi,,3,37.9810353,115.0889003
130184,新乐市,Xinle shi,Xinle shi,,3,38.3742818,114.7130692
130185,鹿泉市,Luquan shi,Luquan shi,,3,38.0838296,114.3474627
130200,唐山市,Tangshan shi,Tangshan shi,TGS,2,39.630581,118.1804037
130201,市辖区,City area,Tangshan shixiaqu,,3,,
130202,路南区,Tangshan: Lunan qu,Tangshan: Lunan qu,,3,39.5981243,118.1861758
130203,路北区,Tangshan: Lubei qu,Tangshan: Lubei qu,,3,39.6471382,118.1632698
130204,古冶区,,,,3,39.7074425,118.4469616
130205,开平区,Tangshan: Kaiping qu,Tangshan: Kaiping qu,,3,39.6904209,118.2712448
130207,丰南区,,,,3,39.4285361,118.1607163
130208,丰润区,,,,3,39.8052557,118.0663884
130209,曹妃甸区,,,,3,,
130223,滦县,Luan xian,Luan xian,,3,39.7821573,118.5468042
130224,滦南县,Luannan,Luannan,,3,39.3979001,118.6205971
130225,乐亭县,Leting,Leting,,3,39.3612535,119.0066636
130227,迁西县,Qianxi,Qianxi,,3,40.2017069,118.3624828
130229,玉田县,Yutian,Yutian,,3,39.7686261,117.7334297
130281,遵化市,Zunhua shi,Zunhua shi,,3,40.1409671,117.9049194
130283,迁安市,,,,3,40.0521003,118.692019
130300,秦皇岛市,Qinhuangdao shi,Qinhuangdao shi,SHP,2,39.9541782,119.6335709
130301,市辖区,City area,Qinhuangdao shixiaqu,,3,,
130302,海港区,Qinhuangdao: Haigang qu,Qinhuangdao: Haigang qu,,3,39.9341245,119.6125638
130303,山海关区,Qinhuangdao: Shanhaiguan qu,Qinhuangdao: Shanhaiguan qu,,3,39.978378,119.7768331
130304,北戴河区,Qinhuangdao: Beidaihe qu,Qinhuangdao: Beidaihe qu,,3,39.834056,119.4838929
130321,青龙满族自治县,Qinglong Manzu zizhixian,Qinglong Manzu zizhixian,,3,40.3465605,119.0931273
130322,昌黎县,Changli,Changli,,3,39.6237058,119.0599751
130323,抚宁县,,,,3,40.0216087,119.4196486
130324,卢龙县,Lulong,Lulong,,3,39.9274194,118.9732218
130400,邯郸市,Handan shi,Handan shi,HDS,2,36.6096371,114.4806397
130401,市辖区,City area,Handan shixiaqu,,3,,
130402,邯山区,Handan: Hanshan qu,Handan: Hanshan qu,,3,36.5996549,114.4827747
130403,丛台区,,,,3,36.6187225,114.4934821
130404,复兴区,Handan: Fuxing qu,Handan: Fuxing qu,,3,36.6113423,114.4592786
130406,峰峰矿区,Handan: Fengfeng Kuangqu,Handan: Fengfeng Kuangqu,,3,36.4522436,114.2028809
130421,邯郸县,Handan,Handan,,3,36.6004818,114.5839691
130423,临漳县,Linzhang,Linzhang,,3,36.2575282,114.5594859
130424,成安县,Cheng'an,Cheng'an,,3,36.3985479,114.6874166
130425,大名县,Daming,Daming,,3,36.2909154,115.229609
130426,涉县,She xian,She xian,,3,36.6036858,113.7283659
130427,磁县,Ci xian,Ci xian,,3,36.4084956,114.3613887
130428,肥乡县,Feixiang,Feixiang,,3,36.5756716,114.8311615
130429,永年县,Yongnian,Yongnian,,3,36.7516421,114.6212733
130430,邱县,,,,3,36.7963043,115.1936138
130431,鸡泽县,Jize,Jize,,3,36.8614246,114.8552907
130432,广平县,Guangping,Guangping,,3,36.4836237,115.0061166
130433,馆陶县,Guantao,Guantao,,3,36.6146923,115.2970183
130434,魏县,Wei xian,Wei xian,,3,36.2343045,114.9341583
130435,曲周县,Quzhou,Quzhou,,3,36.7696408,115.0388503
130481,武安市,Wu'an shi,Wu'an shi,,3,36.6784094,114.0685773
130500,邢台市,Xingtai shi,Xingtai shi,XTS,2,37.0683018,114.4932461
130501,市辖区,City area,Xingtai shixiaqu,,3,,
130502,桥东区,Xingtai: Qiaodong qu,Xingtai: Qiaodong qu,,3,37.0680193,114.5072579
130503,桥西区,Xingtai: Qiaoxi qu,Xingtai: Qiaoxi qu,,3,37.0598434,114.4680333
130521,邢台县,Xingtai,Xingtai,,3,37.1651901,114.125526
130522,临城县,Lincheng,Lincheng,,3,37.4445484,114.4988036
130523,内丘县,Neiqiu,Neiqiu,,3,37.2867128,114.5121288
130524,柏乡县,Baixiang,Baixiang,,3,37.4824102,114.6934783
130525,隆尧县,Longyao,Longyao,,3,37.3501598,114.7705221
130526,任县,Ren xian,Ren xian,,3,37.1288961,114.682889
130527,南和县,Nanhe,Nanhe,,3,37.0050374,114.6836507
130528,宁晋县,,,,3,37.6198828,114.9192989
130529,巨鹿县,Julu,Julu,,3,37.2211106,115.037477
130530,新河县,Xinhe,Xinhe,,3,37.5287532,115.2420866
130531,广宗县,Guangzong,Guangzong,,3,37.0747135,115.1429093
130532,平乡县,Pingxiang,Pingxiang,,3,37.0632166,115.0300741
130533,威县,Wei xian,Wei xian,,3,36.9757811,115.2666557
130534,清河县,Qinghe,Qinghe,,3,37.0714864,115.6715512
130535,临西县,Linxi,Linxi,,3,36.8707377,115.5016494
130581,南宫市,,,,3,37.3614937,115.3867006
130582,沙河市,,,,3,36.854952,114.5033205
130600,保定市,Baoding shi,Baoding shi,BDS,2,38.8674883,115.4743874
130601,市辖区,City area,Baoding shixiaqu,,3,,
130602,新市区,Baoding: Xinshi qu,Baoding: Xinshi qu,,3,43.8436738,87.5739634
130603,北市区,Baoding: Beishi qu,Baoding: Beishi qu,,3,38.8827819,115.4971969
130604,南市区,Baoding: Nanshi qu,Baoding: Nanshi qu,,3,38.8545142,115.5285788
130621,满城县,Mancheng,Mancheng,,3,38.9380734,115.2210903
130622,清苑县,Qingyuan,Qingyuan,,3,38.7392642,115.4942787
130623,涞水县,,,,3,39.6266725,115.4281461
130624,阜平县,,,,3,38.8903481,114.1507709
130625,徐水县,,,,3,39.0238932,115.5543923
130626,定兴县,Dingxing,Dingxing,,3,39.2131532,115.7360852
130627,唐县,,,,3,38.8844021,114.7692776
130628,高阳县,,,,3,38.6472769,115.8026254
130629,容城县,,,,3,39.0402446,115.9076178
130630,涞源县,,,,3,39.3648535,114.7144318
130631,望都县,,,,3,38.6588813,115.1733577
130632,安新县,Anxin,Anxin,,3,38.8803765,115.8813
130633,易县,,,,3,39.3174913,115.2449405
130634,曲阳县,,,,3,38.7157448,114.6474624
130635,蠡县,,,,3,38.5144011,115.6602538
130636,顺平县,,,,3,38.9314721,115.0658333
130637,博野县,Boye,Boye,,3,38.4507236,115.4994714
130638,雄县,,,,3,39.0420112,116.1753666
130681,涿州市,,,,3,39.478324,116.0000145
130682,定州市,,,,3,38.507745,114.991565
130683,安国市,Anguo shi,Anguo shi,,3,38.4018146,115.3362858
130684,高碑店市,Gaobeidian shi,Gaobeidian shi,,3,39.2393083,115.9998751
130700,张家口市,Zhangjiakou shi,Zhangjiakou shi,ZJK,2,40.4923439,115.1055193
130701,市辖区,City area,Zhangjiakou shixiaqu,,3,,
130702,桥东区,Zhangjiakou: Qiaodong qu,Zhangjiakou: Qiaodong qu,,3,40.7884538,114.8943007
130703,桥西区,Zhangjiakou: Qiaoxi qu,Zhangjiakou: Qiaoxi qu,,3,40.8194605,114.8696244
130705,宣化区,Zhangjiakou: Xuanhua qu,Zhangjiakou: Xuanhua qu,,3,40.4923439,115.1055193
130706,下花园区,Zhangjiakou: Xiahuayuan qu,Zhangjiakou: Xiahuayuan qu,,3,40.4906712,115.2832425
130721,宣化县,Xuanhua,Xuanhua,,3,40.4923439,115.1055193
130722,张北县,Zhangbei,Zhangbei,,3,41.256283,114.8187268
130723,康保县,Kangbao,Kangbao,,3,41.7979437,114.5821559
130724,沽源县,Guyuan,Guyuan,,3,41.5766568,115.4600537
130725,尚义县,Shangyi,Shangyi,,3,41.1164618,114.1682374
130726,蔚县,Yu xian,Yu xian,,3,39.879848,114.6307468
130727,阳原县,Yangyuan,Yangyuan,,3,40.1481761,114.3628585
130728,怀安县,Huai'an,Huai'an,,3,40.5521894,114.467175
130729,万全县,Wanquan,Wanquan,,3,40.845429,114.5935822
130730,怀来县,Huailai,Huailai,,3,40.3319386,115.6249344
130731,涿鹿县,Zhuolu,Zhuolu,,3,40.0825782,115.226208
130732,赤城县,Chicheng,Chicheng,,3,40.9518431,115.9477437
130733,崇礼县,Chongli,Chongli,,3,41.0328888,115.1907599
130800,承德市,Chengde shi,Chengde shi,CDS,2,41.0299509,117.8852105
130801,市辖区,City area,Chengde shixiaqu,,3,,
130802,双桥区,Chengde: Shuangqiao qu,Chengde: Shuangqiao qu,,3,40.9746655,117.9431999
130803,双滦区,Chengde: Shuangluan qu,Chengde: Shuangluan qu,,3,40.9590463,117.8001523
130804,鹰手营子矿区,Chengde: Yingshouyingzi Kuangqu,Chengde: Yingshouyingzi Kuangqu,,3,40.5463524,117.6594007
130821,承德县,Chengde,Chengde,,3,40.9930263,118.2039213
130822,兴隆县,Xinglong,Xinglong,,3,40.4483922,117.7286768
130823,平泉县,Pingquan,Pingquan,,3,41.0250137,118.8045967
130824,滦平县,Luanping,Luanping,,3,40.9604237,117.2734523
130825,隆化县,Longhua,Longhua,,3,41.4921048,117.5274467
130826,丰宁满族自治县,,,,3,41.3648119,116.6501498
130827,宽城满族自治县,Kuancheng Manzu zizhixian,Kuancheng Manzu zizhixian,,3,40.5107077,118.6906993
130828,围场满族蒙古族自治县,Weichang Manzu Mengguzu zizhixian,Weichang Manzu Mengguzu zizhixian,,3,42.0937881,117.5275326
130900,沧州市,Cangzhou shi,Cangzhou shi,CGZ,2,38.3044528,116.8388379
130901,市辖区,City area,Cangzhou shixiaqu,,3,,
130902,新华区,Cangzhou: Xinhua qu,Cangzhou: Xinhua qu,,3,38.3086959,116.8743503
130903,运河区,Cangzhou: Yunhe qu,Cangzhou: Yunhe qu,,3,38.3110363,116.8474102
130921,沧县,Cang xian,Cang xian,,3,38.2320282,116.9848466
130922,青县,Qing xian,Qing xian,,3,38.5754641,116.8306196
130923,东光县,Dongguang,Dongguang,,3,37.8840923,116.5432477
130924,海兴县,Haixing,Haixing,,3,38.1411977,117.496655
130925,盐山县,Yanshan,Yanshan,,3,38.0552047,117.2337341
130926,肃宁县,,,,3,38.4285047,115.836432
130927,南皮县,Nanpi,Nanpi,,3,38.0417879,116.709491
130928,吴桥县,Wuqiao,Wuqiao,,3,37.6330197,116.4104998
130929,献县,Xian xian,Xian xian,,3,38.1889166,116.1276126
130930,孟村回族自治县,Mengcun Hui zizhixian,Mengcun Hui zizhixian,,3,38.0627653,117.0980358
130981,泊头市,Potou shi,Potou shi,,3,38.0751901,116.5818608
130982,任丘市,Renqiu shi,Renqiu shi,,3,38.703941,116.083298
130983,黄骅市,Huanghua shi,Huanghua shi,,3,38.370707,117.3516119
130984,河间市,Hejian shi,Hejian shi,,3,38.4431444,116.0951149
131000,廊坊市,Langfang shi,Langfang shi,LFS,2,39.3932239,116.7555177
131001,市辖区,Langfang shixiaqu,Langfang shixiaqu,,3,,
131002,安次区,Langfang: Anci qu,Langfang: Anci qu,,3,39.5205702,116.7030859
131003,广阳区,,,,3,39.523111,116.7117441
131022,固安县,Gu'an,Gu'an,,3,39.3281066,116.2943494
131023,永清县,Yongqing,Yongqing,,3,39.2996267,116.563611
131024,香河县,Xianghe,Xianghe,,3,39.7411431,117.0455933
131025,大城县,Daicheng,Daicheng,,3,38.6746803,116.5780628
131026,文安县,Wen'an,Wen'an,,3,38.8988153,116.4814281
131028,大厂回族自治县,Dachang Huizu zizhixian,Dachang Huizu zizhixian,,3,39.9076788,116.9510293
131081,霸州市,Bazhou shi,Bazhou shi,,3,39.1041808,116.5993488
131082,三河市,Sanhe shi,Sanhe shi,,3,39.9490296,117.0100486
131100,衡水市,Hengshui,,HGS,2,37.7352989,115.6986845
131101,市辖区,City area,,,3,,
131102,桃城区,,,,3,37.7349935,115.6752956
131121,枣强县,,,,3,37.5138194,115.7242084
131122,武邑县,,,,3,37.8016547,115.8876514
131123,武强县,,,,3,38.0401909,115.9818506
131124,饶阳县,,,,3,38.235888,115.7258284
131125,安平县,,,,3,38.2345059,115.5192125
131126,故城县,,,,3,37.3474561,115.9658861
131127,景县,,,,3,37.6923191,116.2706494
131128,阜城县,,,,3,37.8688741,116.1444139
131181,冀州市,,,,3,37.5510251,115.5793798
131182,深州市,,,,3,38.0008212,115.5600142
140000,山西省,Shanxi,,SX,1,37.8357424,112.5223053
140100,太原市,Taiyuan shi,Taiyuan shi,TYN,2,37.8357424,112.5223053
140101,市辖区,City area,Taiyuan shixiaqu,,3,,
140105,小店区,,,,3,37.7360371,112.565639
140106,迎泽区,,,,3,37.8632671,112.563386
140107,杏花岭区,,,,3,37.8844818,112.5622165
140108,尖草坪区,,,,3,37.9402292,112.4869752
140109,万柏林区,,,,3,37.8594978,112.5156856
140110,晋源区,,,,3,37.7153228,112.4776733
140121,清徐县,Qingxu,Qingxu,,3,37.5584844,112.3968959
140122,阳曲县,Yangqu,Yangqu,,3,38.1364384,112.668432
140123,娄烦县,Loufan,Loufan,,3,38.0391347,111.7827344
140181,古交市,Gujiao shi,Gujiao shi,,3,37.910414,112.0436811
140200,大同市,Datong shi,Datong shi,DTG,2,40.0557794,113.2266212
140201,市辖区,City area,Datong shixiaqu,,3,,
140202,城区,Datong: Chengqu,Datong: Chengqu,,3,40.075666,113.2980001
140203,矿区,Datong: Kuangqu,Datong: Kuangqu,,3,40.0368562,113.1772041
140211,南郊区,Datong: Nanjiao qu,Datong: Nanjiao qu,,3,40.0054045,113.1496954
140212,新荣区,Datong: Xinrong qu,Datong: Xinrong qu,,3,40.2558668,113.1400073
140221,阳高县,Yanggao,Yanggao,,3,40.3662394,113.7539005
140222,天镇县,Tianzhen,Tianzhen,,3,40.420382,114.0908611
140223,广灵县,Guangling,Guangling,,3,39.760445,114.2827249
140224,灵丘县,Lingqiu,Lingqiu,,3,39.4424074,114.2343485
140225,浑源县,Hunyuan,Hunyuan,,3,39.6989818,113.6903751
140226,左云县,Zuoyun,Zuoyun,,3,40.0137947,112.7029359
140227,大同县,Datong,Datong,,3,40.0402979,113.6124408
140300,阳泉市,Yangquan shi,Yangquan shi,YQS,2,37.8563212,113.5925388
140301,市辖区,City area,Yangquan shixiaqu,,3,,
140302,城区,Yangquan: Chengqu,Yangquan: Chengqu,,3,37.8474092,113.6006927
140303,矿区,Yangquan: Kuangqu,Yangquan: Kuangqu,,3,37.8689504,113.5567689
140311,郊区,Yangquan: Jiaoqu,Yangquan: Jiaoqu,,3,37.9413969,113.5853934
140321,平定县,Pingding,Pingding,,3,37.8042996,113.6295426
140322,盂县,Yu xian,Yu xian,,3,38.0856199,113.4123266
140400,长治市,Changzhi shi,Changzhi shi,CZS,2,36.2008671,113.1234741
140401,市辖区,City area,Changzhi shixiaqu,,3,,
140402,城区,Changzhi: Chengqu,Changzhi: Chengqu,,3,36.2035163,113.1230879
140411,郊区,Changzhi: Jiaoqu,Changzhi: Jiaoqu,,3,36.1991875,113.1265318
140421,长治县,Changzhi,Changzhi,,3,36.0528549,113.0514085
140423,襄垣县,Xiangyuan,Xiangyuan,,3,36.5350537,113.0513334
140424,屯留县,Tunliu,Tunliu,,3,36.3182978,112.8934479
140425,平顺县,Pingshun,Pingshun,,3,36.2000013,113.4361124
140426,黎城县,Licheng,Licheng,,3,36.5023318,113.3871567
140427,壶关县,Huguan,Huguan,,3,36.1154475,113.2070518
140428,长子县,Zhangzi,Zhangzi,,3,36.1223375,112.8779018
140429,武乡县,Wuxiang,Wuxiang,,3,36.8373599,112.8637934
140430,沁县,Qin xian,Qin xian,,3,36.7561465,112.6991594
140431,沁源县,Qinyuan,Qinyuan,,3,36.5002016,112.3374474
140481,潞城市,Lucheng shi,Lucheng shi,,3,36.33409,113.2288957
140500,晋城市,Jincheng shi,Jincheng shi,JCG,2,35.4908655,112.8517663
140501,市辖区,City area,Jincheng shixiaqu,,3,,
140502,城区,Jincheng: Chengqu,Jincheng: Chengqu,,3,35.501592,112.8532577
140521,沁水县,Qinshui,Qinshui,,3,35.690276,112.1866643
140522,阳城县,Yangcheng,Yangcheng,,3,35.4860259,112.4147379
140524,陵川县,Lingchuan,Lingchuan,,3,35.7756862,113.2806838
140525,泽州县,,,,3,35.019032,110.99762
140581,高平市,Gaoping shi,Gaoping shi,,3,35.7979925,112.9239392
140600,朔州市,Shuozhou shi,Shuozhou shi,SZJ,2,39.4151262,112.3714364
140601,市辖区,City area,Shuozhou shixiaqu,,3,,
140602,朔城区,Shuozhou: Shuocheng qu,Shuozhou: Shuocheng qu,,3,39.3198236,112.4319041
140603,平鲁区,Shuozhou: Pinglu qu,Shuozhou: Pinglu qu,,3,39.5121611,112.2883308
140621,山阴县,Shanyin,Shanyin,,3,39.5262309,112.8165972
140622,应县,Ying xian,Ying xian,,3,39.5542461,113.191098
140623,右玉县,Youyu,Youyu,,3,39.9890238,112.4669659
140624,怀仁县,Huairen,Huairen,,3,39.8279179,113.0999565
140700,晋中市,Jinzhong,,JZN,2,37.6872081,112.7526319
140701,市辖区,City area,,,3,,
140702,榆次区,,,,3,37.6978033,112.7078819
140721,榆社县,,,,3,37.0707844,112.9752874
140722,左权县,,,,3,37.0826825,113.3793676
140723,和顺县,,,,3,37.3289798,113.5700083
140724,昔阳县,,,,3,37.6001137,113.7048376
140725,寿阳县,,,,3,37.8889442,113.1749725
140726,太谷县,,,,3,37.4294273,112.5576782
140727,祁县,,,,3,37.3803798,112.4744546
140728,平遥县,,,,3,37.2006035,112.206502
140729,灵石县,,,,3,36.8477491,111.7786574
140781,介休市,,,,3,37.0269508,111.9168341
140800,运城市,Yuncheng,,YCE,2,35.0263679,111.0073185
140801,市辖区,City area,,,3,,
140802,盐湖区,,,,3,35.019032,110.99762
140821,临猗县,,,,3,35.1433801,110.77461
140822,万荣县,,,,3,35.4156002,110.8380067
140823,闻喜县,,,,3,35.3565937,111.2246633
140824,稷山县,,,,3,35.6040241,110.9833717
140825,新绛县,,,,3,35.6162443,111.2246633
140826,绛县,,,,3,35.491809,111.5718806
140827,垣曲县,,,,3,35.2973777,111.6700494
140828,夏县,,,,3,35.141678,111.2206936
140829,平陆县,,,,3,34.8368695,111.2173462
140830,芮城县,,,,3,34.6935766,110.6943691
140881,永济市,,,,3,34.8670511,110.4475522
140882,河津市,,,,3,35.5959896,110.7123077
140900,忻州市,Xinzhou,,XZS,2,38.4163672,112.7342641
140901,市辖区,City area,,,3,,
140902,忻府区,,,,3,38.4041519,112.7460337
140921,定襄县,,,,3,38.4737672,112.9571879
140922,五台县,,,,3,38.7989569,113.4321642
140923,代县,,,,3,39.0668973,112.9602563
140924,繁峙县,,,,3,39.1888094,113.2655668
140925,宁武县,,,,3,39.0015517,112.3047674
140926,静乐县,,,,3,38.3594431,111.9395471
140927,神池县,,,,3,39.0905588,112.2112978
140928,五寨县,,,,3,38.9110967,111.8468285
140929,岢岚县,,,,3,38.7041831,111.5729105
140930,河曲县,,,,3,39.3850814,111.1386073
140931,保德县,,,,3,39.0224845,111.0865617
140932,偏关县,,,,3,39.4364333,111.5034842
140981,原平市,,,,3,38.7308533,112.7109718
141000,临汾市,Linfen,,LFN,2,36.0877426,111.5188479
141001,市辖区,,,,3,,
141002,尧都区,,,,3,36.0835635,111.5150714
141021,曲沃县,,,,3,35.641089,111.4758575
141022,翼城县,,,,3,35.7381612,111.7189515
141023,襄汾县,,,,3,35.876324,111.4417398
141024,洪洞县,,,,3,36.2537561,111.6749096
141025,古县,,,,3,36.268497,111.919785&
141026,安泽县,,,,3,36.1478297,112.2502327
141027,浮山县,,,,3,35.9681078,111.8489099
141028,吉县,,,,3,36.0981894,110.6817627
141029,乡宁县,,,,3,35.9704783,110.8472013
141030,大宁县,,,,3,36.4650577,110.7527769
141031,隰县,,,,3,36.6933541,110.9406602
141032,永和县,,,,3,36.7598082,110.6317878
141033,蒲县,,,,3,36.4118199,111.096518
141034,汾西县,,,,3,36.6528497,111.563952
141081,侯马市,,,,3,35.6191137,111.3717556
141082,霍州市,,,,3,36.5701055,111.7288756
141100,吕梁市,Luliang,,LLH,2,37.5176999,111.1505914
141101,市辖区,City area,,,3,,
141102,离石区,,,,3,37.5176999,111.1505914
141121,文水县,,,,3,37.4372225,112.0272875
141122,交城县,,,,3,37.5519607,112.1559262
141123,兴县,,,,3,38.4624185,111.1276209
141124,临县,,,,3,37.9507544,110.9920943
141125,柳林县,,,,3,37.4299726,110.8889687
141126,石楼县,,,,3,36.9984913,110.8345091
141127,岚县,,,,3,38.2794518,111.6718411
141128,方山县,,,,3,37.8946509,111.2441146
141129,中阳县,,,,3,37.357119,111.1795807
141130,交口县,,,,3,36.9822178,111.1813509
141181,孝义市,,,,3,37.1464039,111.77899
141182,汾阳市,,,,3,37.2654551,111.7877555
150000,内蒙古自治区,Inner Mongolia,,NM,1,40.8209419,111.6632996
150100,呼和浩特市,Hohhot shi,Huhehaote shi,HET,2,40.8672334,111.8145561
150101,市辖区,City area,Huhehaote shixiaqu,,3,,
150102,新城区,Hohhot: Xincheng qu,Huhehaote: Xincheng qu,,3,40.8582918,111.6655433
150103,回民区,Hohhot: Huimin qu,Huhehaote: Huimin qu,,3,40.8082793,111.6240227
150104,玉泉区,Hohhot: Yuquan qu,Huhehaote: Yuquan qu,,3,40.8005561,111.6660261
150105,赛罕区,,,,3,40.792101,111.7018604
150121,土默特左旗,Tumd zuoqi,Tumote zuoqi,,3,40.6753655,111.2985206
150122,托克托县,Togtoh,Tuoketuo,,3,40.3379496,111.2948942
150123,和林格尔县,,,,3,40.3853242,111.8784249
150124,清水河县,,,,3,39.9246714,111.681937
150125,武川县,,,,3,41.0830793,111.1985493
150200,包头市,Baotou shi,Baotou shi,BTS,2,40.6428669,109.9300361
150201,市辖区,City area,Baotou shixiaqu,,3,,
150202,东河区,Baotou: Donghe qu,Baotou: Donghe qu,,3,40.5836892,110.0293851
150203,昆都仑区,,,,3,40.6407991,109.837532
150204,青山区,Baotou: Qingshan qu,Baotou: Qingshan qu,,3,40.6650471,109.8865306
150205,石拐区,,,,3,40.6719235,110.2720177
150206,白云鄂博矿区,,,,3,41.7748323,109.9761164
150207,九原区,,,,3,40.6055469,109.9649584
150221,土默特右旗,Tumd youqi,Tumote youqi,,3,40.5509421,110.6896913
150222,固阳县,Guyang,Guyang,,3,41.0184896,110.0636959
150223,达尔罕茂明安联合旗,,,,3,41.975596,110.4747069
150300,乌海市,Wuhai shi,Wuhai shi,WHM,2,39.6905118,106.8226969
150301,市辖区,City area,Wuhai shixiaqu,,3,,
150302,海勃湾区,Wuhai: Haibowan qu,Wuhai: Haibowan qu,,3,39.6695551,106.8222141
150303,海南区,Wuhai: Hainan qu,Wuhai: Hainan qu,,3,39.4414546,106.8914258
150304,乌达区,Wuhai: Ud qu,Wuhai: Ud qu,,3,39.5057212,106.7176294
150400,赤峰市,Chifeng shi,Chifeng shi,CFS,2,42.2903817,118.9847445
150401,市辖区,City area,Chifeng shixiaqu,,3,,
150402,红山区,Chifeng: Hongshan qu,Chifeng: Hongshan qu,,3,42.2652018,118.9593172
150403,元宝山区,Chifeng: Yuanbaoshan qu,Chifeng: Yuanbaoshan qu,,3,42.0389747,119.2888212
150404,松山区,Chifeng: Songshan qu,Chifeng: Songshan qu,,3,42.2861355,118.9325702
150421,阿鲁科尔沁旗,Ar Horqin qi,Aluke'erqin qi,,3,43.8723439,120.0656962
150422,巴林左旗,Bairin zuoqi,Balin zuoqi,,3,43.9713683,119.3792868
150423,巴林右旗,Bairin youqi,Balin youqi,,3,43.5308003,118.6806035
150424,林西县,Linxi,Linxi,,3,43.6189279,118.0619788
150425,克什克腾旗,Hexigten qi,Keshiketeng qi,,3,43.265136,117.5458038
150426,翁牛特旗,Ongniud qi,Wengniute qi,,3,42.9316205,119.0302455
150428,喀喇沁旗,Harqin qi,Kalaqin qi,,3,41.927362,118.7019324
150429,宁城县,,,,3,41.5939503,119.3427444
150430,敖汉旗,Aohan qi,Aohan qi,,3,42.2914769,119.9217904
150500,通辽市,Tongliao,,TLO,2,46.0871771,122.1346986
150501,市辖区,City area,,,3,,
150502,科尔沁区,,,,3,43.6421646,122.3937514
150521,科尔沁左翼中旗,,,,3,44.1138488,122.437582
150522,科尔沁左翼后旗,,,,3,43.306888,122.6716983
150523,开鲁县,,,,3,43.7630282,121.3443482
150524,库伦旗,,,,3,42.8928345,121.5733337
150525,奈曼旗,,,,3,43.0158548,120.8123208
150526,扎鲁特旗,,,,3,44.6397349,120.8580959
150581,霍林郭勒市,,,,3,45.4972253,119.6080876
150600,鄂尔多斯市,Ordos,,ODS,2,39.8137117,109.9744213
150601,市辖区,City area,,,3,,
150602,东胜区,,,,3,39.8222984,109.9631453
150621,达拉特旗,,,,3,40.2869152,110.1402594
150622,准格尔旗,,,,3,39.8641784,111.2400377
150623,鄂托克前旗,,,,3,38.4318536,107.8583868
150624,鄂托克旗,,,,3,39.0877358,107.9785573
150625,杭锦旗,,,,3,39.8333063,108.7362063
150626,乌审旗,,,,3,38.590879,108.8460374
150627,伊金霍洛旗,,,,3,39.5649495,109.7475493
150700,呼伦贝尔市,Hulunbei'er,,HBR,2,49.2119414,119.7657716
150701,市辖区,City area,,,3,,
150702,海拉尔区,,,,3,49.2115288,119.7305603
150703,扎赉诺尔区,,,,3,,
150721,阿荣旗,,,,3,48.1258251,123.4596133
150722,莫力达瓦达斡尔族自治旗,,,,3,48.474415,124.5048916
150723,鄂伦春自治旗,,,,3,50.5918603,123.7261927
150724,鄂温克族自治旗,,,,3,49.1447098,119.7531545
150725,陈巴尔虎旗,,,,3,49.3264646,119.4247448
150726,新巴尔虎左旗,,,,3,48.2180749,118.2702041
150727,新巴尔虎右旗,,,,3,48.6721179,116.8236673
150781,满洲里市,,,,3,49.5876654,117.4803364
150782,牙克石市,,,,3,49.2858984,120.7117438
150783,扎兰屯市,,,,3,48.0137335,122.7374661
150784,额尔古纳市,,,,3,50.2424432,120.1799154
150785,根河市,,,,3,50.7803397,121.5200973
150800,巴彦淖尔市,Bayannao'er,,BYR,2,40.7659084,107.3868191
150801,市辖区,City area,,,3,,
150802,临河区,,,,3,40.7623405,107.3945694
150821,五原县,,,,3,41.0953622,108.2698667
150822,磴口县,,,,3,40.329534,106.9978559
150823,乌拉特前旗,,,,3,40.7282913,108.6554396
150824,乌拉特中旗,,,,3,41.5682852,108.526361
150825,乌拉特后旗,,,,3,41.0911334,107.0763481
150826,杭锦后旗,,,,3,40.8876518,107.1467185
150900,乌兰察布市,Wulanchabu,,ULS,2,41.0317072,113.1210923
150901,市辖区,City area,,,3,,
150902,集宁区,,,,3,41.0353086,113.1145263
150921,卓资县,,,,3,40.8885684,112.5782132
150922,化德县,,,,3,41.9045608,114.0104377
150923,商都县,,,,3,41.5619918,113.5777545
150924,兴和县,,,,3,40.8614321,113.8449991
150925,凉城县,,,,3,40.5315782,112.5038195
150926,察哈尔右翼前旗,,,,3,40.7857325,113.2121587
150927,察哈尔右翼中旗,,,,3,41.2775404,112.6353657
150928,察哈尔右翼后旗,,,,3,41.4363564,113.1913126
150929,四子王旗,,,,3,41.533463,111.7066133
150981,丰镇市,,,,3,40.4409131,113.1701446
152200,兴安盟,Xing'an,Xing'an meng,HIN,2,46.0871771,122.1346986
152201,乌兰浩特市,Ulanhot shi,Wulanhaote shi,,3,46.0682259,122.0684586
152202,阿尔山市,,,,3,47.177659,119.9435055
152221,科尔沁右翼前旗,Horqin youyi qianqi,Ke'erqin youyi qianqi,,3,46.079088,121.9531775
152222,科尔沁右翼中旗,Horqin youyi zhongqi,Ke'erqin youyi zhongqi,,3,45.0608358,121.4765275
152223,扎赉特旗,Jalaid qi,Zalaite qi,,3,46.7246974,122.9071856
152224,突泉县,Tuquan,Tuquan,,3,45.3789123,121.566124
152500,锡林郭勒盟,Xilingol,Xilinguole meng,XGO,2,43.9454883,116.0993743
152501,二连浩特市,Erenhot shi,Erlianhaote shi,,3,43.6531709,111.9779456
152502,锡林浩特市,Xilinhot shi,Xilinhaote shi,,3,43.9442902,116.0662689
152522,阿巴嘎旗,Abag qi,Abaga qi,,3,44.0217368,114.968791
152523,苏尼特左旗,Sonid zuoqi,Sunite zuoqi,,3,43.8568965,113.6507642
152524,苏尼特右旗,Sonid youq,Sunite youqi,,3,42.7470437,112.6575422
152525,东乌珠穆沁旗,Dong Ujimqin qi,Dongwuzhumuqin qi,,3,45.5098958,116.9718862
152526,西乌珠穆沁旗,Xi Ujimqin qi,Xiwuzhumuqin qi,,3,44.5878846,117.6089108
152527,太仆寺旗,,,,3,41.8772621,115.2829957
152528,镶黄旗,,,,3,42.2323703,113.8472843
152529,正镶白旗,,,,3,42.3086015,114.997555
152530,正蓝旗,Zhenglan qi,Zhenglan qi,,3,42.2523698,116.0036194
152531,多伦县,Duolun,Duolun,,3,42.2035909,116.4855587
152900,阿拉善盟,Alxa meng,Alashan meng,ALM,2,38.8463676,105.6860733
152921,阿拉善左旗,Alxa zuoqi,Alashan zuoqi,,3,38.837301,105.664787
152922,阿拉善右旗,Alxa youqi,Alashan youqi,,3,39.2152729,101.6708815
152923,额济纳旗,Ejin qi,Ejina qi,,3,41.9585407,101.0689294
210000,辽宁省,Liaoning,,LN,1,41.7966156,123.4116821
210100,沈阳市,Shenyang,,SHE,2,41.8275867,123.4164083
210101,市辖区,City area,Shenyang shixiaqu,,3,,
210102,和平区,Shenyang: Heping qu,Shenyang: Heping qu,,3,39.119648,117.1986401
210103,沈河区,,,,3,41.7960161,123.4585083
210104,大东区,Shenyang: Dadong qu,Shenyang: Dadong qu,,3,41.8053977,123.4699667
210105,皇姑区,Shenyang: Huanggu qu,Shenyang: Huanggu qu,,3,41.8201832,123.4253454
210106,铁西区,Shenyang: Tiexi qu,Shenyang: Tiexi qu,,3,41.1197757,122.9696703
210111,苏家屯区,Shenyang: Sujiatun qu,Shenyang: Sujiatun qu,,3,41.6650497,123.3437634
210112,东陵区,Shenyang: Dongling qu,Shenyang: Dongling qu,,3,41.7699034,123.4644306
210113,沈北新区,,,,3,42.0534194,123.5267437
210114,于洪区,Shenyang: Yuhong qu,Shenyang: Yuhong qu,,3,41.7940324,123.3080041
210122,辽中县,Liaozhong,Liaozhong,,3,41.5121927,122.7315438
210123,康平县,Kangping,Kangping,,3,42.7499509,123.3535159
210124,法库县,Faku,Faku,,3,42.5038859,123.4084046
210181,新民市,Xinmin shi,Xinmin shi,,3,42.0039368,122.8834856
210200,大连市,Dalian shi,Dalian shi,DLC,2,38.9144527,121.6164851
210201,市辖区,City area,Dalian shixiaqu,,3,,
210202,中山区,Dalian: Zhongshan qu,Dalian: Zhongshan qu,,3,38.9034576,121.6748607
210203,西岗区,Dalian: Xigang qu,Dalian: Xigang qu,,3,38.9064131,121.6226113
210204,沙河口区,Dalian: Shahekou qu,Dalian: Shahekou qu,,3,38.9069558,121.5653622
210211,甘井子区,Dalian: Ganjingzi qu,Dalian: Ganjingzi qu,,3,38.9521086,121.5231013
210212,旅顺口区,Dalian: Lushunkou qu,Dalian: Lushunkou qu,,3,38.8474121,121.2873244
210213,金州区,Dalian: Jinzhou qu,Dalian: Jinzhou qu,,3,39.1621113,121.9262052
210224,长海县,Changhai,Changhai,,3,39.2818157,122.5919831
210281,瓦房店市,Wafangdian shi,Wafangdian shi,,3,39.743288,121.7532778
210282,普兰店市,Pulandian shi,Pulandian shi,,3,39.6504921,122.2347021
210283,庄河市,Zhuanghe shi,Zhuanghe shi,,3,39.8404325,123.0054939
210300,鞍山市,Anshan shi,Anshan shi,ASN,2,41.0631905,123.0268979
210301,市辖区,City area,Anshan shixiaqu,,3,,
210302,铁东区,Anshan: Tiedong qu,Anshan: Tiedong qu,,3,41.1046518,122.9887998
210303,铁西区,Anshan: Tiexi qu,Anshan: Tiexi qu,,3,41.1197757,122.9696703
210304,立山区,Anshan: Lishan qu,Anshan: Lishan qu,,3,41.1499728,123.0292583
210311,千山区,,,,3,41.0751051,122.9610658
210321,台安县,Tai'an,Tai'an,,3,41.2883761,122.4239373
210323,岫岩满族自治县,Xiuyan Manzu zizhixian,Xiuyan Manzu zizhixian,,3,40.4161917,123.3195376
210381,海城市,,,,3,40.8279527,122.7332819
210400,抚顺市,Fushun shi,Fushun shi,FSN,2,41.8769985,123.9538801
210401,市辖区,City area,Fushun shixiaqu,,3,,
210402,新抚区,Fushun: Xinfu qu,Fushun: Xinfu qu,,3,41.8736113,123.907907
210403,东洲区,,,,3,41.8129149,124.0055609
210404,望花区,Fushun: Wanghua qu,Fushun: Wanghua qu,,3,41.8620983,123.7945139
210411,顺城区,Fushun: Shuncheng qu,Fushun: Shuncheng qu,,3,41.9477691,123.9348257
210421,抚顺县,Fushun,Fushun,,3,41.7642138,124.0833771
210422,新宾满族自治县,Xinbin Manzu zizhixian,Xinbin Manzu zizhixian,,3,41.6096589,124.8642969
210423,清原满族自治县,Qingyuan Manzu zizhixian,Qingyuan Manzu zizhixian,,3,42.1432007,124.9143469
210500,本溪市,Benxi shi,Benxi shi,BXS,2,41.2927534,123.7990844
210501,市辖区,City area,Benxi shixiaqu,,3,,
210502,平山区,Benxi: Pingshan qu,Benxi: Pingshan qu,,3,41.3017167,123.7625742
210503,溪湖区,Benxi: Xihu qu,Benxi: Xihu qu,,3,41.3288813,123.7675738
210504,明山区,Benxi: Mingshan qu,Benxi: Mingshan qu,,3,41.3082772,123.8174629
210505,南芬区,,,,3,41.1025983,123.7464595
210521,本溪满族自治县,Benxi Manzu zizhixian,Benxi Manzu zizhixian,,3,41.1934379,124.1748083
210522,桓仁满族自治县,Huanren Manzu zizhixian,Huanren Manzu zizhixian,,3,41.241126,125.2414477
210600,丹东市,Dandong shi,Dandong shi,DDG,2,40.1246436,124.3842137
210601,市辖区,City area,Dandong shixiaqu,,3,,
210602,元宝区,Dandong: Yuanbao qu,Dandong: Yuanbao qu,,3,40.1625671,124.3243253
210603,振兴区,Dandong: Zhenxing qu,Dandong: Zhenxing qu,,3,40.0585303,124.3405259
210604,振安区,Dandong: Zhen'an qu,Dandong: Zhen'an qu,,3,40.2057958,124.4288135
210624,宽甸满族自治县,Kuandian Manzu zizhixian,Kuandian Manzu zizhixian,,3,40.6789375,125.024575
210681,东港市,Donggang shi,Donggang shi,,3,39.9909966,123.87115
210682,凤城市,Fengcheng shi,Fengcheng shi,,3,40.5730225,124.0363097
210700,锦州市,Jinzhou shi,Jinzhou shi,JNZ,2,41.1255059,121.0968018
210701,市辖区,City area,Jinzhou shixiaqu,,3,,
210702,古塔区,Jinzhou: Guta qu,Jinzhou: Guta qu,,3,41.1172539,121.1283231
210703,凌河区,Jinzhou: Linghe qu,Jinzhou: Linghe qu,,3,41.114918,121.1509395
210711,太和区,Jinzhou: Taihe qu,Jinzhou: Taihe qu,,3,41.1090575,121.103797
210726,黑山县,Heishan,Heishan,,3,41.800815,122.2035348
210727,义县,Yi xian,Yi xian,,3,41.5467614,121.3037288
210781,凌海市,Linghai shi,Linghai shi,,3,28.8488922,121.1184464
210782,北镇市,,,,3,41.5961808,121.8002379
210800,营口市,Yingkou shi,Yingkou shi,YIK,2,40.600244,122.2985065
210801,市辖区,City area,Yingkou shixiaqu,,3,,
210802,站前区,Yingkou: Zhanqian qu,Yingkou: Zhanqian qu,,3,40.6826965,122.2607732
210803,西市区,Yingkou: Xishi qu,Yingkou: Xishi qu,,3,40.6653645,122.2124076
210804,鲅鱼圈区,,,,3,40.263211,122.1288085
210811,老边区,Yingkou: Laobian qu,Yingkou: Laobian qu,,3,40.6800685,122.3788655
210881,盖州市,Gaizhou shi,Gaizhou shi,,3,40.2469414,122.4236584
210882,大石桥市,Dashiqiao shi,Dashiqiao shi,,3,40.6304265,122.550838
210900,阜新市,Fuxin shi,Fuxin shi,FXS,2,42.0181663,121.6748285
210901,市辖区,City area,Fuxin shixiaqu,,3,,
210902,海州区,Fuxin: Haizhou qu,Fuxin: Haizhou qu,,3,42.0136228,121.6566217
210903,新邱区,,,,3,42.0875859,121.7924595
210904,太平区,Fuxin: Taiping qu,Fuxin: Taiping qu,,3,42.0106653,121.678648
210905,清河门区,Fuxin: Qinghemen qu,Fuxin: Qinghemen qu,,3,41.7935205,121.4511216
210911,细河区,Fuxin: Xihe qu,Fuxin: Xihe qu,,3,42.0253317,121.6801393
210921,阜新蒙古族自治县,Fuxin Mongolzu zizhixian,Fuxin Mongolzu zizhixian,,3,42.1727232,121.7313695
210922,彰武县,Zhangwu,Zhangwu,,3,42.3865473,122.5388002
211000,辽阳市,Liaoyang shi,Liaoyang shi,LYL,2,41.1512896,123.4018064
211001,市辖区,City area,Liaoyang shixiaqu,,3,,
211002,白塔区,Liaoyang: Baita qu,Liaoyang: Baita qu,,3,41.270122,123.1743228
211003,文圣区,Liaoyang: Wensheng qu,Liaoyang: Wensheng qu,,3,41.2628077,123.185395
211004,宏伟区,Liaoyang: Hongwei qu,Liaoyang: Hongwei qu,,3,41.2175889,123.196553
211005,弓长岭区,Liaoyang: Gongchangling qu,Liaoyang: Gongchangling qu,,3,41.1527276,123.4322977
211011,太子河区,Liaoyang: Taizihe qu,Liaoyang: Taizihe qu,,3,41.253589,123.1815004
211021,辽阳县,Liaoyang,Liaoyang,,3,41.0106776,123.3635688
211081,灯塔市,,,,3,41.4173231,123.2832849
211100,盘锦市,Panjin shi,Panjin shi,PJS,2,41.1628974,122.0311439
211101,市辖区,City area,Panjin shixiaqu,,3,,
211102,双台子区,Panjin: Shuangtaizi qu,Panjin: Shuangtaizi qu,,3,41.1905476,122.0602942
211103,兴隆台区,Panjin: Xinglongtai qu,Panjin: Xinglongtai qu,,3,41.1240269,122.0754433
211121,大洼县,Dawa,Dawa,,3,40.9162043,122.0688558
211122,盘山县,Panshan,Panshan,,3,41.1554257,122.2823381
211200,铁岭市,Tieling shi,Tieling shi,TLS,2,42.2862545,123.8423431
211201,市辖区,City area,Tieling shixiaqu,,3,,
211202,银州区,Tieling: Yinzhou qu,Tieling: Yinzhou qu,,3,42.29508,123.8573098
211204,清河区,Tieling: Qinghe qu,Tieling: Qinghe qu,,3,42.5484961,124.1579103
211221,铁岭县,Tieling,Tieling,,3,42.2637488,124.0039515
211223,西丰县,Xifeng,Xifeng,,3,42.7380376,124.7271073
211224,昌图县,Changtu,Changtu,,3,42.785748,124.1108537
211281,调兵山市,,,,3,42.4674831,123.5672557
211282,开原市,Kaiyuan shi,Kaiyuan shi,,3,42.5463067,124.0382731
211300,朝阳市,Chaoyang shi,Chaoyang shi,CYS,2,41.585276,120.4546273
211301,市辖区,City area,Chaoyang shixiaqu,,3,,
211302,双塔区,Chaoyang: Shuangta qu,Chaoyang: Shuangta qu,,3,41.5660055,120.4538548
211303,龙城区,Chaoyang: Longcheng qu,Chaoyang: Longcheng qu,,3,41.5926424,120.4371929
211321,朝阳县,Chaoyang,Chaoyang,,3,41.4216194,120.3377581
211322,建平县,Jianping,Jianping,,3,41.3981072,119.6409953
211324,喀喇沁左翼蒙古族自治县,Kalaqin zuoyi Mongolzu zizhixian,Kalaqin zuoyi Mongolzu zizhixian,,3,41.1273243,119.7407413
211381,北票市,Beipiao shi,Beipiao shi,,3,41.801127,120.7706988
211382,凌源市,Lingyuan shi,Lingyuan shi,,3,41.2444416,119.4014847
211400,葫芦岛市,Huludao,,HLD,2,40.7110119,120.8363163
211401,市辖区,City area,Jinxi shixiaqu,,3,,
211402,连山区,Jinxi: Lianshan qu,Jinxi: Lianshan qu,,3,40.9279996,120.6384015
211403,龙港区,Jinxi: Longgang qu,Jinxi: Longgang qu,,3,40.751963,120.9070301
211404,南票区,Jinxi: Nanpiao qu,Jinxi: Nanpiao qu,,3,41.0708184,120.6503212
211421,绥中县,Suizhong,Suizhong,,3,40.304289,120.0487876
211422,建昌县,Jianchang,Jianchang,,3,40.7586841,119.7591841
211481,兴城市,Xingcheng shi,Xingcheng shi,,3,40.5508932,120.4709458
220000,吉林省,Jilin,,JL,1,43.8925629,125.3154297
220100,长春市,Changchun shi,Changchun shi,CGQ,2,43.8868593,125.3247893
220101,市辖区,City area,Changchun shixiaqu,,3,,
220102,南关区,Changchun: Nanguang qu,Changchun: Nanguang qu,,3,43.7108042,125.414139
220103,宽城区,Changchun: Kuancheng qu,Changchun: Kuancheng qu,,3,43.9917262,125.3383505
220104,朝阳区,Changchun: Chaoyang qu,Changchun: Chaoyang qu,,3,43.6711543,125.32745
220105,二道区,,,,3,43.8595964,125.5892122
220106,绿园区,,,,3,43.8865964,125.1906466
220112,双阳区,,,,3,43.5334371,125.728569
220122,农安县,Nong'an,Nong'an,,3,44.4221263,125.1552951
220181,九台市,Jiutai shi,Jiutai shi,,3,44.1898897,125.9623933
220182,榆树市,Yushu shi,Yushu shi,,3,44.8812427,126.5594316
220183,德惠市,Dehui shi,Dehui shi,,3,44.4652506,125.8296776
220200,吉林市,Jilin shi,Jilin shi,JLS,2,43.8735427,126.4687943
220201,市辖区,City area,Jilin shixiaqu,,3,,
220202,昌邑区,Jilin: Changyi qu,Jilin: Changyi qu,,3,43.8818176,126.5747094
220203,龙潭区,Jilin: Longtan qu,Jilin: Longtan qu,,3,43.9106316,126.5620065
220204,船营区,Jilin: Chuanying qu,Jilin: Chuanying qu,,3,43.8334433,126.5409672
220211,丰满区,,,,3,43.8215313,126.5623069
220221,永吉县,Yongji,Yongji,,3,43.6019156,126.2328887
220281,蛟河市,Jiaohe shi,Jiaohe shi,,3,43.6837558,127.383846
220282,桦甸市,Huadian shi,Huadian shi,,3,43.1203133,127.0076072
220283,舒兰市,Shulan shi,Shulan shi,,3,44.3039039,127.0880198
220284,磐石市,,,,3,43.1058709,126.1361468
220300,四平市,Siping shi,Siping shi,SPS,2,43.0968622,124.4146514
220301,市辖区,City area,Siping shixiaqu,,3,,
220302,铁西区,Siping: Tiexi qu,Siping: Tiexi qu,,3,43.150346,124.344978
220303,铁东区,Siping: Tiedong qu,Siping: Tiedong qu,,3,43.1624228,124.4097698
220322,梨树县,Lishu,Lishu,,3,43.2985727,124.3266535
220323,伊通满族自治县,Yitong Manzu zizhixian,Yitong Manzu zizhixian,,3,43.3515448,125.3047585
220381,公主岭市,Gongzhuling shi,Gongzhuling shi,,3,43.6574247,124.985286
220382,双辽市,,,,3,43.7342824,123.7038016
220400,辽源市,Liaoyuan shi,Liaoyuan shi,LYH,2,42.9042229,125.1461112
220401,市辖区,City area,Liaoyuan shixiaqu,,3,,
220402,龙山区,Liaoyuan: Longshan qu,Liaoyuan: Longshan qu,,3,42.8971418,125.1364124
220403,西安区,Liaoyuan: Xi'an qu,Liaoyuan: Xi'an qu,,3,42.9275906,125.1485896
220421,东丰县,Dongfeng,Dongfeng,,3,42.6751868,125.531534
220422,东辽县,Dongliao,Dongliao,,3,42.9282033,124.9921095
220500,通化市,Tonghua shi,Tonghua shi,THS,2,41.7508802,125.9941506
220501,市辖区,City area,Tonghua shixiaqu,,3,,
220502,东昌区,Tonghua: Dongchang qu,Tonghua: Dongchang qu,,3,41.7284965,125.9550977
220503,二道江区,Tonghua: Erdaojiang qu,Tonghua: Erdaojiang qu,,3,41.7740242,126.042484
220521,通化县,Tonghua,Tonghua,,3,41.6793146,125.7593608
220523,辉南县,Huinan,Huinan,,3,42.6849198,126.0467863
220524,柳河县,Liuhe,Liuhe,,3,42.2846036,125.7447374
220581,梅河口市,Meihekou shi,Meihekou shi,,3,42.530338,125.6838298
220582,集安市,Ji'an shi,Ji'an shi,,3,41.1304032,126.1840725
220600,白山市,Baishan,,BSN,2,41.9399965,126.423583
220601,市辖区,City area,Baicheng shixiaqu,,3,,
220602,浑江区,,,,3,,
220605,江源区,,,,3,42.0567731,126.591146
220621,抚松县,Fusong,Fusong,,3,42.3419326,127.2807312
220622,靖宇县,Jingyu,Jingyu,,3,42.3887978,126.8135977
220623,长白朝鲜族自治县,Changbai Chaoxianzu zizhixian,Changbai Chaoxianzu zizhixian,,3,41.4200505,128.2008147
220681,临江市,Linjiang shi,Linjiang shi,,3,41.8120033,126.9181395
220700,松原市,Songyuan,Songyuan shi,SYU,2,45.1417912,124.8251152
220701,市辖区,City area,Songyuan shixiaqu,,3,,
220702,宁江区,,,,3,45.1718798,124.8170149
220721,前郭尔罗斯蒙古族自治县,,,,3,45.1171684,124.8235595
220722,长岭县,,,,3,44.2771783,123.9822793
220723,乾安县,Qian'an,Qian'an,,3,45.0048497,124.0280163
220781,扶余市,,,,3,,
220800,白城市,Baicheng,Baicheng shi,BCS,2,45.6216692,122.8510523
220801,市辖区,City area,Baicheng shixiaqu,,3,,
220802,洮北区,Baicheng: Taobei qu,Baicheng: Taobei qu,,3,45.6216692,122.8510523
220821,镇赉县,Zhenlai,Zhenlai,,3,45.8474336,123.1998897
220822,通榆县,Tongyu,Tongyu,,3,44.8130111,123.0884385
220881,洮南市,Tao'nan shi,Tao'nan shi,,3,45.3359628,122.7867329
220882,大安市,Da'an shi,Da'an shi,,3,45.5060085,124.272548
222400,延边朝鲜族自治州,Yanbian Chaoxianzu zizhizhou,Yanbian Chaoxianzu zizhizhou,YBZ,2,42.894155,129.4976521
222401,延吉市,Yanji shi,Yanji shi,,3,43.1279169,129.3687987
222402,图们市,Tumen shi,Tumen shi,,3,42.9870539,129.8552549
222403,敦化市,Dunhua shi,Dunhua shi,,3,43.6226094,128.3468664
222404,珲春市,Hunchun shi,Hunchun shi,,3,42.7981088,130.377202
222405,龙井市,Longjing shi,Longjing shi,,3,42.8768525,129.3764591
222406,和龙市,Helong shi,Helong shi,,3,42.6044471,128.9693642
222424,汪清县,Wangqing,Wangqing,,3,43.5804453,129.881798
222426,安图县,Antu,Antu,,3,42.7865039,128.5144937
230000,黑龙江省,Heilongjiang,,HL,1,45.7414932,126.6433411
230100,哈尔滨市,Harbin,Ha'erbin shi,HRB,2,45.9734191,126.7237866
230101,市辖区,City area,Ha'erbin shixiaqu,,3,,
230102,道里区,Harbin: Daoli qu,Ha'erbin: Daoli qu,,3,45.7558615,126.6170561
230103,南岗区,Harbin: Nangang qu,Ha'erbin: Nangang qu,,3,45.7614755,126.6690481
230104,道外区,Harbin: Daowai qu,Ha'erbin: Daowai qu,,3,45.7921029,126.6493821
230108,平房区,Harbin: Pingfang qu,Ha'erbin: Pingfang qu,,3,45.5969091,126.6376984
230109,松北区,,,,3,45.8097175,126.5419436
230110,香坊区,,,,3,45.7228623,126.6791975
230111,呼兰区,,,,3,45.8877305,126.5875411
230112,阿城区,,,,3,45.5414426,126.9753027
230123,依兰县,Yilan,Yilan,,3,46.2479531,129.721992
230124,方正县,Fangzheng,Fangzheng,,3,45.8569464,128.8954854
230125,宾县,,,,3,45.7755529,127.6264465
230126,巴彦县,,,,3,46.247226,127.1975827
230127,木兰县,,,,3,46.0799438,128.0691934
230128,通河县,,,,3,46.2077549,129.1272497
230129,延寿县,,,,3,45.463547,128.5061467
230182,双城市,,,,3,45.4202176,126.1988032
230183,尚志市,,,,3,45.0431982,128.2252657
230184,五常市,,,,3,44.7518383,127.4094987
230200,齐齐哈尔市,Qiqihar shi,Qiqiha'er shi,NDG,2,47.4318033,123.9433444
230201,市辖区,City area,Qiqiha'er shixiaqu,,3,,
230202,龙沙区,Qiqihar: Longsha qu,Qiqiha'er: Longsha qu,,3,47.3173776,123.9575601
230203,建华区,Qiqihar: Jianhua qu,Qiqiha'er: Jianhua qu,,3,47.3542412,123.9555001
230204,铁锋区,Qiqihar: Tiefeng qu,Qiqiha'er: Tiefeng qu,,3,47.3406912,123.9782345
230205,昂昂溪区,Qiqihar: Ang'angxi qu,Qiqiha'er: Ang'angxi qu,,3,47.4318033,123.9433444
230206,富拉尔基区,Qiqihar: Fulaerji qu,Qiqiha'er: Fulaerji qu,,3,47.2094966,123.6296868
230207,碾子山区,Qiqihar: Nianzishan qu,Qiqiha'er: Nianzishan qu,,3,47.5168891,122.887702
230208,梅里斯达斡尔族区,Qiqihar: Meilisi Dawoerzu qu,Qiqiha'er: Meilisi Dawoerzu qu,,3,47.3090924,123.7520385
230221,龙江县,Longjiang,Longjiang,,3,47.1988692,123.0546212
230223,依安县,Yi'an,Yi'an,,3,47.6999857,125.258646
230224,泰来县,Tailai,Tailai,,3,46.6777763,123.510865
230225,甘南县,Gannan,Gannan,,3,47.9637281,123.7438309
230227,富裕县,Fuyu,Fuyu,,3,47.6704594,124.5183456
230229,克山县,Keshan,Keshan,,3,48.2013802,125.6664062
230230,克东县,Kedong,Kedong,,3,47.9812327,126.3424516
230231,拜泉县,Baiquan,Baiquan,,3,47.6082752,126.0342658
230281,讷河市,Nehe shi,Nehe shi,,3,48.3962927,125.0148976
230300,鸡西市,Jixi shi,Jixi shi,JXI,2,45.3239173,130.938642
230301,市辖区,City area,Jixi shixiaqu,,3,,
230302,鸡冠区,Jixi: Jiguan qu,Jixi: Jiguan qu,,3,45.3039614,130.9813964
230303,恒山区,,,,3,45.210668,130.9049642
230304,滴道区,Jixi: Didao qu,Jixi: Didao qu,,3,45.3487598,130.8436167
230305,梨树区,Jixi: Lishu qu,Jixi: Lishu qu,,3,45.092035,130.6971788
230306,城子河区,Jixi: Chengzihe qu,Jixi: Chengzihe qu,,3,45.3369659,131.0113943
230307,麻山区,Jixi: Mashan qu,Jixi: Mashan qu,,3,45.212089,130.4781818
230321,鸡东县,Jidong,Jidong,,3,45.2605246,131.1243045
230381,虎林市,,,,3,45.762673,132.9371345
230382,密山市,,,,3,45.5464695,131.8778229
230400,鹤岗市,Hegang shi,Hegang shi,HEG,2,47.3336749,130.3008235
230401,市辖区,City area,Hegang shixiaqu,,3,,
230402,向阳区,Hegang: Xiangyang qu,Hegang: Xiangyang qu,,3,47.3424796,130.294311
230403,工农区,Hegang: Gongnong qu,Hegang: Gongnong qu,,3,47.3186941,130.274688
230404,南山区,Hegang: Nanshan qu,Hegang: Nanshan qu,,3,47.3140389,130.2767587
230405,兴安区,Hegang: Xing'an qu,Hegang: Xing'an qu,,3,47.2528516,130.2392399
230406,东山区,Hegang: Dongshan qu,Hegang: Dongshan qu,,3,47.3385319,130.3170562
230407,兴山区,Hegang: Xingshan qu,Hegang: Xingshan qu,,3,47.357759,130.2927232
230421,萝北县,Luobei,Luobei,,3,47.5774956,130.8286285
230422,绥滨县,Suibin,Suibin,,3,47.2913394,131.8598843
230500,双鸭山市,Shuangyashan shi,Shuangyashan shi,SYS,2,46.6210885,131.1882269
230501,市辖区,City area,Shuangyashan shixiaqu,,3,,
230502,尖山区,Shuangyashan: Jianshan qu,Shuangyashan: Jianshan qu,,3,46.6463502,131.1584115
230503,岭东区,Shuangyashan: Lingdong qu,Shuangyashan: Lingdong qu,,3,46.5927187,131.1647201
230505,四方台区,Shuangyashan: Sifangtai qu,Shuangyashan: Sifangtai qu,,3,46.5943259,131.3345361
230506,宝山区,Shuangyashan: Baoshan qu,Shuangyashan: Baoshan qu,,3,46.5771823,131.4016128
230521,集贤县,Jixian,Jixian,,3,46.7283746,131.1404836
230522,友谊县,Youyi,Youyi,,3,46.7674405,131.8080533
230523,宝清县,Baoqing,Baoqing,,3,46.3269648,132.1972311
230524,饶河县,Raohe,Raohe,,3,46.7981646,134.0138698
230600,大庆市,Daqing shi,Daqing shi,DQG,2,46.4018304,124.7575128
230601,市辖区,City area,Daqing shixiaqu,,3,,
230602,萨尔图区,Daqing: Sairt qu,Daqing: Sairt qu,,3,46.5937361,125.0881863
230603,龙凤区,Daqing: Longfeng qu,Daqing: Longfeng qu,,3,46.5328345,125.1161027
230604,让胡路区,Daqing: Ranghulu qu,Daqing: Ranghulu qu,,3,46.6565134,124.8769355
230605,红岗区,Daqing: Honggang qu,Daqing: Honggang qu,,3,46.3940317,124.8895848
230606,大同区,Daqing: Datong qu,Daqing: Datong qu,,3,46.0329344,124.8161352
230621,肇州县,Zhaozhou,Zhaozhou,,3,45.9011787,125.2947807
230622,肇源县,Zhaoyuan,Zhaoyuan,,3,45.6864559,124.888351
230623,林甸县,Lindain,Lindain,,3,47.1497718,124.8179162
230624,杜尔伯特蒙古族自治县,Dorbod Mongolzu zizhixian,Du'erbote Mengguzu zizhixian,,3,46.5041009,124.2356193
230700,伊春市,Yichun shi,Yichun shi,YCH,2,47.7753219,128.9185202
230701,市辖区,City area,Yichun shixiaqu,,3,,
230702,伊春区,Yichun: Yichun qu,Yichun: Yichun qu,,3,47.7280015,128.9075232
230703,南岔区,Yichun: Nancha qu,Yichun: Nancha qu,,3,47.1380304,129.2834723
230704,友好区,Yichun: Youhao qu,Yichun: Youhao qu,,3,47.8561431,128.8386226
230705,西林区,Yichun: Xilin qu,Yichun: Xilin qu,,3,47.4807338,129.3128479
230706,翠峦区,Yichun: Cuilin qu,Yichun: Cuilin qu,,3,47.7242992,128.6734951
230707,新青区,Yichun: Xinqing qu,Yichun: Xinqing qu,,3,48.2904532,129.5336044
230708,美溪区,Yichun: Meixi qu,Yichun: Meixi qu,,3,47.6350896,129.1293097
230709,金山屯区,Yichun: Jinshantun qu,Yichun: Jinshantun qu,,3,47.4130679,129.429127
230710,五营区,Yichun: Wuying qu,Yichun: Wuying qu,,3,48.1079112,129.245342
230711,乌马河区,Yichun: Wumahe qu,Yichun: Wumahe qu,,3,47.7294304,128.8030028
230712,汤旺河区,Yichun: Tangwanghe qu,Yichun: Tangwanghe qu,,3,48.454652,129.5711124
230713,带岭区,Yichun: Dailing qu,Yichun: Dailing qu,,3,47.0279997,129.0223861
230714,乌伊岭区,Yichun: Wuyiling qu,Yichun: Wuyiling qu,,3,48.5903903,129.4379354
230715,红星区,Yichun: Hongxing qu,Yichun: Hongxing qu,,3,48.2394233,129.390986
230716,上甘岭区,Yichun: Shangganling qu,Yichun: Shangganling qu,,3,47.9747114,129.0242636
230722,嘉荫县,Jiayin,Jiayin,,3,48.8889667,130.4030478
230781,铁力市,Tieli shi,Tieli shi,,3,46.9860639,128.025012
230800,佳木斯市,Jiamusi shi,Jiamusi shi,JMU,2,46.7704167,130.2756
230801,市辖区,City area,Jiamusi shixiaqu,,3,,
230803,向阳区,Jiamusi: Xiangyang qu,Jiamusi: Xiangyang qu,,3,46.8077044,130.3651321
230804,前进区,Jiamusi: Qianjin qu,Jiamusi: Qianjin qu,,3,46.814012,130.3749704
230805,东风区,Jiamusi: Dongfeng qu,Jiamusi: Dongfeng qu,,3,46.8225139,130.4036808
230811,郊区,Jiamusi: Jiaoqu,Jiamusi: Jiaoqu,,3,46.8095549,130.3273237
230822,桦南县,Hua'nan,Hua'nan,,3,46.2848078,130.4686975
230826,桦川县,Huachuan,Huachuan,,3,46.8817844,130.7187009
230828,汤原县,Tangyuan,Tangyuan,,3,46.8098046,129.8149574
230833,抚远县,Fuyuan,Fuyuan,,3,47.9510467,134.0982413
230881,同江市,Tongjiang shi,Tongjiang shi,,3,47.8641118,133.2192063
230882,富锦市,Fujin shi,Fujin shi,,3,47.2450007,132.4408293
230900,七台河市,Qitaihe shi,Qitaihe shi,QTH,2,45.7695811,131.0157502
230901,市辖区,City area,Qitaihe shixiaqu,,3,,
230902,新兴区,Qitaihe: Xinxin qu,Qitaihe: Xinxin qu,,3,45.8159467,130.9320223
230903,桃山区,Qitaihe: Taoshan qu,Qitaihe: Taoshan qu,,3,45.7683163,131.0169089
230904,茄子河区,Qitaihe: Qiezihe qu,Qitaihe: Qiezihe qu,,3,45.7851902,131.0680747
230921,勃利县,Boli,Boli,,3,45.7600758,130.5774987
231000,牡丹江市,Mudanjiang shi,Mudanjiang shi,MDG,2,44.5137905,129.7007489
231001,市辖区,City area,Mudanjiang shixiaqu,,3,,
231002,东安区,Mudanjiang: Dong'an qu,Mudanjiang: Dong'an qu,,3,44.5813896,129.6267521
231003,阳明区,Mudanjiang: Yangming qu,Mudanjiang: Yangming qu,,3,44.5961056,129.6357107
231004,爱民区,Mudanjiang: Aiming qu,Mudanjiang: Aiming qu,,3,44.5963577,129.5901883
231005,西安区,Mudanjiang: Xi'an qu,Mudanjiang: Xi'an qu,,3,44.5776298,129.616152
231024,东宁县,,,,3,44.1611034,130.8220732
231025,林口县,Linkou,Linkou,,3,45.3170221,129.9646461
231081,绥芬河市,Suifenhe shi,Suifenhe shi,,3,44.4162948,131.0878909
231083,海林市,Hailin shi,Hailin shi,,3,44.9101768,129.0952349
231084,宁安市,,,,3,43.9917339,129.2358255
231085,穆棱市,,,,3,44.4750353,130.3633404
231100,黑河市,Heihe shi,Heihe shi,HEK,2,50.247891,127.5009406
231101,市辖区,City area,Heihe shixiaqu,,3,,
231102,爱辉区,Heihe: Aihui qu,Heihe: Aihui qu,,3,50.1951782,126.7605543
231121,嫩江县,Nenjiang,Nenjiang,,3,49.1751878,125.2175975
231123,逊克县,Xunke,Xunke,,3,49.5819965,128.474915
231124,孙吴县,Sunwu,Sunwu,,3,49.4253998,127.3365641
231181,北安市,Bei'an shi,Bei'an shi,,3,48.2391375,126.4818621
231182,五大连池市,Wudalianchi shi,Wudalianchi shi,,3,48.5167891,126.2060988
231200,绥化市,Suihua,,SUH,2,46.6366344,126.9800019
231201,市辖区,City area,,,3,,
231202,北林区,,,,3,46.6373563,126.9856453
231221,望奎县,,,,3,46.8327174,126.4860785
231222,兰西县,,,,3,46.2524491,126.28811
231223,青冈县,,,,3,46.6896705,126.1139274
231224,庆安县,,,,3,46.8801637,127.507807
231225,明水县,,,,3,47.1764557,125.9037602
231226,绥棱县,,,,3,47.2360194,127.1148205
231281,安达市,,,,3,46.418016,125.344069
231282,肇东市,,,,3,46.0511354,125.962168
231283,海伦市,,,,3,47.4619722,126.9731462
232700,大兴安岭地区,Daxing'anling,Da Hinggan Ling  diqu,DHL,2,51.6736663,124.3973672
232721,呼玛县,Huma,Huma,,3,51.7256392,126.6653144
232722,塔河县,Tahe,Tahe,,3,52.549636,124.716797
232723,漠河县,Mohe,Mohe,,3,52.9225621,122.4074231
310000,上海市,Shanghai,,SH,1,31.2381763,121.4692688
310100,市辖区,City area,Shanghai shixiaqu,,2,,
310101,黄浦区,Shanghai: Huangpu qu,Shanghai: Huangpu qu,,3,31.2188206,121.4864302
310104,徐汇区,Shanghai: Xuhui qu,Shanghai: Xuhui qu,,3,31.1644509,121.435082
310105,长宁区,,,,3,31.208764,121.3812232
310106,静安区,Shanghai: Jing'an qu,Shanghai: Jing'an qu,,3,31.2289037,121.4460039
310107,普陀区,,,,3,31.2615492,121.3835621
310108,闸北区,Shanghai: Zhabei qu,Shanghai: Zhabei qu,,3,31.2504974,121.4539969
310109,虹口区,,,,3,31.2577981,121.486001
310110,杨浦区,,,,3,31.2972547,121.5273285
310112,闵行区,Shanghai: Minhang qu,Shanghai: Minhang qu,,3,31.1152581,121.4294386
310113,宝山区,Shanghai: Baoshan qu,Shanghai: Baoshan qu,,3,31.3887213,121.4075518
310114,嘉定区,Shanghai: Jiading qu,Shanghai: Jiading qu,,3,31.3601052,121.2437975
310115,浦东新区,Shanghai: Pudongxin qu,Shanghai: Pudongxin qu,,3,31.2494334,121.6485965
310116,金山区,,,,3,30.8157062,121.2265456
310117,松江区,,,,3,31.0294841,121.1957538
310118,青浦区,,,,3,31.1142202,121.0867488
310120,奉贤区,,,,3,30.8939115,121.5785909
310200,县,County,Shanghai shixian,,2,,
310230,崇明县,Chongming,Chongming,,3,31.643417,121.55738
320000,江苏省,Jiangsu,,JS,1,32.0476151,118.7727814
320100,南京市,Nanjing shi,Nanjing shi,NKG,2,32.0556449,118.7977409
320101,市辖区,City area,Nanjing shixiaqu,,3,,
320102,玄武区,Nanjing: Xuanwu qu,Nanjing: Xuanwu qu,,3,32.0549175,118.8453662
320104,秦淮区,Nanjing: Qinhuai qu,Nanjing: Qinhuai qu,,3,32.0031266,118.8040388
320105,建邺区,,,,3,32.0303719,118.7094319
320106,鼓楼区,,,,3,26.0866676,119.2775023
320111,浦口区,,,,3,32.0472699,118.5674787
320113,栖霞区,Nanjing: Qixia qu,Nanjing: Qixia qu,,3,32.1345839,119.0017605
320114,雨花台区,Nanjing: Yuhuatai qu,Nanjing: Yuhuatai qu,,3,31.9386428,118.6937249
320115,江宁区,,,,3,31.8691572,118.8029873
320116,六合区,,,,3,32.3909786,118.8239944
320117,溧水区,,,,3,,
320118,高淳区,,,,3,,
320200,无锡市,Wuxi shi,Wuxi shi,WUX,2,31.5260471,120.31968
320201,市辖区,City area,Wuxi shixiaqu,,3,,
320202,崇安区,Wuxi: Chong'an qu,Wuxi: Chong'an qu,,3,31.5799339,120.2994561
320203,南长区,Wuxi: Nanchang qu,Wuxi: Nanchang qu,,3,31.5637272,120.3088546
320204,北塘区,Wuxi: Beitang qu,Wuxi: Beitang qu,,3,31.5848419,120.2926862
320205,锡山区,,,,3,31.5887444,120.3573382
320206,惠山区,,,,3,31.6810314,120.2984476
320211,滨湖区,,,,3,31.5218127,120.2945638
320281,江阴市,Jiangyin shi,Jiangyin shi,,3,31.842493,120.2957225
320282,宜兴市,Yixing shi,Yixing shi,,3,31.3750189,119.8233426
320300,徐州市,Xuzhou,,XUZ,2,34.29166,118.3506918
320301,市辖区,City area,Xuzhou shixiaqu,,3,,
320302,鼓楼区,,,,3,34.2885132,117.1855938
320303,云龙区,,,,3,34.2489603,117.2305262
320305,贾汪区,Xuzhou: Jiawang qu,Xuzhou: Jiawang qu,,3,34.4431144,117.4536324
320311,泉山区,Xuzhou: Quanshan qu,Xuzhou: Quanshan qu,,3,34.2440559,117.1941662
320312,铜山区,,,,3,,
320321,丰县,Feng xian,Feng xian,,3,34.6732498,116.6145515
320322,沛县,Pei xian,Pei xian,,3,34.7058727,116.921525
320324,睢宁县,,,,3,33.9440453,117.852037
320381,新沂市,,,,3,34.36929,118.3543932
320382,邳州市,,,,3,34.3912494,117.8877747
320400,常州市,Changzhou,,CZX,2,31.7558405,119.939214
320401,市辖区,City area,Changzhou shixiaqu,,3,,
320402,天宁区,,,,3,31.7525015,119.9514663
320404,钟楼区,,,,3,31.7823108,119.9482799
320405,戚墅堰区,Changzhou: Qishuyan qu,Changzhou: Qishuyan qu,QSY,3,31.7200086,120.0607932
320411,新北区,,,,3,31.8304798,119.9714327
320412,武进区,,,,3,31.7012158,119.9422073
320481,溧阳市,Liyang shi,Liyang shi,,3,31.4204692,119.3807888
320482,金坛市,Jintan shi,Jintan shi,,3,31.7234766,119.5273876
320500,苏州市,,,,2,31.2370225,120.4069161
320501,市辖区,City area,Suzhou shixiaqu,,3,,
320505,虎丘区,,,,3,31.2953019,120.5734599
320506,吴中区,,,,3,31.2625855,120.6322968
320507,相城区,,,,3,31.3690464,120.6425643
320508,姑苏区,,,,3,,
320509,吴江区,,,,3,,
320581,常熟市,Changshu shi,Changshu shi,,3,31.6625046,120.8336878
320582,张家港市,Zhangjiagang shi,Zhangjiagang shi,,3,31.8783776,120.6448388
320583,昆山市,Kunshan shi,Kunshan shi,,3,31.3199693,120.9802222
320585,太仓市,Taicang shi,Taicang shi,,3,31.5564045,121.1741567
320600,南通市,Nantong shi,Nantong shi,NTG,2,31.9542742,120.9084785
320601,市辖区,City area,Nantong shixiaqu,,3,,
320602,崇川区,,,,3,32.0099592,120.8568835
320611,港闸区,Nantong: Gangzha qu,Nantong: Gangzha qu,,3,32.0312814,120.8181524
320612,通州区,,,,3,,
320621,海安县,Hai'an,Hai'an,,3,32.5320614,120.5469167
320623,如东县,Rudong,Rudong,,3,32.4054818,121.0684884
320681,启东市,Qidong shi,Qidong shi,,3,31.8622686,121.6972411
320682,如皋市,Rugao shi,Rugao shi,,3,32.2431962,120.5900681
320684,海门市,,,,3,31.9365578,121.3005102
320700,连云港市,Lianyungang shi,Lianyungang shi,LYG,2,34.6086631,119.5067668
320701,市辖区,City area,Lianyungang shixiaqu,,3,,
320703,连云区,Lianyungang: Lianyun qu,Lianyungang: Lianyun qu,,3,34.7528171,119.3727744
320705,新浦区,,,,3,34.6053516,119.1763079
320706,海州区,,,,3,34.5699947,119.1312361
320721,赣榆县,Ganyu,Ganyu,,3,34.9018412,119.0380561
320722,东海县,Donghai,Donghai,,3,34.5584384,118.7928808
320723,灌云县,Guanyun,Guanyun,,3,34.4191773,119.4328237
320724,灌南县,,,,3,34.2173649,119.4694841
320800,淮安市,Huai'an,,HAS,2,33.603325,119.0566492
320801,市辖区,City area,Huaiyin shixiaqu,,3,,
320802,清河区,Huaiyin: Qinghe qu,Huaiyin: Qinghe qu,,3,33.5995093,119.0078223
320803,淮安区,,,,3,,
320804,淮阴区,,,,3,33.6318795,119.0346873
320811,清浦区,Huaiyin: Qingpu qu,Huaiyin: Qingpu qu,,3,33.5719721,119.0322733
320826,涟水县,Lianshui,Lianshui,,3,33.7809665,119.260819
320829,洪泽县,Hongze,Hongze,,3,33.294225,118.8731432
320830,盱眙县,,,,3,32.8722686,118.5797981
320831,金湖县,Jinhu,Jinhu,,3,32.8722686,118.5797981
320900,盐城市,Yancheng shi,Yancheng shi,YCK,2,33.3474688,120.1635003
320901,市辖区,City area,Yancheng shixiaqu,,3,,
320902,亭湖区,,,,3,33.4217529,120.1525033
320903,盐都区,,,,3,33.2763144,120.0449896
320921,响水县,Xiangshui,Xiangshui,,3,34.2163713,119.8040307
320922,滨海县,,,,3,34.0978662,120.0012159
320923,阜宁县,,,,3,33.6912633,119.7263432
320924,射阳县,Sheyang,Sheyang,,3,33.7543526,120.2649629
320925,建湖县,Jianhu,Jianhu,,3,33.4818092,119.8286211
320981,东台市,Dongtai shi,Dongtai shi,,3,32.79357,120.5180883
320982,大丰市,,,,3,33.2444573,120.5613256
321000,扬州市,Yangzhou shi,Yangzhou shi,YZH,2,32.3944755,119.4132006
321001,市辖区,City area,Yangzhou shixiaqu,,3,,
321002,广陵区,Yangzhou:  Guangling qu,Yangzhou:  Guangling qu,,3,32.3920657,119.4845152
321003,邗江区,,,,3,32.4396968,119.4984519
321012,江都区,,,,3,,
321023,宝应县,Baoying,Baoying,,3,33.2141953,119.4315898
321081,仪征市,Yizheng shi,Yizheng shi,,3,32.4145756,119.1916609
321084,高邮市,,,,3,32.8454499,119.507314
321100,镇江市,Zhenjiang shi,Zhenjiang shi,ZHE,2,32.0590639,119.4183183
321101,市辖区,City area,Zhenjiang shixiaqu,,3,,
321102,京口区,Zhenjiang: Jingkou qu,Zhenjiang: Jingkou qu,,3,32.1980945,119.4694734
321111,润州区,,,,3,32.1980945,119.4694734
321112,丹徒区,,,,3,32.1318583,119.4338429
321181,丹阳市,,,,3,31.9333438,119.6502972
321182,扬中市,Yangzhong shi,Yangzhong shi,,3,32.1654138,119.8352408
321183,句容市,,,,3,31.9222803,119.1741621
321200,泰州市,Taizhou,,TZS,2,32.3599442,119.911834
321201,市辖区,City area,,,3,,
321202,海陵区,,,,3,32.4910402,119.9194193
321203,高港区,,,,3,32.3182735,119.8816752
321204,姜堰区,,,,3,,
321281,兴化市,,,,3,32.944437,119.9746943
321282,靖江市,,,,3,32.0363656,120.2898109
321283,泰兴市,,,,3,32.1710991,120.1401114
321300,宿迁市,Suqian,,SUQ,2,33.9624939,118.2752788
321301,市辖区,City area,,,3,,
321302,宿城区,,,,3,33.9422029,118.291415
321311,宿豫区,,,,3,33.9472138,118.330543
321322,沭阳县,,,,3,34.1145316,118.7687624
321323,泗阳县,,,,3,33.7211183,118.7036598
321324,泗洪县,,,,3,33.459077,118.2164204
330000,浙江省,Zhejiang,,ZJ,1,30.265995,120.1592484
330100,杭州市,Hangzhou shi,Hangzhou shi,HGH,2,30.2739768,120.1729739
330101,市辖区,City area,Hangzhou shixiaqu,,3,,
330102,上城区,Hangzhou: Shangcheng qu,Hangzhou: Shangcheng qu,,3,30.2297974,120.1836276
330103,下城区,Hangzhou: Xiacheng qu,Hangzhou: Xiacheng qu,,3,30.3045396,120.1813531
330104,江干区,Hangzhou: Jianggan qu,Hangzhou: Jianggan qu,,3,30.3096618,120.3006041
330105,拱墅区,Hangzhou: Gongshu qu,Hangzhou: Gongshu qu,,3,30.3385744,120.1568484
330106,西湖区,Hangzhou: Xihu qu,Hangzhou: Xihu qu,,3,30.2145287,120.0831628
330108,滨江区,,,,3,30.1910232,120.1767182
330109,萧山区,,,,3,30.1180508,120.2308345
330110,余杭区,,,,3,30.3620169,120.0172019
330122,桐庐县,Tonglu,Tonglu,,3,29.8432962,119.5782745
330127,淳安县,Chun'an,Chun'an,,3,29.5782252,118.8755679
330182,建德市,Jiande shi,Jiande shi,,3,29.4896382,119.3368542
330183,富阳市,Fuyang shi,Fuyang shi,,3,29.9718698,119.8029792
330185,临安市,,,,3,30.1960215,119.3662834
330200,宁波市,Ningbo,,NGB,2,29.8683357,121.5439904
330201,市辖区,City area,Ningbo shixiaqu,,3,,
330203,海曙区,Ningbo: Haishu qu,Ningbo: Haishu qu,,3,29.867396,121.5317917
330204,江东区,Ningbo: Jiangdong qu,Ningbo: Jiangdong qu,,3,29.856482,121.5742779
330205,江北区,Ningbo: Jiangbei qu,Ningbo: Jiangbei qu,,3,29.9651407,121.5085852
330206,北仑区,Ningbo: Beilun qu,Ningbo: Beilun qu,,3,29.860604,121.8959069
330211,镇海区,Ningbo: Zhenhai qu,Ningbo: Zhenhai qu,,3,29.9851501,121.6277826
330212,鄞州区,,,,3,29.7843992,121.5065467
330225,象山县,Xiangshan,Xiangshan,,3,29.3991697,121.7851746
330226,宁海县,,,,3,29.3125499,121.4907753
330281,余姚市,Yuyao shi,Yuyao shi,,3,29.96818,121.1734807
330282,慈溪市,Cixi shi,Cixi shi,,3,30.1826396,121.3419986
330283,奉化市,Fenghua shi,Fenghua shi,,3,29.5906809,121.4146328
330300,温州市,Wenzhou shi,Wenzhou shi,WNZ,2,27.9870403,120.6548595
330301,市辖区,City area,Wenzhou shixiaqu,,3,,
330302,鹿城区,Wenzhou: Lucheng qu,Wenzhou: Lucheng qu,,3,28.0644256,120.5964625
330303,龙湾区,Wenzhou: Longwan qu,Wenzhou: Longwan qu,,3,27.8985724,120.8158135
330304,瓯海区,Wenzhou: Ouhai qu,Wenzhou: Ouhai qu,,3,27.9713594,120.5389667
330322,洞头县,Dongtou,Dongtou,,3,27.9637029,121.0994303
330324,永嘉县,Yongjia,Yongjia,,3,28.3082535,120.6844497
330326,平阳县,Pingyang,Pingyang,,3,27.6434564,120.374912
330327,苍南县,Cangnan,Cangnan,,3,27.3778648,120.3794825
330328,文成县,Wencheng,Wencheng,,3,27.7708044,120.0192082
330329,泰顺县,Taishun,Taishun,,3,27.5618042,119.9387312
330381,瑞安市,Rui'an shi,Rui'an shi,,3,27.8279756,120.4757953
330382,乐清市,,,,3,28.2535863,121.022805
330400,嘉兴市,Jiaxing shi,Jiaxing shi,JIX,2,30.753924,120.758543
330401,市辖区,City area,Jiaxing shixiaqu,,3,,
330402,南湖区,,,,3,30.7201727,120.8170474
330411,秀洲区,,,,3,30.7780222,120.6755877
330421,嘉善县,Jiashan,Jiashan,,3,30.8904313,120.8924603
330424,海盐县,Haiyan,Haiyan,,3,30.4861625,120.8884585
330481,海宁市,,,,3,30.4420511,120.5730093
330482,平湖市,Pinghu shi,Pinghu shi,,3,30.7172396,121.108464
330483,桐乡市,,,,3,30.6384936,120.4834771
330500,湖州市,Huzhou shi,Huzhou shi,HZH,2,30.784502,120.1790035
330501,市辖区,City area,Huzhou shixiaqu,,3,,
330502,吴兴区,,,,3,30.8572161,120.1258421
330503,南浔区,,,,3,30.7704725,120.2778697
330521,德清县,Deqing,Deqing,,3,30.561993,120.0685072
330522,长兴县,Changxing,Changxing,,3,30.9460988,119.8355198
330523,安吉县,Anji,Anji,,3,30.6232519,119.5694339
330600,绍兴市,Shaoxing shi,Shaoxing shi,SXG,2,29.995762,120.5861092
330601,市辖区,City area,Shaoxing shixiaqu,,3,,
330602,越城区,Shaoxing: Yuecheng qu,Shaoxing: Yuecheng qu,,3,30.0008073,120.6197655
330621,绍兴县,Shaoxing,Shaoxing,,3,29.9831522,120.7487476
330624,新昌县,Xinchang,Xinchang,,3,29.3873355,120.967176
330681,诸暨市,Zhuji shi,Zhuji shi,,3,29.6790208,120.214119
330682,上虞市,Shangyu shi,Shangyu shi,,3,29.9873804,120.8835125
330683,嵊州市,,,,3,29.5790836,120.7863736
330700,金华市,Jinhua shi,Jinhua shi,JHA,2,29.0313605,119.63238
330701,市辖区,City area,Jinhua shixiaqu,,3,,
330702,婺城区,Jinhua: Wucheng qu,Jinhua: Wucheng qu,,3,29.1037736,119.6538913
330703,金东区,,,,3,29.0994051,119.6930838
330723,武义县,Wuyi,Wuyi,,3,28.7860342,119.7390461
330726,浦江县,Pujiang,Pujiang,,3,29.5133468,119.9281418
330727,磐安县,Pan'an,Pan'an,,3,29.0713149,120.5413377
330781,兰溪市,Lanxi shi,Lanxi shi,,3,29.2707987,119.5639729
330782,义乌市,Yiwu shi,Yiwu shi,,3,29.2912179,120.0484228
330783,东阳市,Dongyang shi,Dongyang shi,,3,29.2284687,120.404942
330784,永康市,Yongkang shi,Yongkang shi,,3,28.9298854,120.1194584
330800,衢州市,Quzhou shi,Quzhou shi,QUZ,2,28.977144,118.9255428
330801,市辖区,City area,Quzhou shixiaqu,,3,,
330802,柯城区,Quzhou: Kecheng qu,Quzhou: Kecheng qu,,3,28.9685181,118.8713837
330803,衢江区,,,,3,28.9805228,118.959049
330822,常山县,Changshan,Changshan,,3,28.9013265,118.511281
330824,开化县,Kaihua,Kaihua,,3,29.1379932,118.4159875
330825,龙游县,Longyou,Longyou,,3,29.028321,119.1722953
330881,江山市,Jiangshan shi,Jiangshan shi,,3,28.73724,118.6270022
330900,舟山市,Zhoushan shi,Zhoushan shi,ZOS,2,30.0275164,122.1062672
330901,市辖区,City area,Zhoushan shixiaqu,,3,,
330902,定海区,Zhoushan: Dinghai qu,Zhoushan: Dinghai qu,,3,30.0740613,122.0970511
330903,普陀区,Zhoushan: Putuo qu,Zhoushan: Putuo qu,,3,31.2615492,121.3835621
330921,岱山县,Daishan,Daishan,,3,30.283168,122.1621859
330922,嵊泗县,Shengsi,Shengsi,,3,30.028678,122.104111
331000,台州市,Taizhou shi,Taizhou shi,TZZ,2,28.6270212,121.2136173
331001,市辖区,City area,Taizhou shixiaqu,,3,,
331002,椒江区,Taizhou: Jiaojiang qu,Taizhou: Jiaojiang qu,,3,28.4837897,121.8875679
331003,黄岩区,Taizhou: Huangyan qu,Taizhou: Huangyan qu,,3,28.676545,121.248937
331004,路桥区,Taizhou: Luqiao qu,Taizhou: Luqiao qu,,3,28.5826092,121.3651299
331021,玉环县,,,,3,28.1711451,121.3446379
331022,三门县,,,,3,29.022833,121.4644897
331023,天台县,,,,3,29.1445433,120.9760809
331024,仙居县,,,,3,28.732762,120.6256342
331081,温岭市,,,,3,28.3849255,121.4189994
331082,临海市,,,,3,28.8488922,121.1184464
331100,丽水市,Lishui,,LSS,2,28.4518359,119.9164259
331101,市辖区,City area,,,3,,
331102,莲都区,,,,3,28.4458363,119.912703
331121,青田县,,,,3,28.1398821,120.2894354
331122,缙云县,,,,3,28.6584233,120.0918853
331123,遂昌县,,,,3,28.5920395,119.276247
331124,松阳县,,,,3,28.449138,119.4820261
331125,云和县,,,,3,28.115802,119.5734036
331126,庆元县,,,,3,27.6192276,119.0625072
331127,景宁畲族自治县,,,,3,27.9733493,119.6358669
331181,龙泉市,,,,3,28.0744132,119.1418147
340000,安徽省,Anhui,,AH,1,31.8632545,117.2757034
340100,合肥市,Hefei shi,Hefei shi,HFE,2,31.7956434,117.2591507
340101,市辖区,City area,Hefei shixiaqu,,3,,
340102,瑶海区,,,,3,31.8579493,117.309587
340103,庐阳区,,,,3,31.8786418,117.264601
340104,蜀山区,,,,3,31.8512513,117.2605455
340111,包河区,,,,3,31.8800539,117.2826684
340121,长丰县,Changfeng,Changfeng,,3,32.2579226,117.2117937
340122,肥东县,Feidong,Feidong,,3,31.9207413,117.6032138
340123,肥西县,Feixi,Feixi,,3,31.7553387,117.0665145
340124,庐江县,,,,3,,
340181,巢湖市,Chaohu,,,3,,
340200,芜湖市,Wuhu shi,Wuhu shi,WHI,2,31.4067806,118.3732438
340201,市辖区,City area,Wuhu shixiaqu,,3,,
340202,镜湖区,Wuhu: Jinghu qu,Wuhu: Jinghu qu,,3,31.3403876,118.3852494
340203,弋江区,,,,3,31.3115917,118.3729649
340207,鸠江区,Wuhu: Jiujiang qu,Wuhu: Jiujiang qu,,3,31.3698891,118.392545
340208,三山区,,,,3,31.2238852,118.2348204
340221,芜湖县,Wuhu,Wuhu,,3,31.1772568,118.5068929
340222,繁昌县,Fanchang,Fanchang,,3,31.1313677,118.1741917
340223,南陵县,Nanling,Nanling,,3,30.9204965,118.2392728
340225,无为县,,,,3,,
340300,蚌埠市,Bengbu shi,Bengbu shi,BBU,2,32.9468409,117.3585105
340301,市辖区,City area,Bengbu shixiaqu,,3,,
340302,龙子湖区,,,,3,32.9430144,117.3937869
340303,蚌山区,,,,3,32.9441939,117.3676193
340304,禹会区,,,,3,32.9333619,117.3531461
340311,淮上区,,,,3,32.9642338,117.360034
340321,怀远县,Huaiyuan,Huaiyuan,,3,33.0200351,117.0358837
340322,五河县,Wuhe,Wuhe,,3,33.1280547,117.7557886
340323,固镇县,Guzhen,Guzhen,,3,33.2653708,117.338233
340400,淮南市,Huainan shi,Huainan shi,HNS,2,32.6496737,117.0385337
340401,市辖区,City area,Huainan shixiaqu,,3,,
340402,大通区,Huainan: Datong qu,Huainan: Datong qu,,3,32.631659,117.0532858
340403,田家庵区,Huainan: Tianjia'an qu,Huainan: Tianjia'an qu,,3,32.6471533,117.0174086
340404,谢家集区,Huainan: Xiejiaji qu,Huainan: Xiejiaji qu,,3,32.5999032,116.859051
340405,八公山区,Huainan: Bagongshan qu,Huainan: Bagongshan qu,,3,32.6296712,116.832186
340406,潘集区,Huainan: Panji qu,Huainan: Panji qu,,3,32.7826203,116.816833
340421,凤台县,Fengtai,Fengtai,,3,32.7094465,116.7110467
340500,马鞍山市,Ma'anshan shi,Ma'anshan shi,MAA,2,31.6928176,118.5523188
340501,市辖区,City area,Ma'anshan shixiaqu,,3,,
340503,花山区,Ma'anshan: Huashan qu,Ma'anshan: Huashan qu,,3,31.7001113,118.5123217
340504,雨山区,Ma'anshan: Yushan qu,Ma'anshan: Yushan qu,,3,31.6822,118.4986961
340506,博望区,,,,3,,
340521,当涂县,Dangtu,Dangtu,,3,31.4904743,118.632828
340522,含山县,,,,3,,
340523,和县,,,,3,,
340600,淮北市,Huaibei shi,Huaibei shi,HBE,2,34.0187497,116.8862915
340601,市辖区,City area,Huaibei shixiaqu,,3,,
340602,杜集区,Huaibei: Duji qu,Huaibei: Duji qu,,3,33.9914804,116.8281412
340603,相山区,Huaibei: Xiangshan qu,Huaibei: Xiangshan qu,,3,33.9597976,116.7946458
340604,烈山区,Huaibei: Lieshan qu,Huaibei: Lieshan qu,,3,33.8931194,116.8132603
340621,濉溪县,Suixi,Suixi,,3,33.9154789,116.7663002
340700,铜陵市,Tongling shi,Tongling shi,TOL,2,30.9237823,117.8247857
340701,市辖区,City area,Tongling shixiaqu,,3,,
340702,铜官山区,Tongling: Tongguanshan qu,Tongling: Tongguanshan qu,,3,30.9342372,117.8152585
340703,狮子山区,Tongling: Shizishan qu,Tongling: Shizishan qu,,3,30.9502026,117.8503847
340711,郊区,Tongling: Jiaoqu,Tongling: Jiaoqu,,3,30.9197694,117.8086817
340721,铜陵县,Tongling,Tongling,,3,30.9528249,117.7915478
340800,安庆市,Anqing shi,Anqing shi,AQG,2,30.5982377,117.1100521
340801,市辖区,City area,Anqing shixiaqu,,3,,
340802,迎江区,Anqing: Yingjiang qu,Anqing: Yingjiang qu,,3,30.5040696,117.0492518
340803,大观区,Anqing: Daguan qu,Anqing: Daguan qu,,3,30.5119728,117.0344889
340811,宜秀区,,,,3,30.535734,117.0535862
340822,怀宁县,,,,3,30.5869335,116.7700231
340823,枞阳县,Zongyang,Zongyang,,3,30.855153,117.4078953
340824,潜山县,Qianshan,Qianshan,,3,30.7631159,116.5068662
340825,太湖县,Taihu,Taihu,,3,30.4529467,116.1272693
340826,宿松县,Susong,Susong,,3,30.1047975,116.2351906
340827,望江县,Wangjiang,Wangjiang,,3,30.2348771,116.6850829
340828,岳西县,Yuexi,Yuexi,,3,30.9188858,116.2024677
340881,桐城市,,,,3,30.9636722,116.9198513
341000,黄山市,Huangshan shi,Huangshan shi,HSN,2,29.9558362,118.2488108
341001,市辖区,City area,Huangshan shixiaqu,,3,,
341002,屯溪区,Huangshan: Tunxi qu,Huangshan: Tunxi qu,,3,29.7113793,118.3336866
341003,黄山区,Huangshan: Huangshan qu,Huangshan: Huangshan qu,,3,30.2729391,118.1415653
341004,徽州区,Huangshan: Huizhou qu,Huangshan: Huizhou qu,,3,29.82794,118.3367229
341021,歙县,She xian,She xian,,3,29.8661586,118.4313726
341022,休宁县,,,,3,29.7862243,118.1824744
341023,黟县,Yi xian,Yi xian,,3,29.924812,117.9382646
341024,祁门县,Qimen,Qimen,,3,29.8540534,117.7173901
341100,滁州市,Chuzhou shi,Chuzhou shi,CUZ,2,32.3080456,118.3084095
341101,市辖区,City area,Chuzhou shixiaqu,,3,,
341102,琅琊区,Chuzhou: Langya qu,Chuzhou: Langya qu,,3,32.2952136,118.3053839
341103,南谯区,Chuzhou: Nanqiao qu,Chuzhou: Nanqiao qu,,3,32.318609,118.3122182
341122,来安县,Lai'an,Lai'an,,3,32.4521823,118.4360397
341124,全椒县,Quanjiao,Quanjiao,,3,32.0852744,118.2733262
341125,定远县,Dingyuan,Dingyuan,,3,32.5255485,117.6829505
341126,凤阳县,Fengyang,Fengyang,,3,32.8661159,117.561146
341181,天长市,Tianchang shi,Tianchang shi,,3,32.6894394,119.0036809
341182,明光市,Mingguang shi,Mingguang shi,,3,32.7770908,117.9892695
341200,阜阳市,Fuyang,,FYS,2,32.9082531,115.8268189
341201,市辖区,City area,,,3,,
341202,颍州区,,,,3,32.8834705,115.8069384
341203,颍东区,,,,3,32.9124774,115.856688
341204,颍泉区,,,,3,32.9248159,115.8074212
341221,临泉县,,,,3,33.0645806,115.2579439
341222,太和县,,,,3,33.1603763,115.6219304
341225,阜南县,,,,3,32.6350291,115.5857205
341226,颍上县,,,,3,32.6288671,116.2646949
341282,界首市,,,,3,33.2571531,115.374577
341300,宿州市,Suzhou,,SUZ,2,33.6393918,116.9852972
341301,市辖区,City area,,,3,,
341302,埇桥区,,,,3,33.6402314,116.9773364
341321,砀山县,,,,3,34.4254344,116.3550532
341322,萧县,,,,3,34.1887308,116.9472849
341323,灵璧县,,,,3,33.5420564,117.5578952
341324,泗县,,,,3,33.4829725,117.9106379
341500,六安市,Lu'an,,LAW,2,31.7489891,116.4958906
341501,市辖区,City area,,,3,,
341502,金安区,,,,3,31.7557401,116.5091193
341503,裕安区,,,,3,31.737867,116.479851
341521,寿县,,,,3,32.5734525,116.7871571
341522,霍邱县,,,,3,32.3448536,116.2813032
341523,舒城县,,,,3,31.4621912,116.948669
341524,金寨县,,,,3,31.6783197,115.8796048
341525,霍山县,,,,3,31.392687,116.3328874
341600,亳州市,Bozhou,,BOZ,2,33.8762324,115.779022
341601,市辖区,City area,,,3,,
341602,谯城区,,,,3,33.8762324,115.779022
341621,涡阳县,,,,3,33.5058684,116.2198055
341622,蒙城县,,,,3,33.2294902,116.5609857
341623,利辛县,,,,3,33.1168194,116.1359431
341700,池州市,Chizhou,,CIZ,2,30.6599258,117.4907863
341701,市辖区,City area,,,3,,
341702,贵池区,,,,3,30.605847,117.4855721
341721,东至县,,,,3,30.096685,117.0275366
341722,石台县,,,,3,30.2101711,117.4865162
341723,青阳县,,,,3,30.6225133,117.9277933
341800,宣城市,Xuancheng,,XCI,2,30.9407157,118.7588167
341801,市辖区,City area,,,3,,
341802,宣州区,,,,3,30.9443965,118.7546217
341821,郎溪县,,,,3,31.1263992,119.1798055
341822,广德县,,,,3,30.8937826,119.4172025
341823,泾县,,,,3,30.6905337,118.4064388
341824,绩溪县,,,,3,30.0708674,118.595674
341825,旌德县,,,,3,30.2863457,118.5404849
341881,宁国市,,,,3,30.6335733,118.982985
350000,福建省,Fujian,,FJ,1,26.0785904,119.2978134
350100,福州市,Fuzhou shi,Fuzhou shi,FOC,2,26.0761062,119.3064058
350101,市辖区,City area,Fuzhou shixiaqu,,3,,
350102,鼓楼区,Fuzhou: Gulou qu,Fuzhou: Gulou qu,,3,26.0866676,119.2775023
350103,台江区,Fuzhou: Taijiang qu,Fuzhou: Taijiang qu,,3,26.0604358,119.308176
350104,仓山区,Fuzhou: Cangshan qu,Fuzhou: Cangshan qu,,3,26.0285295,119.3367577
350105,马尾区,Fuzhou: Mawei qu,Fuzhou: Mawei qu,,3,26.0589804,119.6050215
350111,晋安区,,,,3,26.2117708,119.3179715
350121,闽侯县,,,,3,26.1916035,119.1496146
350122,连江县,Lianjiang,Lianjiang,,3,26.2912604,119.614774
350123,罗源县,Luoyuan,Luoyuan,,3,26.5123623,119.4821763
350124,闽清县,Minqing,Minqing,,3,26.2339844,118.7642884
350125,永泰县,Yongtai,Yongtai,,3,25.8568002,118.8019896
350128,平潭县,Pingtan,Pingtan,,3,25.5267294,119.7812104
350181,福清市,Fuqing shi,Fuqing shi,,3,25.5857819,119.374094
350182,长乐市,Changle shi,Changle shi,,3,25.8730094,119.5613015
350200,厦门市,Xiamen shi,Xiamen shi,XMN,2,24.4796693,118.0897665
350201,市辖区,City area,Xiamen shixiaqu,,3,,
350203,思明区,Xiamen: Siming qu,Xiamen: Siming qu,,3,24.4626292,118.1373382
350205,海沧区,,,,3,24.5414335,117.9820812
350206,湖里区,Xiamen: Huli qu,Xiamen: Huli qu,,3,24.5205754,118.1388938
350211,集美区,Xiamen: Jimei qu,Xiamen: Jimei qu,,3,24.6439844,118.0386865
350212,同安区,,,,3,24.7559022,118.0836296
350213,翔安区,,,,3,24.6798945,118.2692599
350300,莆田市,Putian shi,Putian shi,PUT,2,25.3840067,119.1084695
350301,市辖区,City area,Putian shixiaqu,,3,,
350302,城厢区,Putian: Chengxiang qu,Putian: Chengxiang qu,,3,25.418567,118.9946795
350303,涵江区,Putian: Hanjiang qu,Putian: Hanjiang qu,,3,25.4587264,119.1163445
350304,荔城区,,,,3,25.432617,119.01515
350305,秀屿区,,,,3,25.3180277,119.1053259
350322,仙游县,Xianyou,Xianyou,,3,25.4404553,118.6982846
350400,三明市,Sanming shi,Sanming shi,SMS,2,26.2564825,117.6182127
350401,市辖区,City area,Sanming shixiaqu,,3,,
350402,梅列区,Sanming: Meilie qu,Sanming: Meilie qu,,3,26.2657673,117.6291883
350403,三元区,Sanming: Sanyuan qu,Sanming: Sanyuan qu,,3,26.2341673,117.6080203
350421,明溪县,Mingxi,Mingxi,,3,26.3558242,117.202127
350423,清流县,Qingliu,Qingliu,,3,26.1778068,116.8164253
350424,宁化县,,,,3,26.2617552,116.6543663
350425,大田县,Datian,Datian,,3,25.692788,117.847209
350426,尤溪县,Youxi,Youxi,,3,26.1701713,118.1904674
350427,沙县,Sha xian,Sha xian,,3,26.3971458,117.7927387
350428,将乐县,Jiangle,Jiangle,,3,26.7285837,117.471807
350429,泰宁县,,,,3,26.9001806,117.1757555
350430,建宁县,,,,3,26.8309067,116.8460798
350481,永安市,Yong'an shi,Yong'an shi,,3,25.9590286,117.3593044
350500,泉州市,Quanzhou shi,Quanzhou shi,QZJ,2,24.9220332,118.5822952
350501,市辖区,City area,Quanzhou shixiaqu,,3,,
350502,鲤城区,Quanzhou: Licheng qu,Quanzhou: Licheng qu,,3,24.9063672,118.5494542
350503,丰泽区,,,,3,24.9191337,118.6209619
350504,洛江区,,,,3,25.1177768,118.6394799
350505,泉港区,,,,3,25.1665425,118.8433063
350521,惠安县,Hui'an,Hui'an,,3,24.9857274,118.8339186
350524,安溪县,Anxi,Anxi,,3,25.1304436,117.9513001
350525,永春县,Yongchun,Yongchun,,3,25.3803426,118.1070399
350526,德化县,Dehua,Dehua,,3,25.657088,118.2422984
350527,金门县,Jinmen,Jinmen,,3,24.4546406,118.3803785
350581,石狮市,Shishi shi,Shishi shi,,3,24.7375941,118.6872339
350582,晋江市,Jinjiang shi,Jinjiang shi,,3,24.7044785,118.5554194
350583,南安市,Nan'an shi,Nan'an shi,,3,24.9408005,118.3595431
350600,漳州市,Zhangzhou shi,Zhangzhou shi,ZZU,2,24.5915293,117.6549911
350601,市辖区,City area,Zhangzhou shixiaqu,,3,,
350602,芗城区,Zhangzhou: Xiangcheng qu,Zhangzhou: Xiangcheng qu,,3,24.5108041,117.6540148
350603,龙文区,,,,3,24.5157533,117.6906431
350622,云霄县,Yunxiao,Yunxiao,,3,23.9874779,117.3310554
350623,漳浦县,Zhangpu,Zhangpu,,3,24.0204484,117.7262735
350624,诏安县,Zhao'an,Zhao'an,,3,23.8817273,117.1494377
350625,长泰县,Changtai,Changtai,,3,24.728093,117.7901101
350626,东山县,Dongshan,Dongshan,,3,23.6713425,117.4283445
350627,南靖县,Nanjing,Nanjing,,3,24.7092642,117.31493
350628,平和县,Pinghe,Pinghe,,3,24.3076693,117.208693
350629,华安县,Hua'an,Hua'an,,3,24.9137626,117.5123835
350681,龙海市,Longhai shi,Longhai shi,,3,24.3965272,117.8245175
350700,南平市,Nanping shi,Nanping shi,NPS,2,26.6404775,118.1823027
350701,市辖区,City area,,,3,,
350702,延平区,,,,3,26.6351838,118.1781399
350721,顺昌县,Shunchang,Shunchang,,3,26.7932946,117.8102589
350722,浦城县,Pucheng,Pucheng,,3,27.9172975,118.5412359
350723,光泽县,Guangze,Guangze,,3,27.5413531,117.3334479
350724,松溪县,Songxi,Songxi,,3,27.5262359,118.7854671
350725,政和县,Zhenghe,Zhenghe,,3,27.3661268,118.8576722
350781,邵武市,Shaowu shi,Shaowu shi,,3,27.3406647,117.4926531
350782,武夷山市,Wuyishan shi,Wuyishan shi,,3,27.7566588,118.0353069
350783,建瓯市,Jian 'ou shi,Jian 'ou shi,,3,27.0233674,118.3069503
350784,建阳市,Jianyang shi,Jianyang shi,,3,27.3319059,118.1205153
350800,龙岩市,Longyan,,LYF,2,25.1006494,117.0341885
350801,市辖区,City area,,,3,,
350802,新罗区,,,,3,25.0983273,117.0373213
350821,长汀县,,,,3,25.8336073,116.3576066
350822,永定县,,,,3,24.723961,116.7320967
350823,上杭县,,,,3,25.0495149,116.4201021
350824,武平县,,,,3,25.0955097,116.1003506
350825,连城县,,,,3,25.7078789,116.7634571
350881,漳平市,,,,3,25.2901709,117.4199009
350900,宁德市,Ningde,,NDS,2,26.652819,119.5366788
350901,市辖区,City area,,,3,,
350902,蕉城区,,,,3,26.6558,119.523804
350921,霞浦县,,,,3,26.8081188,120.0182855
350922,古田县,,,,3,26.5801319,118.9726317
350923,屏南县,,,,3,26.9174877,118.961463
350924,寿宁县,,,,3,27.3923451,119.4781637
350925,周宁县,,,,3,27.098827,119.3096673
350926,柘荣县,,,,3,27.2052991,119.9015343
350981,福安市,,,,3,27.0441721,119.6258032
350982,福鼎市,,,,3,27.2041254,120.1932943
360000,江西省,Jiangxi,,JX,1,28.6759911,115.8999176
360100,南昌市,Nanchang shi,Nanchang shi,KHN,2,28.7467787,115.8269048
360101,市辖区,City area,Nanchang shixiaqu,,3,,
360102,东湖区,Nanchang: Donghu qu,Nanchang: Donghu qu,,3,28.6849123,115.8990133
360103,西湖区,Nanchang: Xihu qu,Nanchang: Xihu qu,,3,28.6568887,115.8772874
360104,青云谱区,Nanchang: Qingyunpu qu,Nanchang: Qingyunpu qu,,3,28.6318522,115.9145486
360105,湾里区,Nanchang: Wanli qu,Nanchang: Wanli qu,,3,28.7148668,115.730989
360111,青山湖区,,,,3,28.6829828,115.9621418
360121,南昌县,Nanchang,Nanchang,,3,28.6052367,116.0698271
360122,新建县,Xinjian,Xinjian,,3,28.9658148,116.1040413
360123,安义县,Anyi,Anyi,,3,28.7995549,115.6037235
360124,进贤县,Jinxian,Jinxian,,3,28.4623626,116.2931263
360200,景德镇市,Jingdezhen shi,Jingdezhen shi,JDZ,2,29.2345544,117.1444917
360201,市辖区,City area,Jingdezheng shixiaqu,,3,,
360202,昌江区,Jingdezhen: Changjiang qu,Jingdezhen: Changjiang qu,,3,29.2734192,117.1836841
360203,珠山区,Jingdezhen: Zhushan qu,Jingdezhen: Zhushan qu,,3,29.3012763,117.2023308
360222,浮梁县,Fuliang,Fuliang,,3,29.5347722,117.3731768
360281,乐平市,Leping shi,Leping shi,,3,28.981283,117.2811019
360300,萍乡市,Pingxiang shi,Pingxiang shi,PXS,2,27.6228684,113.8546765
360301,市辖区,City area,Pingxiang shixiaqu,,3,,
360302,安源区,Pingxiang: Anyuan qu,Pingxiang: Anyuan qu,,3,27.6152064,113.8707268
360313,湘东区,Pingxiang: Xiangdong qu,Pingxiang: Xiangdong qu,,3,27.6400729,113.7330544
360321,莲花县,Lianhua,Lianhua,,3,27.1276674,113.9614606
360322,上栗县,,,,3,27.8805648,113.7952173
360323,芦溪县,,,,3,27.6307011,114.0296209
360400,九江市,Jiujiang shi,Jiujiang shi,JIU,2,29.6101497,115.9981048
360401,市辖区,City area,Jiujiang shixiaqu,,3,,
360402,庐山区,Jiujiang: Lushan qu,Jiujiang: Lushan qu,,3,29.6717778,115.9892213
360403,浔阳区,Jiujiang: Xunyang qu,Jiujiang: Xunyang qu,,3,29.7274615,115.9904015
360421,九江县,Jiujiang,Jiujiang,,3,29.5990678,115.7858777
360423,武宁县,,,,3,29.3264881,114.9631047
360424,修水县,Xiushui,Xiushui,,3,29.0101014,114.4126296
360425,永修县,Yongxiu,Yongxiu,,3,29.124451,115.8220339
360426,德安县,De'an,De'an,,3,29.3870176,115.6068242
360427,星子县,Xingzi,Xingzi,,3,29.3425006,115.9728062
360428,都昌县,Duchang,Duchang,,3,29.3423416,116.3132966
360429,湖口县,Hukou,Hukou,,3,29.6791047,116.2744582
360430,彭泽县,Pengze,Pengze,,3,29.8292895,116.6226733
360481,瑞昌市,Ruichang shi,Ruichang shi,,3,29.6201858,115.4179752
360482,共青城市,,,,3,,
360500,新余市,Xinyu shi,Xinyu shi,XYU,2,27.804101,114.9341154
360501,市辖区,City area,Xinyu shixiaqu,,3,,
360502,渝水区,Xinyu: Yushui qu,Xinyu: Yushui qu,,3,27.8003808,114.944576
360521,分宜县,Fenyi,Fenyi,,3,27.8102789,114.676044
360600,鹰潭市,Yingtan shi,Yingtan shi,YTS,2,28.2600503,117.0692182
360601,市辖区,City area,Yingtan shixiaqu,,3,,
360602,月湖区,Yingtan: Yuehu qu,Yingtan: Yuehu qu,,3,28.2387951,117.0366776
360622,余江县,Yujiang,Yujiang,,3,28.2041765,116.8188715
360681,贵溪市,,,,3,28.2925157,117.2454929
360700,赣州市,Ganzhou,,GZH,2,25.8628246,114.9418294
360701,市辖区,City area,,,3,,
360702,章贡区,,,,3,25.8628246,114.9418294
360721,赣县,,,,3,25.8606621,115.0116098
360722,信丰县,,,,3,25.3862748,114.9229681
360723,大余县,,,,3,25.3952016,114.3580842
360724,上犹县,,,,3,25.7908014,114.5372236
360725,崇义县,,,,3,25.6818818,114.3082702
360726,安远县,,,,3,25.1369222,115.3939211
360727,龙南县,,,,3,24.9111062,114.7898126
360728,定南县,,,,3,24.7844066,115.0278425
360729,全南县,,,,3,24.7423687,114.5301318
360730,宁都县,,,,3,26.4712549,116.0131466
360731,于都县,,,,3,25.9520637,115.4155076
360732,兴国县,,,,3,26.3379415,115.3631938
360733,会昌县,,,,3,25.6002768,115.7860601
360734,寻乌县,,,,3,24.9547599,115.6501365
360735,石城县,,,,3,26.3265663,116.3434768
360781,瑞金市,,,,3,25.8855582,116.0271263
360782,南康市,,,,3,25.6612368,114.7651148
360800,吉安市,Ji'an,,JAS,2,27.113038,114.9929094
360801,市辖区,City area,,,3,,
360802,吉州区,,,,3,27.1066968,114.9759901
360803,青原区,,,,3,27.1057799,115.0174785
360821,吉安县,,,,3,27.0401395,114.9076581
360822,吉水县,,,,3,27.2098982,115.1338649
360823,峡江县,,,,3,27.5828981,115.3165662
360824,新干县,,,,3,27.7557093,115.3975689
360825,永丰县,,,,3,27.3178658,115.4414821
360826,泰和县,,,,3,26.7902299,114.9088597
360827,遂川县,,,,3,26.3249604,114.5142424
360828,万安县,,,,3,26.45826,114.7862506
360829,安福县,,,,3,27.392869,114.6198893
360830,永新县,,,,3,26.9452366,114.2426741
360881,井冈山市,,,,3,26.5871456,114.1008174
360900,宜春市,Yichun,,YCN,2,27.7965655,114.3951094
360901,市辖区,City area,,,3,,
360902,袁州区,,,,3,27.7964991,114.3824708
360921,奉新县,,,,3,28.7008082,115.3848982
360922,万载县,,,,3,28.1045502,114.447552
360923,上高县,,,,3,28.2328307,114.9244916
360924,宜丰县,,,,3,28.3852275,114.7809827
360925,靖安县,,,,3,28.8614754,115.3626251
360926,铜鼓县,,,,3,28.5207497,114.3709803
360981,丰城市,,,,3,28.1593221,115.7711899
360982,樟树市,,,,3,28.0558006,115.5460668
360983,高安市,,,,3,28.4172584,115.3756177
361000,抚州市,Fuzhou,,FUZ,2,27.9792712,116.3626063
361001,市辖区,City area,,,3,,
361002,临川区,,,,3,27.9772815,116.3600636
361021,南城县,,,,3,27.5527491,116.6446567
361022,黎川县,,,,3,27.2950622,116.9118047
361023,南丰县,,,,3,27.2184471,116.5257275
361024,崇仁县,,,,3,27.7646812,116.0611689
361025,乐安县,,,,3,27.4204429,115.8378911
361026,宜黄县,,,,3,27.5461476,116.2221229
361027,金溪县,,,,3,27.9083383,116.7754304
361028,资溪县,,,,3,27.7060994,117.0602596
361029,东乡县,,,,3,28.2361201,116.5904653
361030,广昌县,,,,3,26.8372635,116.3257527
361100,上饶市,Shangrao,,SRS,2,28.4433176,117.9763734
361101,市辖区,City area,,,3,,
361102,信州区,,,,3,28.4312134,117.9668248
361121,上饶县,,,,3,28.4489871,117.9078484
361122,广丰县,,,,3,28.4363269,118.1913149
361123,玉山县,,,,3,28.6763093,118.2420516
361124,铅山县,,,,3,28.3152148,117.7094507
361125,横峰县,,,,3,28.4071141,117.5964546
361126,弋阳县,,,,3,28.3780442,117.4495876
361127,余干县,,,,3,28.7023044,116.6956508
361128,鄱阳县,,,,3,28.9967864,116.6744399
361129,万年县,,,,3,28.6940699,117.0701945
361130,婺源县,,,,3,29.2479884,117.862004
361181,德兴市,,,,3,28.9464669,117.5787091
370000,山东省,Shandong,,SD,1,36.6670723,117.0056
370100,济南市,Jinan,Ji'nan shi,TNA,2,36.6510163,116.9974101
370101,市辖区,City area,Ji'nan shixiaqu,,3,,
370102,历下区,Ji'nan: Lixia qu,Ji'nan: Lixia qu,,3,36.6666203,117.0768034
370103,市中区,Ji'nan: Shizhong qu,Ji'nan: Shizhong qu,,3,36.6510163,116.9974101
370104,槐荫区,Ji'nan: Huaiyin qu,Ji'nan: Huaiyin qu,,3,36.6521439,116.9665861
370105,天桥区,Ji'nan: Tianqiao qu,Ji'nan: Tianqiao qu,,3,36.6780136,116.9874966
370112,历城区,Ji'nan: Licheng qu,Ji'nan: Licheng qu,,3,36.6805777,117.0651734
370113,长清区,,,,3,36.5533874,116.7538118
370124,平阴县,Pingyin,Pingyin,,3,36.2894539,116.456269
370125,济阳县,,,,3,36.9775553,117.2197545
370126,商河县,,,,3,37.3282802,117.2110534
370181,章丘市,Zhangqiu shi,Zhangqiu shi,,3,36.714024,117.5341094
370200,青岛市,Qingdao shi,Qingdao shi,TAO,2,36.1079328,120.4159606
370201,市辖区,City area,Qingdao shixiaqu,,3,,
370202,市南区,Qingdao: Shinan qu,Qingdao: Shinan qu,,3,36.0692817,120.3568554
370203,市北区,Qingdao: Shibei qu,Qingdao: Shibei qu,,3,36.0985795,120.4053819
370211,黄岛区,Qingdao: Huangdao qu,Qingdao: Huangdao qu,,3,35.977902,120.2811956
370212,崂山区,Qingdao: Laoshan qu,Qingdao: Laoshan qu,,3,36.1922869,120.5630744
370213,李沧区,,,,3,36.1886849,120.4276013
370214,城阳区,,,,3,36.2863406,120.3490019
370281,胶州市,Jiaozhou shi,Jiaozhou shi,,3,36.2537129,119.9304485
370282,即墨市,Jimo shi,Jimo shi,,3,36.4766361,120.5601346
370283,平度市,Pingdu shi,Pingdu shi,,3,36.761682,119.9242365
370285,莱西市,Laixi shi,Laixi shi,,3,36.8618453,120.4365063
370300,淄博市,Zibo shi,Zibo shi,ZBO,2,36.6358052,118.0986071
370301,市辖区,City area,Zibo shixiaqu,,3,,
370302,淄川区,Zibo: Zichuan qu,Zibo: Zichuan qu,,3,36.6434499,117.9668462
370303,张店区,Zibo: Zhangdian qu,Zibo: Zhangdian qu,,3,36.8063984,118.0181408
370304,博山区,Zibo: Boshan qu,Zibo: Boshan qu,,3,36.4947767,117.8616822
370305,临淄区,Zibo: Linzi qu,Zibo: Linzi qu,,3,36.8273385,118.3089781
370306,周村区,Zibo: Zhoucun qu,Zibo: Zhoucun qu,,3,36.8031083,117.8697932
370321,桓台县,Huantai,Huantai,,3,36.9798523,118.0115426
370322,高青县,Gaoqing,Gaoqing,,3,37.1757141,117.8123724
370323,沂源县,Yiyuan,Yiyuan,,3,36.1588056,118.2154012
370400,枣庄市,Zaozhuang shi,Zaozhuang shi,ZZG,2,34.8225145,117.3235238
370401,市辖区,City area,Zaozhuang shixiaqu,,3,,
370402,市中区,Zaozhuang: Shizhong qu,Zaozhuang: Shizhong qu,,3,36.6510163,116.9974101
370403,薛城区,Zaozhuang: Xuecheng qu,Zaozhuang: Xuecheng qu,,3,34.7950831,117.2631955
370404,峄城区,,,,3,34.7722343,117.590822
370405,台儿庄区,Zaozhuang: Tai'erzhuang qu,Zaozhuang: Tai'erzhuang qu,,3,34.5628738,117.7339017
370406,山亭区,Zaozhuang: Shanting qu,Zaozhuang: Shanting qu,,3,35.0995465,117.4613464
370481,滕州市,Tengzhou shi,Tengzhou shi,,3,35.084017,117.1643829
370500,东营市,Dongying shi,Dongying shi,DYG,2,37.4350587,118.6760545
370501,市辖区,City area,Dongying shixiaqu,,3,,
370502,东营区,Dongying: Dongying qu,Dongying: Dongying qu,,3,37.4083378,118.5870802
370503,河口区,Dongying: Hekou qu,Dongying: Hekou qu,,3,37.9618617,118.6277747
370521,垦利县,Kenli,Kenli,,3,37.681307,118.7644815
370522,利津县,Lijin,Lijin,,3,37.60971,118.5093713
370523,广饶县,Guangrao,Guangrao,,3,37.1449158,118.6134624
370600,烟台市,Yantai shi,Yantai shi,YNT,2,37.4636946,121.4479458
370601,市辖区,City area,Yantai shixiaqu,,3,,
370602,芝罘区,Yantai: Zhifu qu,Yantai: Zhifu qu,,3,37.5251455,121.3619542
370611,福山区,Yantai: Fushan qu,Yantai: Fushan qu,,3,37.4458005,121.2109888
370612,牟平区,,,,3,37.2696474,121.5447736
370613,莱山区,,,,3,37.4359276,121.4506924
370634,长岛县,Changdao,Changdao,,3,37.924134,120.7439196
370681,龙口市,Longkou shi,Longkou shi,,3,37.609421,120.4860091
370682,莱阳市,Laiyang shi,Laiyang shi,,3,36.8707377,120.7555926
370683,莱州市,Laizhou shi,Laizhou shi,,3,37.2320112,119.9316287
370684,蓬莱市,Penglai shi,Penglai shi,,3,37.6263836,120.8708847
370685,招远市,Zhaoyuan shi,Zhaoyuan shi,,3,37.3200044,120.3866494
370686,栖霞市,,,,3,37.3181529,120.9171474
370687,海阳市,,,,3,36.8740593,121.1538899
370700,潍坊市,Weifang shi,Weifang shi,WEF,2,36.7073582,119.1621244
370701,市辖区,City area,Weifang shixiaqu,,3,,
370702,潍城区,Weifang: Weicheng qu,Weifang: Weicheng qu,,3,36.7042015,119.0315008
370703,寒亭区,Weifang: Hanting qu,Weifang: Hanting qu,,3,36.9449787,119.2092669
370704,坊子区,Weifang: Fangzi qu,Weifang: Fangzi qu,,3,36.6257575,119.2553473
370705,奎文区,,,,3,36.6965198,119.1582942
370724,临朐县,,,,3,36.3441842,118.5339618
370725,昌乐县,Changle,Changle,,3,36.5470095,118.9537597
370781,青州市,Qingzhou shi,Qingzhou shi,,3,36.674391,118.4782791
370782,诸城市,Zhucheng shi,Zhucheng shi,,3,36.0344552,119.3648028
370783,寿光市,Shouguang shi,Shouguang shi,,3,36.996469,118.8568354
370784,安丘市,Anqiu shi,Anqiu shi,,3,36.3619324,119.1072035
370785,高密市,Gaomi shi,Gaomi shi,,3,36.41915,119.7245193
370786,昌邑市,Changyi shi,Changyi shi,,3,36.7806321,119.431901
370800,济宁市,Jining,,JNG,2,35.4066461,116.5970957
370801,市辖区,City area,Ji'ning shixiaqu,,3,,
370802,市中区,Ji'ning: Shizhong qu,Ji'ning: Shizhong qu,,3,35.4081939,116.596452
370811,任城区,Ji'ning: Rencheng qu,Ji'ning: Rencheng qu,,3,35.4065937,116.5950465
370826,微山县,Weishan,Weishan,,3,34.8070557,117.1288061
370827,鱼台县,Yutai,Yutai,,3,34.9967284,116.6469741
370828,金乡县,Jinxiang,Jinxiang,,3,35.066623,116.3119233
370829,嘉祥县,Jiaxiang,Jiaxiang,,3,35.4075905,116.3424253
370830,汶上县,Wenshang,Wenshang,,3,35.7328053,116.4892817
370831,泗水县,Sishui,Sishui,,3,35.6607483,117.2792029
370832,梁山县,Liangshan,Liangshan,,3,35.8025087,116.0956299
370881,曲阜市,Qufu shi,Qufu shi,,3,35.5811399,116.986531
370882,兖州市,Yanzhou shi,Yanzhou shi,,3,35.5554997,116.8360054
370883,邹城市,Zoucheng shi,Zoucheng shi,,3,35.4043637,116.9735813
370900,泰安市,Tai'an,Tai'an shi,TAI,2,36.2022696,117.0879722
370901,市辖区,City area,Tai'an shixiaqu,,3,,
370902,泰山区,Tai'an: Taishan qu,Tai'an: Taishan qu,,3,36.2137486,117.2053993
370911,岱岳区,,,,3,36.1785445,117.3959219
370921,宁阳县,,,,3,35.8208841,116.9576705
370923,东平县,Dongping,Dongping,,3,35.9754709,116.3563943
370982,新泰市,Xintai shi,Xintai shi,,3,35.8741506,117.6219571
370983,肥城市,Feicheng shi,Feicheng shi,,3,36.1012929,116.7362702
371000,威海市,Weihai shi,Weihai shi,WEH,2,37.5125003,122.1184981
371001,市辖区,City area,Weihai shixiaqu,,3,,
371002,环翠区,Weihai: Huancui qu,Weihai: Huancui qu,,3,37.4162801,122.1367478
371081,文登市,Wendeng shi,Wendeng shi,,3,37.1445738,122.0232153
371082,荣成市,Rongcheng shi,Rongcheng shi,,3,37.1306411,122.4342692
371083,乳山市,Rushan shi,Rushan shi,,3,36.9337794,121.5203977
371100,日照市,Rizhao shi,Rizhao shi,RZH,2,35.4233292,119.4448936
371101,市辖区,City area,Rizhao shixiaqu,,3,,
371102,东港区,Rizhao: Donggang qu,Rizhao: Donggang qu,,3,35.4254712,119.4622314
371103,岚山区,,,,3,35.1218129,119.3188083
371121,五莲县,Wulian,Wulian,,3,35.750091,119.2087412
371122,莒县,Ju xian,Ju xian,,3,35.5798659,118.8371265
371200,莱芜市,Laiwu shi,Laiwu shi,LWS,2,36.2116971,117.6780689
371201,市辖区,City area,Laiwu shixiaqu,,3,,
371202,莱城区,Laiwu: Laicheng qu,Laiwu: Laicheng qu,,3,36.2032046,117.659862
371203,钢城区,Laiwu: Gangcheng qu,Laiwu: Gangcheng qu,,3,36.0585708,117.8113532
371300,临沂市,Linyi,,LYI,2,35.0518338,118.3464003
371301,市辖区,City area,Dezhou shixiaqu,,3,,
371302,兰山区,,,,3,35.068669,118.348031
371311,罗庄区,,,,3,34.9964207,118.2847953
371312,河东区,,,,3,35.114801,118.4999621
371321,沂南县,,,,3,35.5499482,118.4656835
371322,郯城县,,,,3,34.613555,118.3672571
371323,沂水县,,,,3,35.7904475,118.6279142
371324,苍山县,,,,3,34.8497077,118.0567324
371325,费县,,,,3,35.2645693,117.9731762
371326,平邑县,,,,3,35.5059416,117.640357
371327,莒南县,,,,3,35.1748432,118.8351631
371328,蒙阴县,,,,3,35.7100538,117.945056
371329,临沭县,,,,3,34.919851,118.6507773
371400,德州市,Dezhou,,DZS,2,37.4515159,116.3026321
371401,市辖区,City area,Linyi shixiaqu,,3,,
371402,德城区,,,,3,37.4306967,116.4096093
371421,陵县,,,,3,37.412096,116.6701698
371422,宁津县,,,,3,37.6858751,116.765914
371423,庆云县,,,,3,37.7830533,117.4567223
371424,临邑县,,,,3,37.2581886,116.8888021
371425,齐河县,,,,3,36.7173437,116.6815317
371426,平原县,,,,3,37.1371245,116.4564514
371427,夏津县,,,,3,37.0227622,116.0182643
371428,武城县,,,,3,37.2145575,116.0777557
371481,乐陵市,,,,3,37.6476324,117.139535
371482,禹城市,,,,3,36.9361549,116.5716684
371500,聊城市,Liaocheng,,LCH,2,36.4592938,115.98508
371501,市辖区,City area,,,3,,
371502,东昌府区,,,,3,36.44458,115.9738362
371521,阳谷县,,,,3,36.1143901,115.7918215
371522,莘县,,,,3,36.2336208,115.6710041
371523,茌平县,,,,3,36.5808497,116.2553608
371524,东阿县,,,,3,36.334937,116.2476254
371525,冠县,,,,3,36.4840377,115.4427481
371526,高唐县,,,,3,36.8660599,116.2314785
371581,临清市,,,,3,36.8389656,115.726397
371600,滨州市,Binzhou,,BZH,2,37.3815222,117.9714274
371601,市辖区,City area,,,3,,
371602,滨城区,,,,3,37.3852562,118.0202544
371621,惠民县,,,,3,37.4897912,117.5106239
371622,阳信县,,,,3,37.641108,117.5782585
371623,无棣县,,,,3,37.7395836,117.6138461
371624,沾化县,,,,3,37.6982787,118.132199
371625,博兴县,,,,3,37.1419568,118.1314802
371626,邹平县,,,,3,36.8629869,117.7431071
371700,菏泽市,Heze,,HZS,2,35.2474854,115.4603541
371701,市辖区,City area,,,3,,
371702,牡丹区,,,,3,35.2525146,115.417825
371721,曹县,,,,3,34.8252448,115.5423224
371722,单县,,,,3,34.794484,116.0872722
371723,成武县,,,,3,34.9530798,115.8896255
371724,巨野县,,,,3,35.3963005,116.0947716
371725,郓城县,,,,3,35.5997583,115.9436131
371726,鄄城县,,,,3,35.5634073,115.5101895
371727,定陶县,,,,3,35.0713648,115.5730283
371728,东明县,,,,3,35.2892951,115.0901234
410000,河南省,Henan,,HA,1,34.7570343,113.6500473
410100,郑州市,Zhengzhou shi,Zhengzhou shi,CGO,2,34.7803771,113.6582208
410101,市辖区,City area,Zhengzhou shixiaqu,,3,,
410102,中原区,Zhengzhou: Zhongyuan qu,Zhengzhou: Zhongyuan qu,,3,34.7711063,113.5593331
410103,二七区,Zhengzhou: Erqi qu,Zhengzhou: Erqi qu,,3,34.7305827,113.6457217
410104,管城回族区,Zhengzhou: Guancheng Huizu qu,Zhengzhou: Guancheng Huizu qu,,3,34.7222322,113.7489009
410105,金水区,Zhengzhou: Jinshui qu,Zhengzhou: Jinshui qu,,3,34.7731597,113.7268531
410106,上街区,Zhengzhou: Shangjie qu,Zhengzhou: Shangjie qu,,3,34.8111607,113.2990515
410108,惠济区,,,,3,34.8287676,113.620348
410122,中牟县,Zhongmou,Zhongmou,,3,34.7068781,113.9999342
410181,巩义市,Gongyi shi,Gongyi shi,,3,34.6898187,113.0407763
410182,荥阳市,Xingyang shi,Xingyang shi,,3,34.7928452,113.3237815
410183,新密市,Xinmi shi,Xinmi shi,,3,34.4998989,113.4204698
410184,新郑市,Xinzheng shi,Xinzheng shi,,3,34.4612331,113.7061572
410185,登封市,Dengfeng shi,Dengfeng shi,,3,34.4297618,113.0253911
410200,开封市,Kaifeng shi,Kaifeng shi,KFS,2,34.8173178,114.3468297
410201,市辖区,City area,Kaifeng shixiaqu,,3,,
410202,龙亭区,Kaifeng: Longting qu,Kaifeng: Longting qu,,3,34.8000345,114.3545544
410203,顺河回族区,Kaifeng: Shunhe Huizu qu,Kaifeng: Shunhe Huizu qu,,3,34.7958673,114.3612385
410204,鼓楼区,Kaifeng: Gulou qu,Kaifeng: Gulou qu,,3,34.7956382,114.3547475
410205,禹王台区,,,,3,34.7773897,114.3485355
410211,金明区,,,,3,34.7925457,114.3725467
410221,杞县,Qi xian,Qi xian,,3,34.5087581,114.7701895
410222,通许县,Tongxu,Tongxu,,3,34.4198854,114.4759727
410223,尉氏县,Weishi,Weishi,,3,34.4065998,114.1647613
410224,开封县,Kaifeng,Kaifeng,,3,34.7198953,114.5586598
410225,兰考县,Lankao,Lankao,,3,34.8850333,114.980464
410300,洛阳市,Luoyang shi,Luoyang shi,LYA,2,34.65155,112.442075
410301,市辖区,City area,Luoyang shixiaqu,,3,,
410302,老城区,Luoyang: Laocheng qu,Luoyang: Laocheng qu,,3,34.6827433,112.4694872
410303,西工区,Luoyang: Xigong qu,Luoyang: Xigong qu,,3,34.6700027,112.4371076
410304,瀍河回族区,Luoyang: Chanhe Huizu qu,Luoyang: Chanhe Huizu qu,,3,34.6853812,112.4927902
410305,涧西区,Luoyang: Jianxi qu,Luoyang: Jianxi qu,,3,34.6578161,112.3958659
410306,吉利区,Luoyang: Jili qu,Luoyang: Jili qu,,3,34.9008909,112.5890493
410311,洛龙区,,,,3,34.620027,112.4647772
410322,孟津县,Mengjin,Mengjin,,3,34.8428838,112.5103319
410323,新安县,Xin'an,Xin'an,,3,34.8019815,112.1023893
410324,栾川县,Luanchuan,Luanchuan,,3,33.9215776,111.6212118
410325,嵩县,Song xian,Song xian,,3,33.9638376,112.0375657
410326,汝阳县,Ruyang,Ruyang,,3,34.0821039,112.4139762
410327,宜阳县,Yiyang,Yiyang,,3,34.4901192,112.100662
410328,洛宁县,,,,3,34.3618686,111.4983022
410329,伊川县,Yichuan,Yichuan,,3,34.3862559,112.4836278
410381,偃师市,Yanshi shi,Yanshi shi,,3,34.6383367,112.7430832
410400,平顶山市,Pingdingshan shi,Pingdingshan shi,PDS,2,33.7420775,113.2643867
410401,市辖区,City area,Pingdingshan shixiaqu,,3,,
410402,新华区,Pingdingshan: Xinhua qu,Pingdingshan: Xinhua qu,,3,38.0508791,114.4632697
410403,卫东区,Pingdingshan: Weidong qu,Pingdingshan: Weidong qu,,3,33.7347258,113.3351219
410404,石龙区,,,,3,33.8986764,112.8989732
410411,湛河区,,,,3,33.7362069,113.2925177
410421,宝丰县,Baofeng,Baofeng,,3,33.9069757,113.0126667
410422,叶县,Ye xian,Ye xian,,3,33.549809,113.3208525
410423,鲁山县,Lushan,Lushan,,3,33.7784874,112.7473319
410425,郏县,Jia xian,Jia xian,,3,33.9923611,113.2100987
410481,舞钢市,Wugang shi,Wugang shi,,3,33.2937408,113.5325003
410482,汝州市,Ruzhou shi,Ruzhou shi,,3,34.1425071,112.8193223
410500,安阳市,Anyang shi,Anyang shi,AYS,2,36.0969671,114.2752469
410501,市辖区,City area,Anyang shixiaqu,,3,,
410502,文峰区,Anyang: Wenfeng qu,Anyang: Wenfeng qu,,3,36.090413,114.3596184
410503,北关区,Anyang: Beiguan qu,Anyang: Beiguan qu,,3,36.1184809,114.3570971
410505,殷都区,,,,3,36.109831,114.3037856
410506,龙安区,,,,3,36.1190443,114.3481386
410522,安阳县,Anyang,Anyang,,3,36.160001,114.4521654
410523,汤阴县,Tangyin,Tangyin,,3,35.8807053,114.4643748
410526,滑县,Hua xian,Hua xian,,3,35.4516598,114.6880496
410527,内黄县,Neihuang,Neihuang,,3,35.8898671,114.7881818
410581,林州市,Linzhou shi,Linzhou shi,,3,36.0193315,113.8599765
410600,鹤壁市,Hebi shi,Hebi shi,HBS,2,35.7504828,114.2972732
410601,市辖区,City area,Hebi shixiaqu,,3,,
410602,鹤山区,Hebi: Heshan qu,Hebi: Heshan qu,,3,35.954578,114.1633666
410603,山城区,Hebi: Shancheng qu,Hebi: Shancheng qu,,3,35.8977329,114.184438
410611,淇滨区,,,,3,35.7412962,114.2987859
410621,浚县,Jun xian,Jun xian,,3,35.6762369,114.550817
410622,淇县,Qi xian,Qi xian,,3,35.6077662,114.1976559
410700,新乡市,Xinxiang shi,Xinxiang shi,XXS,2,35.346898,113.8750613
410701,市辖区,City area,Xinxiang shixiaqu,,3,,
410702,红旗区,Xinxiang: Hongqi qu,Xinxiang: Hongqi qu,,3,35.304584,113.8752115
410703,卫滨区,,,,3,35.3027803,113.868109
410704,凤泉区,,,,3,35.384003,113.9158952
410711,牧野区,,,,3,35.3149413,113.9089644
410721,新乡县,Xinxiang,Xinxiang,,3,35.2463551,113.8841379
410724,获嘉县,Huojia,Huojia,,3,35.1932926,113.6453032
410725,原阳县,Yuanyang,Yuanyang,,3,35.0348896,113.9243603
410726,延津县,Yanjin,Yanjin,,3,35.3013531,114.1923022
410727,封丘县,Fengqiu,Fengqiu,,3,35.060748,114.5108843
410728,长垣县,Changyuan,Changyuan,,3,35.1829547,114.7450304
410781,卫辉市,Weihui shi,Weihui shi,,3,35.5122559,114.099133
410782,辉县市,Huixian shi,Huixian shi,,3,35.5588252,113.6699581
410800,焦作市,Jiaozuo shi,Jiaozuo shi,JZY,2,35.2690981,113.2743859
410801,市辖区,City area,Jiaozuo shixiaqu,,3,,
410802,解放区,Jiaozuo: Jiefang qu,Jiaozuo: Jiefang qu,,3,35.240239,113.2293355
410803,中站区,Jiaozuo: Zhongzhan qu,Jiaozuo: Zhongzhan qu,,3,35.236655,113.1831479
410804,马村区,Jiaozuo: Macun qu,Jiaozuo: Macun qu,,3,35.2690718,113.3187175
410811,山阳区,Jiaozuo: Shanyang qu,Jiaozuo: Shanyang qu,,3,35.2143587,113.2546449
410821,修武县,Xiuwu,Xiuwu,,3,35.3139783,113.4649515
410822,博爱县,Bo'ai,Bo'ai,,3,35.1990352,113.0690682
410823,武陟县,Wuzhi,Wuzhi,,3,35.03308,113.4030998
410825,温县,Wen xian,Wen xian,,3,34.9412868,113.0355084
410882,沁阳市,Qinyang shi,Qinyang shi,,3,35.1459769,112.893126
410883,孟州市,,,,3,34.9240647,112.7533722
410900,濮阳市,Puyang shi,Puyang shi,PYS,2,35.7621409,115.0293338
410901,市辖区,City area,Puyang shixiaqu,,3,,
410902,华龙区,,,,3,35.7780973,115.07447
410922,清丰县,Qingfeng,Qingfeng,,3,35.9050157,115.11289
410923,南乐县,Nanle,Nanle,,3,36.0696286,115.2047503
410926,范县,Fan xian,Fan xian,,3,35.8519178,115.5041599
410927,台前县,Taiqian,Taiqian,,3,35.9961673,115.856452
410928,濮阳县,Puyang,Puyang,,3,35.7121794,115.0293231
411000,许昌市,Xuchang shi,Xuchang shi,XCS,2,34.0221555,113.8322425
411001,市辖区,City area,Xuchang shixiaqu,,3,,
411002,魏都区,Xuchang: Weidu qu,Xuchang: Weidu qu,,3,34.0400004,113.8222969
411023,许昌县,Xuchang,Xuchang,,3,34.020457,113.9812875
411024,鄢陵县,Yanling,Yanling,,3,34.0085225,114.1852963
411025,襄城县,,,,3,33.8585223,113.5610068
411081,禹州市,Yuzhou shi,Yuzhou shi,,3,34.198111,113.3595836
411082,长葛市,Changge shi,Changge shi,,3,34.2411912,113.8608241
411100,漯河市,Luohe shi,Luohe shi,LHS,2,33.5814113,114.0165424
411101,市辖区,City area,Luohe shixiaqu,,3,,
411102,源汇区,Luohe: Yuanhui qu,Luohe: Yuanhui qu,,3,33.5562734,114.0064681
411103,郾城区,,,,3,33.5872388,114.0069401
411104,召陵区,,,,3,33.5909657,114.1618967
411121,舞阳县,Wuyang,Wuyang,,3,33.4378788,113.6092865
411122,临颍县,Linying,Linying,,3,33.8094085,113.9344239
411200,三门峡市,Sanmenxia shi,Sanmenxia shi,SMX,2,34.7716439,111.2002122
411201,市辖区,City area,Sanmenxia shixiaqu,,3,,
411202,湖滨区,Sanmenxia: Hubin qu,Sanmenxia: Hubin qu,,3,34.7724282,111.2002337
411221,渑池县,Mianchi,Mianchi,,3,34.7671932,111.7618024
411222,陕县,,,,3,34.7205303,111.103406
411224,卢氏县,Lushi,Lushi,,3,34.0541972,111.0479057
411281,义马市,Yima shi,Yima shi,,3,34.7471842,111.8743157
411282,灵宝市,Lingbao shi,Lingbao shi,,3,34.5168383,110.8942044
411300,南阳市,Nanyang shi,Nanyang shi,NYS,2,32.9950049,112.5484622
411301,市辖区,City area,Nanyang shixiaqu,,3,,
411302,宛城区,Nanyang: Wancheng qu,Nanyang: Wancheng qu,,3,33.0039129,112.5395572
411303,卧龙区,Nanyang: Wolong qu,Nanyang: Wolong qu,,3,32.9861589,112.5347936
411321,南召县,Nanzhao,Nanzhao,,3,33.4897462,112.4291682
411322,方城县,Fangcheng,Fangcheng,,3,33.2547666,113.0126882
411323,西峡县,Xixia,Xixia,,3,33.2983681,111.4825952
411324,镇平县,Zhenping,Zhenping,,3,33.0338337,112.2346652
411325,内乡县,Neixiang,Neixiang,,3,33.0448603,111.8493927
411326,淅川县,Xichuan,Xichuan,,3,33.1379824,111.4909101
411327,社旗县,Sheqi,Sheqi,,3,33.0561013,112.9481006
411328,唐河县,Tanghe,Tanghe,,3,32.6970871,112.8405976
411329,新野县,Xinye,Xinye,,3,32.5208082,112.3600638
411330,桐柏县,Tongbai,Tongbai,,3,32.3674025,113.4064901
411381,邓州市,Dengzhou shi,Dengzhou shi,,3,32.666667,111.5
411400,商丘市,Shangqiu,,SQS,2,34.4162655,115.6355023
411401,市辖区,City area,,,3,,
411402,梁园区,,,,3,34.4434153,115.6448686
411403,睢阳区,,,,3,34.382546,115.6186366
411421,民权县,,,,3,34.6468898,115.1476622
411422,睢县,,,,3,34.4453352,115.0718522
411423,宁陵县,,,,3,34.4462731,115.3231108
411424,柘城县,,,,3,34.0910427,115.3058481
411425,虞城县,,,,3,34.3975794,115.8649385
411426,夏邑县,,,,3,34.2375547,116.1314428
411481,永城市,,,,3,33.929287,116.4494991
411500,信阳市,Xinyang,,XYG,2,32.1069153,114.0886402
411501,市辖区,City area,,,3,,
411502,浉河区,,,,3,32.1168025,114.0587175
411503,平桥区,,,,3,32.1009534,114.1243565
411521,罗山县,,,,3,32.2024795,114.5338547
411522,光山县,,,,3,32.0100411,114.9194491
411523,新县,,,,3,25.6513723,119.0559626
411524,商城县,,,,3,31.798379,115.4068601
411525,固始县,,,,3,32.1848656,115.678246
411526,潢川县,,,,3,32.1314495,115.0518215
411527,淮滨县,,,,3,32.4732381,115.4200673
411528,息县,,,,3,32.3429501,114.7404492
411600,周口市,Zhoukou,,ZKS,2,33.6183539,114.6575153
411601,市辖区,City area,,,3,,
411602,川汇区,,,,3,33.6256083,114.6420228
411621,扶沟县,,,,3,34.0598593,114.3949163
411622,西华县,,,,3,33.7854608,114.5227718
411623,商水县,,,,3,33.5424767,114.6115959
411624,沈丘县,,,,3,33.4093497,115.0985885
411625,郸城县,,,,3,33.6447688,115.1771879
411626,淮阳县,,,,3,33.732406,114.8597538
411627,太康县,,,,3,34.0637967,114.8378885
411628,鹿邑县,,,,3,33.8602329,115.4845262
411681,项城市,,,,3,33.4671682,114.8756003
411700,驻马店市,Zhumadian,,ZMD,2,32.9831711,114.0280223
411701,市辖区,City area,,,3,,
411702,驿城区,,,,3,32.9765291,114.0404999
411721,西平县,,,,3,33.3876825,114.0215421
411722,上蔡县,,,,3,33.2631191,114.2643678
411723,平舆县,,,,3,32.9572392,114.6395981
411724,正阳县,,,,3,32.6059408,114.3928134
411725,确山县,,,,3,32.8024352,114.0264452
411726,泌阳县,,,,3,32.7244038,113.3271503
411727,汝南县,,,,3,33.007071,114.3624079
411728,遂平县,,,,3,33.1456453,114.0131843
411729,新蔡县,,,,3,32.749312,114.985528
419000,省直辖县级行政区划,,,,2,,
419001,济源市,,,,3,35.0903293,112.5881159
420000,湖北省,Hubei,,HB,1,30.5675144,114.2919388
420100,武汉市,Wuhan shi,Wuhan shi,WUH,2,30.5611616,114.3814194
420101,市辖区,City area,Wuhan shixiaqu,,3,,
420102,江岸区,Wuhan: Jiang'an qu,Wuhan: Jiang'an qu,,3,30.5998261,114.3094397
420103,江汉区,Wuhan: Jianghan qu,Wuhan: Jianghan qu,,3,30.6013129,114.2707622
420104,硚口区,,,,3,30.5694481,114.2641318
420105,汉阳区,Wuhan: Hanyang qu,Wuhan: Hanyang qu,,3,30.5491693,114.2749143
420106,武昌区,Wuhan: Wuchang qu,Wuhan: Wuchang qu,,3,30.5538629,114.3160057
420107,青山区,Wuhan: Qingshan qu,Wuhan: Qingshan qu,,3,40.6650471,109.8865306
420111,洪山区,Wuhan: Hongshan qu,Wuhan: Hongshan qu,,3,30.5002888,114.343729
420112,东西湖区,Wuhan: Dongxihu qu,Wuhan: Dongxihu qu,,3,30.6849979,114.0980923
420113,汉南区,Wuhan: Hannan qu,Wuhan: Hannan qu,,3,30.2896809,114.0360689
420114,蔡甸区,Wuhan: Caidian qu,Wuhan: Caidian qu,,3,30.4672257,113.9658487
420115,江夏区,,,,3,30.2583907,114.3232691
420116,黄陂区,,,,3,31.0136331,114.3853033
420117,新洲区,,,,3,30.7908893,114.7894907
420200,黄石市,Huangshi shi,Huangshi shi,HSI,2,30.1996564,115.0385177
420201,市辖区,City area,Huangshi shixiaqu,,3,,
420202,黄石港区,Huangshi: Huangshigang qu,Huangshi: Huangshigang qu,,3,30.2174213,115.06549
420203,西塞山区,,,,3,30.1684025,115.2015746
420204,下陆区,Huangshi: Xialu qu,Huangshi: Xialu qu,,3,30.1933508,114.9678254
420205,铁山区,Huangshi: Tieshan qu,Huangshi: Tieshan qu,,3,30.209485,114.9008667
420222,阳新县,,,,3,29.8321562,115.1129329
420281,大冶市,Daye shi,Daye shi,,3,30.0902336,114.8424697
420300,十堰市,Shiyan shi,Shiyan shi,SYE,2,32.5838312,110.7018042
420301,市辖区,City area,Shiyan shixiaqu,,3,,
420302,茅箭区,Shiyan: Maojian qu,Shiyan: Maojian qu,,3,32.5915693,110.8136952
420303,张湾区,Shiyan: Zhangwan qu,Shiyan: Zhangwan qu,,3,32.6519501,110.7706726
420321,郧县,Yun xian,Yun xian,,3,32.7980793,110.6916654
420322,郧西县,Yunxi,Yunxi,,3,33.0166345,110.0640821
420323,竹山县,Zhushan,Zhushan,,3,32.2251273,110.0257373
420324,竹溪县,Zhuxi,Zhuxi,,3,32.0893921,109.8156774
420325,房县,Fang xian,Fang xian,,3,32.144677,110.7122111
420381,丹江口市,Danjiangkou shi,Danjiangkou shi,,3,32.6058865,111.1958241
420500,宜昌市,Yichang shi,Yichang shi,YCO,2,30.9665518,111.2613451
420501,市辖区,City area,Yichang shixiaqu,,3,,
420502,西陵区,Yichang: Xiling qu,Yichang: Xiling qu,,3,30.7108751,111.2857533
420503,伍家岗区,Yichang: Wujiagang qu,Yichang: Wujiagang qu,,3,30.6443921,111.3607585
420504,点军区,Yichang: Dianjun qu,Yichang: Dianjun qu,,3,30.693403,111.2682867
420505,猇亭区,,,,3,30.5308085,111.434809
420506,夷陵区,,,,3,30.7689423,111.326319
420525,远安县,,,,3,31.1099581,111.5853453
420526,兴山县,Xingshan,Xingshan,,3,31.3315994,110.7837188
420527,秭归县,Zigui,Zigui,,3,30.8761411,110.717361
420528,长阳土家族自治县,Changyang Tujiazu zizhixian,Changyang Tujiazu zizhixian,,3,30.4718123,110.853585
420529,五峰土家族自治县,Wufeng Tujiazu zizhixian,Wufeng Tujiazu zizhixian,,3,30.2222329,110.8711481
420581,宜都市,,,,3,30.3472318,111.35813
420582,当阳市,Dangyang shi,Dangyang shi,,3,30.8390704,111.8176889
420583,枝江市,,,,3,30.4664489,111.7501509
420600,襄阳市,Xiangyang,,XFN,2,,
420601,市辖区,City area,Xiangfan shixiaqu,,3,,
420602,襄城区,Xiangfan: Xiangcheng qu,Xiangfan: Xiangcheng qu,,3,32.0101775,112.1337283
420606,樊城区,,,,3,32.04496,112.1355736
420607,襄州区,,,,3,,
420624,南漳县,Nanzhang,Nanzhang,,3,31.6238321,111.7830455
420625,谷城县,Gucheng,Gucheng,,3,32.191503,111.5011239
420626,保康县,Baokang,Baokang,,3,31.7313336,111.1557519
420682,老河口市,Laohekou shi,Laohekou shi,,3,32.4042498,111.7606652
420683,枣阳市,Zaoyang shi,Zaoyang shi,,3,32.0251145,112.7930367
420684,宜城市,Yicheng shi,Yicheng shi,,3,31.6712617,112.3500645
420700,鄂州市,Ezhou shi,Ezhou shi,EZS,2,30.3890724,114.8941398
420701,市辖区,City area,Ezhou shixiaqu,,3,,
420702,梁子湖区,Ezhou: Liangzihu qu,Ezhou: Liangzihu qu,,3,30.2010566,114.6216702
420703,华容区,Ezhou: Huarong qu,Ezhou: Huarong qu,,3,30.4813177,114.7187769
420704,鄂城区,Ezhou: Echeng qu,Ezhou: Echeng qu,,3,30.3207944,114.9030232
420800,荆门市,Jingmen shi,Jingmen shi,JMS,2,31.0995225,112.1123135
420801,市辖区,City area,Jingmen shixiaqu,,3,,
420802,东宝区,Jingmen: Dongbao qu,Jingmen: Dongbao qu,,3,31.0519597,112.2013521
420804,掇刀区,,,,3,30.9750151,112.2074139
420821,京山县,,,,3,31.0752387,113.1101489
420822,沙洋县,,,,3,30.6638758,112.3688293
420881,钟祥市,,,,3,31.1547741,112.5694263
420900,孝感市,Xiaogan shi,Xiaogan shi,XGE,2,30.9245738,113.9169037
420901,市辖区,City area,Xiaogan shixiaqu,,3,,
420902,孝南区,Xiaogan: Xiaonan qu,Xiaogan: Xiaonan qu,,3,30.9169805,113.9107239
420921,孝昌县,Xiaochang,Xiaochang,,3,31.2581558,113.9980137
420922,大悟县,Dawu,Dawu,,3,31.562941,114.128294
420923,云梦县,Yunmeng,Yunmeng,,3,31.0209797,113.7535572
420981,应城市,Yingcheng shi,Yingcheng shi,,3,30.9283657,113.5727119
420982,安陆市,Anlu shi,Anlu shi,,3,31.255597,113.6890233
420984,汉川市,,,,3,30.6612455,113.8391519
421000,荆州市,Jingzhou,,JGZ,2,30.3907198,112.221694
421001,市辖区,City area,Jingsha shixiaqu,,3,,
421002,沙市区,Jingsha: Shashi qu,Jingsha: Shashi qu,,3,30.3110326,112.2556508
421003,荆州区,Jingsha: Jingzhou qu,Jingsha: Jingzhou qu,JZQ,3,30.3528332,112.1901834
421022,公安县,Gong'an,Gong'an,,3,29.9697228,112.1206713
421023,监利县,Jianli,Jianli,,3,29.8111478,112.9610503
421024,江陵县,,,,3,30.0941416,112.4697554
421081,石首市,,,,3,29.7235017,112.5188828
421083,洪湖市,Honghu shi,Honghu shi,,3,29.921883,113.6123657
421087,松滋市,,,,3,30.334444,112.224444
421100,黄冈市,Huanggang,,HGE,2,30.458653,114.8744845
421101,市辖区,City area,,,3,,
421102,黄州区,,,,3,30.4343642,114.880085
421121,团风县,,,,3,30.642989,114.8728645
421122,红安县,,,,3,31.2881508,114.618237
421123,罗田县,,,,3,30.7831102,115.3992426
421124,英山县,,,,3,30.7352977,115.6814539
421125,浠水县,,,,3,30.4520681,115.2655184
421126,蕲春县,,,,3,30.2316791,115.446353
421127,黄梅县,,,,3,30.0704774,115.9442139
421181,麻城市,,,,3,31.1717216,115.0099683
421182,武穴市,,,,3,29.8441058,115.5611193
421200,咸宁市,Xianning,,XNS,2,29.8335429,114.3217671
421201,市辖区,City area,,,3,,
421202,咸安区,,,,3,29.8511502,114.3031096
421221,嘉鱼县,,,,3,29.9785241,113.9236307
421222,通城县,,,,3,29.2435792,113.8142073
421223,崇阳县,,,,3,29.5397754,114.04948
421224,通山县,,,,3,29.6042731,114.4928813
421281,赤壁市,,,,3,29.7185448,113.8805652
421300,随州市,Suizhou,,SZR,2,31.7167049,113.3754945
421301,市辖区,City area,,,3,,
421303,曾都区,,,,3,,
421321,随县,,,,3,,
421381,广水市,,,,3,31.6168522,113.825891
422800,恩施土家族苗族自治州,Enshi Tujiazu Miaozu zizhizhou,Enshi Tujiazu Miaozu zizhizhou,ESH,2,30.2899218,109.4823432
422801,恩施市,Enshi shi,Enshi shi,,3,30.2950262,109.479425
422802,利川市,Lichuan shi,Lichuan shi,,3,30.2909964,108.9363742
422822,建始县,Jianshi,Jianshi,,3,30.6019316,109.7266173
422823,巴东县,Badong,Badong,,3,31.0423266,110.3407574
422825,宣恩县,Xuan'en,Xuan'en,,3,29.9908465,109.484961
422826,咸丰县,Xianfeng,Xianfeng,,3,29.6786293,109.152925
422827,来凤县,Laifeng,Laifeng,,3,29.4997984,109.4069409
422828,鹤峰县,Hefeng,Hefeng,,3,29.8877321,110.0329363
429000,省直辖县级行政区划,Directly under the provincial level administrative divisions,,,2,,
429004,仙桃市,,,,3,30.767799,113.167419
429005,潜江市,,,,3,30.6633716,113.1665298
429006,天门市,,,,3,30.6633716,113.1665298
429021,神农架林区,,,,3,30.6633716,113.1665298
430000,湖南省,Hunan,,HN,1,28.2008247,112.9812698
430100,长沙市,Changsha shi,Changsha shi,CSX,2,28.208469,113.0093515
430101,市辖区,City area,Changsha shixiaqu,,3,,
430102,芙蓉区,,,,3,28.1962435,113.0417633
430103,天心区,,,,3,28.1147043,112.9692256
430104,岳麓区,,,,3,28.1940497,112.9189289
430105,开福区,,,,3,28.2916088,112.9878831
430111,雨花区,,,,3,28.1170795,113.0493271
430112,望城区,,,,3,,
430121,长沙县,Changsha,Changsha,,3,28.2865071,113.2289708
430124,宁乡县,,,,3,28.1821819,112.3397541
430181,浏阳市,Liuyang shi,Liuyang shi,,3,28.1963286,113.7201691
430200,株洲市,Zhuzhou shi,Zhuzhou shi,ZZS,2,27.8872599,113.1686962
430201,市辖区,City area,Zhuzhou shixiaqu,,3,,
430202,荷塘区,,,,3,27.8558765,113.173492
430203,芦淞区,,,,3,27.824408,113.1597269
430204,石峰区,,,,3,27.8667654,113.1176913
430211,天元区,,,,3,27.8307556,113.1234848
430221,株洲县,Zhuzhou,Zhuzhou,,3,27.5425232,113.1655848
430223,攸县,You xian,You xian,,3,27.1002883,113.5176086
430224,茶陵县,Chaling,Chaling,,3,26.8122841,113.6176658
430225,炎陵县,Yanling,Yanling,,3,26.3668794,113.8449883
430281,醴陵市,Liling shi,Liling shi,,3,27.6703213,113.4685349
430300,湘潭市,Xiangtan,Xiangtan shi,XGT,2,27.8563223,112.9073417
430301,市辖区,City area,Xiangtan shixiaqu,,3,,
430302,雨湖区,Xiangtan: Yuhu qu,Xiangtan: Yuhu qu,,3,27.8540742,112.8971708
430304,岳塘区,Xiangtan: Yuetang qu,Xiangtan: Yuetang qu,,3,27.9048966,112.9914236
430321,湘潭县,Xiangtan,Xiangtan,,3,27.7096803,112.7385986
430381,湘乡市,Xiangxiang shi,Xiangxiang shi,,3,27.7783796,112.3277485
430382,韶山市,Shaoshan shi,Shaoshan shi,,3,27.9363796,112.5235498
430400,衡阳市,Hengyang,Hengyang shi,HNY,2,26.8833876,112.6369536
430401,市辖区,City area,Hengyang shixiaqu,,3,,
430405,珠晖区,,,,3,26.8946598,112.6201737
430406,雁峰区,,,,3,26.8887368,112.6163864
430407,石鼓区,,,,3,26.9023812,112.6106894
430408,蒸湘区,,,,3,26.8965065,112.6032972
430412,南岳区,Hengyang: Nanyue qu,Hengyang: Nanyue qu,,3,27.2439468,112.7299511
430421,衡阳县,Hengyang,Hengyang,,3,27.1171062,112.3670805
430422,衡南县,Hengnan,Hengnan,,3,26.764378,112.8948104
430423,衡山县,Hengshan,Hengshan,,3,27.2215192,112.8055573
430424,衡东县,Hengdong,Hengdong,,3,27.1104786,113.0130637
430426,祁东县,Qidong,Qidong,,3,26.7658724,111.9421756
430481,耒阳市,Leiyang shi,Leiyang shi,,3,26.4109356,112.9277587
430482,常宁市,,,,3,26.3635629,112.4126029
430500,邵阳市,Shaoyang shi,Shaoyang shi,SYR,2,27.2397879,111.4818656
430501,市辖区,City area,Shaoyang shixiaqu,,3,,
430502,双清区,,,,3,27.2329101,111.4971542
430503,大祥区,,,,3,27.2333203,111.4541316
430511,北塔区,,,,3,27.2464936,111.4522004
430521,邵东县,Shaodong,Shaodong,,3,27.2589405,111.7442608
430522,新邵县,Xinshao,Xinshao,,3,27.320916,111.4586592
430523,邵阳县,Shaoyang,Shaoyang,,3,26.9906378,111.2738013
430524,隆回县,Longhui,Longhui,,3,27.1139739,111.0324347
430525,洞口县,Dongkou,Dongkou,,3,27.0603201,110.5758476
430527,绥宁县,,,,3,26.5819549,110.1556528
430528,新宁县,,,,3,26.4334185,110.8566213
430529,城步苗族自治县,Chengbu Miaozu zizhixian,Chengbu Miaozu zizhixian,,3,26.3552762,110.3118968
430581,武冈市,Wugang shi,Wugang shi,,3,26.7266001,110.6318843
430600,岳阳市,Yueyang shi,Yueyang shi,YYG,2,29.4448858,113.0357122
430601,市辖区,City area,Yueyang shixiaqu,,3,,
430602,岳阳楼区,,,,3,29.3718442,113.1297505
430603,云溪区,,,,3,29.4735741,113.2719076
430611,君山区,,,,3,29.4611693,113.0064332
430621,岳阳县,Yueyang,Yueyang,,3,29.2202197,113.2534003
430623,华容县,Huarong,Huarong,,3,29.4849873,112.6741719
430624,湘阴县,Xiangyin,Xiangyin,,3,28.7687406,112.7778447
430626,平江县,Pingjiang,Pingjiang,,3,28.7629755,113.6534035
430681,汨罗市,Miluo shi,Miluo shi,,3,28.7430348,113.1614542
430682,临湘市,Linxiang shi,Linxiang shi,,3,29.5227857,113.5244322
430700,常德市,Changde shi,Changde shi,CDE,2,29.0434985,111.699146
430701,市辖区,City area,Changde shixiaqu,,3,,
430702,武陵区,Changde: Wuling qu,Changde: Wuling qu,,3,29.1720327,111.8663228
430703,鼎城区,Changde: Dingcheng qu,Changde: Dingcheng qu,,3,28.8083452,111.6569281
430721,安乡县,Anxiang,Anxiang,,3,29.4516312,112.1491349
430722,汉寿县,Hanshou,Hanshou,,3,28.8739622,112.0076323
430723,澧县,Li xian,Li xian,,3,29.6817892,111.647079
430724,临澧县,Linli,Linli,,3,29.5166146,111.6374767
430725,桃源县,Taoyuan,Taoyuan,,3,28.9189079,111.2886393
430726,石门县,Shimen,Shimen,,3,29.6980066,111.0248494
430781,津市市,Jinshi shi,Jinshi shi,,3,29.5099762,111.9050002
430800,张家界市,Zhangjiajie shi,Zhangjiajie shi,ZJJ,2,29.2054616,110.4753613
430801,市辖区,City area,Zhangjiajie shixiaqu,,3,,
430802,永定区,Zhangjiajie: Yongding qu,Zhangjiajie: Yongding qu,,3,29.1338698,110.4746532
430811,武陵源区,Zhangjiajie: Wulingyuan qu,Zhangjiajie: Wulingyuan qu,,3,29.3457271,110.550431
430821,慈利县,Cili,Cili,,3,29.4299733,111.1396694
430822,桑植县,Sangzhi,Sangzhi,,3,29.3997212,110.1639247
430900,益阳市,Yiyang shi,Yiyang shi,YYS,2,28.5828447,112.3474467
430901,市辖区,City area,Yiyang shixiaqu,,3,,
430902,资阳区,Yiyang: Ziyang qu,Yiyang: Ziyang qu,,3,28.5909561,112.3244762
430903,赫山区,Yiyang: Heshan qu,Yiyang: Heshan qu,,3,28.5793965,112.3741615
430921,南县,Nan xian,Nan xian,,3,29.3712365,112.4093306
430922,桃江县,Taojiang,Taojiang,,3,28.5180818,112.1558189
430923,安化县,Anhua,Anhua,,3,28.374089,111.2128079
430981,沅江市,Yuanjiang shi,Yuanjiang shi,,3,28.8470419,112.3559546
431000,郴州市,Chenzhou shi,Chenzhou shi,CNZ,2,25.7952836,113.0289745
431001,市辖区,City area,Chenzhou shixiaqu,,3,,
431002,北湖区,Chenzhou: Beihu qu,Chenzhou: Beihu qu,,3,25.7840584,113.0110359
431003,苏仙区,Chenzhou: Suxian qu,Chenzhou: Suxian qu,,3,25.8003645,113.0424392
431021,桂阳县,Guiyang,Guiyang,,3,25.7541162,112.7341461
431022,宜章县,,,,3,25.3999603,112.9488194
431023,永兴县,,,,3,26.1271506,113.1165218
431024,嘉禾县,Jiahe,Jiahe,,3,25.5875237,112.3690224
431025,临武县,Linwu,Linwu,,3,25.275561,112.5634611
431026,汝城县,Rucheng,Rucheng,,3,25.5505049,113.6849785
431027,桂东县,Guidong,Guidong,,3,26.0776191,113.9446163
431028,安仁县,Anren,Anren,,3,26.709053,113.2694399
431081,资兴市,Zixing shi,Zixing shi,,3,25.9762461,113.2361484
431100,永州市,Yongzhou,,YZS,2,26.2262275,111.614002
431101,市辖区,City area,,,3,,
431102,零陵区,,,,3,26.2218868,111.6311359
431103,冷水滩区,,,,3,26.4610742,111.5921474
431121,祁阳县,,,,3,26.5801223,111.8406594
431122,东安县,,,,3,26.3975494,111.299808
431123,双牌县,,,,3,25.9619128,111.6599643
431124,道县,,,,3,25.5264389,111.6007948
431125,江永县,,,,3,25.273543,111.3439143
431126,宁远县,,,,3,25.5709755,111.945802
431127,蓝山县,,,,3,25.3699025,112.196728
431128,新田县,,,,3,25.9065696,112.221576
431129,江华瑶族自治县,,,,3,25.1855929,111.5793049
431200,怀化市,Huaihua,,HHS,2,27.5558405,109.9976385
431201,市辖区,City area,,,3,,
431202,鹤城区,,,,3,27.5494294,109.9650872
431221,中方县,,,,3,27.545301,110.2026665
431222,沅陵县,,,,3,28.4527226,110.3938437
431223,辰溪县,,,,3,28.0063468,110.1839232
431224,溆浦县,,,,3,27.909988,110.5940008
431225,会同县,,,,3,26.872813,109.7209632
431226,麻阳苗族自治县,,,,3,27.8655609,109.8025775
431227,新晃侗族自治县,,,,3,27.3580276,109.1718829
431228,芷江侗族自治县,,,,3,27.4434111,109.6851397
431229,靖州苗族侗族自治县,,,,3,26.5750753,109.696244
431230,通道侗族自治县,,,,3,26.1580381,109.7843599
431281,洪江市,,,,3,27.203906,109.8338413
431300,娄底市,Loudi,,LDI,2,27.7016919,111.9960022
431301,市辖区,City area,,,3,,
431302,娄星区,,,,3,27.7299195,112.0019352
431321,双峰县,,,,3,27.4591395,112.1924472
431322,新化县,,,,3,27.7265197,111.3274133
431381,冷水江市,,,,3,27.6862547,111.4349806
431382,涟源市,,,,3,27.6925439,111.6643202
433100,湘西土家族苗族自治州,West Hunan,Xiangxi Tujiazu Miaozu zizhizhou,ZZX,2,27.9472226,109.6006179
433101,吉首市,Jishou shi,Jishou shi,,3,28.2623561,109.6980894
433122,泸溪县,Luxi,Luxi,,3,28.2166374,110.2196074
433123,凤凰县,Fenghuang,Fenghuang,,3,28.0769691,109.5672727
433124,花垣县,Huayuan,Huayuan,,3,28.5720286,109.482075
433125,保靖县,Baojing,Baojing,,3,28.7088822,109.6504319
433126,古丈县,Guzhang,Guzhang,,3,28.6169348,109.950732
433127,永顺县,Yongshun,Yongshun,,3,29.0014407,109.8512542
433130,龙山县,Longshan,Longshan,,3,29.4576475,109.4437945
440000,广东省,Guangdong,,GD,1,23.1189117,113.2614288
440100,广州市,Guangzhou shi,Guangzhou shi,CAN,2,23.1270407,113.341527
440101,市辖区,City area,Guangzhou shixiaqu,,3,,
440103,荔湾区,Guangzhou: Liwan qu,Guangzhou: Liwan qu,,3,23.1348746,113.2430255
440104,越秀区,Guangzhou: Yuexiu qu,Guangzhou: Yuexiu qu,,3,23.1307702,113.2602453
440105,海珠区,Guangzhou: Haizhu qu,Guangzhou: Haizhu qu,,3,23.0790507,113.331635
440106,天河区,Guangzhou: Tianhe qu,Guangzhou: Tianhe qu,,3,23.1668269,113.3840668
440111,白云区,Guangzhou: Baiyun qu,Guangzhou: Baiyun qu,,3,23.2705232,113.3684671
440112,黄埔区,Guangzhou: Huangpu,Guangzhou: Huangpu,,3,23.0933025,113.483448
440113,番禺区,,,,3,22.8135196,113.4603059
440114,花都区,,,,3,23.4325169,113.2184994
440115,南沙区,,,,3,22.7716706,113.6084819
440116,萝岗区,,,,3,23.0607601,113.5275435
440183,增城市,Zengcheng shi,Zengcheng shi,,3,23.3499589,113.7455642
440184,从化市,Conghua shi,Conghua shi,,3,23.6510794,113.6710525
440200,韶关市,Shaoguan shi,Shaoguan shi,HSC,2,24.779127,113.5455787
440201,市辖区,City area,Shaoguan shixiaqu,,3,,
440203,武江区,Shaoguan: Wujiang qu,Shaoguan: Wujiang qu,,3,24.7929196,113.5877752
440204,浈江区,Shaoguan: Zhenjiang qu,Shaoguan: Zhenjiang qu,,3,24.804383,113.6110997
440205,曲江区,,,,3,24.6827313,113.6045444
440222,始兴县,Shixing,Shixing,,3,24.8319706,114.1425741
440224,仁化县,Renhua,Renhua,,3,25.1244989,113.7738132
440229,翁源县,Wengyuan,Wengyuan,,3,24.3990481,113.9878213
440232,乳源瑶族自治县,Ruyuan Yaozu zizhixian,Ruyuan Yaozu zizhixian,,3,24.8137808,113.1844354
440233,新丰县,Xinfeng,Xinfeng,,3,24.0795663,114.1769922
440281,乐昌市,Lechang shi,Lechang shi,,3,25.2284501,113.2173085
440282,南雄市,,,,3,25.1834569,114.3380427
440300,深圳市,Shenzhen shi,Shenzhen shi,SZX,2,22.5442297,114.0577948
440301,市辖区,City area,Shenzhen shixiaqu,,3,,
440303,罗湖区,Shenzhen: Luohu qu,Shenzhen: Luohu qu,,3,22.5724179,114.1438723
440304,福田区,Shenzhen: Futian qu,Shenzhen: Futian qu,,3,22.5434469,114.0476882
440305,南山区,Shenzhen: Nanshan qu,Shenzhen: Nanshan qu,,3,22.5530484,113.9459252
440306,宝安区,Shenzhen: Bao'an qu,Shenzhen: Bao'an qu,,3,22.6961991,113.9382541
440307,龙岗区,Shenzhen: Longgang qu,Shenzhen: Longgang qu,,3,22.6281035,114.3393302
440308,盐田区,,,,3,22.5877034,114.2680049
440400,珠海市,Zhuhai shi,Zhuhai shi,ZUH,2,22.1583538,113.3859122
440401,市辖区,City area,Zhuhai shixiaqu,,3,,
440402,香洲区,Zhuhai: Xiangzhou qu,Zhuhai: Xiangzhou qu,,3,22.26654,113.5434973
440403,斗门区,,,,3,22.2093086,113.2965302
440404,金湾区,,,,3,22.146668,113.3632743
440500,汕头市,Shantou shi,Shantou shi,SWA,2,23.339074,116.5809596
440501,市辖区,City area,Shantou shixiaqu,,3,,
440507,龙湖区,Shantou: Longhu qu,Shantou: Longhu qu,,3,23.371982,116.7164969
440511,金平区,,,,3,23.3660235,116.7034078
440512,濠江区,,,,3,23.2858287,116.7264855
440513,潮阳区,,,,3,23.2652008,116.601398
440514,潮南区,,,,3,23.2504449,116.4328587
440515,澄海区,,,,3,23.4664941,116.755861
440523,南澳县,Nan'ao,Nan'ao,,3,23.4372616,117.0490479
440600,佛山市,Foshan shi,Foshan shi,FOS,2,23.0305006,113.1214893
440601,市辖区,City area,Foshan shixiaqu,,3,,
440604,禅城区,,,,3,23.0193329,113.0982721
440605,南海区,,,,3,23.0539486,113.0546916
440606,顺德区,,,,3,22.8387752,113.2045519
440607,三水区,,,,3,23.2626578,112.9102814
440608,高明区,,,,3,22.8291046,112.6559651
440700,江门市,Jiangmen shi,Jiangmen shi,JMN,2,22.4516389,113.0291462
440701,市辖区,City area,Jiangmen shixiaqu,,3,,
440703,蓬江区,,,,3,22.5951524,113.0784988
440704,江海区,,,,3,22.5604695,113.111608
440705,新会区,,,,3,22.4583516,113.0333626
440781,台山市,Taishan shi,Taishan shi,,3,22.0733416,112.6663291
440783,开平市,Kaiping shi,Kaiping shi,,3,22.311272,112.5254059
440784,鹤山市,Heshan shi,Heshan shi,,3,22.6620565,112.7629209
440785,恩平市,Enping shi,Enping shi,,3,22.2030508,112.2653282
440800,湛江市,Zhanjiang shi,Zhanjiang shi,ZHA,2,21.1567186,110.3860652
440801,市辖区,City area,Zhanjiang shixiaqu,,3,,
440802,赤坎区,Zhanjiang: Chikan qu,Zhanjiang: Chikan qu,,3,21.2661302,110.365895
440803,霞山区,Zhanjiang: Xiashan qu,Zhanjiang: Xiashan qu,,3,21.1917244,110.3980708
440804,坡头区,Zhanjiang: Potou qu,Zhanjiang: Potou qu,,3,21.2443824,110.4552984
440811,麻章区,Zhanjiang: Mazhang qu,Zhanjiang: Mazhang qu,,3,21.2633407,110.3342021
440823,遂溪县,Suixi,Suixi,,3,21.2508721,110.0511432
440825,徐闻县,Xuwen,Xuwen,,3,20.4443855,110.2060568
440881,廉江市,Lianjiang shi,Lianjiang shi,,3,21.6591233,110.1294422
440882,雷州市,Leizhou shi,Leizhou shi,,3,20.8012935,110.0320458
440883,吴川市,Wuchuan shi,Wuchuan shi,,3,21.4500929,110.7264912
440900,茂名市,Maoming shi,Maoming shi,MMI,2,21.6539182,110.8577156
440901,市辖区,City area,Maoming shixiaqu,,3,,
440902,茂南区,Maoming: Maonan qu,Maoming: Maonan qu,,3,21.6413334,110.9180224
440903,茂港区,,,,3,21.4645915,111.0495794
440923,电白县,Dianbai,Dianbai,,3,21.7005184,111.1615777
440981,高州市,Gaozhou shi,Gaozhou shi,,3,22.0080842,111.000731
440982,化州市,Huazhou shi,Huazhou shi,,3,21.8419214,110.5454636
440983,信宜市,,,,3,22.4465422,111.0316515
441200,肇庆市,Zhaoqing shi,Zhaoqing shi,ZQG,2,23.0477291,112.4651957
441201,市辖区,City area,Zhaoqing shixiaqu,,3,,
441202,端州区,Zhaoqing: Duanzhou qu,Zhaoqing: Duanzhou qu,,3,23.0976053,112.4671912
441203,鼎湖区,Zhaoqing: Dinghu qu,Zhaoqing: Dinghu qu,,3,23.1954088,112.6174164
441223,广宁县,,,,3,23.6701142,112.3968637
441224,怀集县,Huaiji,Huaiji,,3,23.9326718,112.1991313
441225,封开县,Fengkai,Fengkai,,3,23.5962197,111.7026865
441226,德庆县,Deqing,Deqing,,3,23.2884008,111.9017708
441283,高要市,Gaoyao shi,Gaoyao shi,,3,23.1017206,112.7555823
441284,四会市,Sihui shi,Sihui shi,,3,23.4497231,112.6422751
441300,惠州市,Huizhou shi,Huizhou shi,HUI,2,23.0896114,114.4174254
441301,市辖区,City area,Huizhou shixiaqu,,3,,
441302,惠城区,,,,3,23.1050462,114.4226825
441303,惠阳区,,,,3,23.0375502,114.6393192
441322,博罗县,Boluo,Boluo,,3,23.376591,114.2696357
441323,惠东县,Huidong,Huidong,,3,22.9636192,114.9886608
441324,龙门县,Longmen,Longmen,,3,23.6462343,114.1175008
441400,梅州市,Meizhou shi,Meizhou shi,MXZ,2,24.2899411,116.1205423
441401,市辖区,City area,Meizhou shixiaqu,,3,,
441402,梅江区,Meizhou: Meijiang qu,Meizhou: Meijiang qu,,3,24.2744305,116.1007369
441421,梅县,Mei xian,Mei xian,,3,24.357731,116.1698842
441422,大埔县,Dabu,Dabu,,3,24.3356598,116.6258812
441423,丰顺县,Fengshun,Fengshun,,3,23.9177357,116.2747693
441424,五华县,Wuhua,Wuhua,,3,23.7810054,115.7016456
441426,平远县,Pingyuan,Pingyuan,,3,24.6554713,115.9386992
441427,蕉岭县,Jiaoling,Jiaoling,,3,24.6519123,116.2097204
441481,兴宁市,,,,3,24.2476004,115.7589376
441500,汕尾市,Shanwei shi,Shanwei shi,SWE,2,22.781177,115.4192519
441501,市辖区,City area,Shanwei shixiaqu,,3,,
441502,城区,Shanwei: Chengqu,Shanwei: Chengqu,,3,22.7788524,115.3649962
441521,海丰县,Haifeng,Haifeng,,3,22.973369,115.27511
441523,陆河县,Luhe,Luhe,,3,23.2918007,115.6238937
441581,陆丰市,,,,3,22.9454117,115.8520639
441600,河源市,Heyuan shi,Heyuan shi,HEY,2,23.7432599,114.6998835
441601,市辖区,City area,Heyuan shixiaqu,,3,,
441602,源城区,Heyuan: Yuancheng qu,Heyuan: Yuancheng qu,,3,23.7341067,114.7024262
441621,紫金县,Zijin,Zijin,,3,23.6384109,115.1821339
441622,龙川县,Longchuan,Longchuan,,3,24.100164,115.2597463
441623,连平县,Lianping,Lianping,,3,24.3695861,114.4887078
441624,和平县,Heping,Heping,,3,24.4421781,114.9386859
441625,东源县,Dongyuan,Dongyuan,,3,23.7881919,114.7464573
441700,阳江市,Yangjiang shi,Yangjiang shi,YJI,2,21.8613394,111.9818509
441701,市辖区,City area,Yangjiang shixiaqu,,3,,
441702,江城区,Yangjiang: Jiangcheng qu,Yangjiang: Jiangcheng qu,,3,21.7590214,111.9139481
441721,阳西县,Yangxi,Yangxi,,3,21.703788,111.5990889
441723,阳东县,,,,3,21.9802795,112.0405591
441781,阳春市,Yangchun shi,Yangchun shi,,3,22.2525695,111.7215478
441800,清远市,Qingyuan shi,Qingyuan shi,QYN,2,23.6882326,113.0454648
441801,市辖区,City area,Qingyuan shixiaqu,,3,,
441802,清城区,Qingyuan: Qing chengqu,Qingyuan: Qing chengqu,,3,23.7104546,113.0300581
441803,清新区,,,,3,,
441821,佛冈县,Fogang,Fogang,,3,23.8794022,113.5315776
441823,阳山县,Yangshan,Yangshan,,3,24.4666722,112.626493
441825,连山壮族瑶族自治县,Lianshan Zhuangzu-Yaozu zizhixian,Lianshan Zhuangzu-Yaozu zizhixian,,3,24.5676938,112.0806634
441826,连南瑶族自治县,Liannan Yaozu zizhixian,Liannan Yaozu zizhixian,,3,24.7256957,112.28773
441881,英德市,Yingde shi,Yingde shi,,3,24.1860449,113.4150624
441882,连州市,Lianzhou shi,Lianzhou shi,,3,24.780744,112.377423
441900,东莞市,Dongguan shi,Dongguan shi,DGG,2,23.0199649,113.7515724
442000,中山市,Zhongshan shi,Zhongshan shi,ZSN,2,22.5159763,113.3927464
445100,潮州市,Chaozhou shi,Chaozhou shi,CZY,2,23.6547451,116.6215146
445101,市辖区,City area,Chaozhou shixiaqu,,3,,
445102,湘桥区,Chaozhou: Xiangqiao qu,Chaozhou: Xiangqiao qu,,3,23.6935281,116.6674125
445103,潮安区,,,,3,,
445122,饶平县,Raoping,Raoping,,3,23.8692088,116.9422102
445200,揭阳市,Jieyang shi,Jieyang shi,JIY,2,23.5491465,116.3684106
445201,市辖区,City area,Jieyang shixiaqu,,3,,
445202,榕城区,Jieyang: Rongcheng qu,Jieyang: Rongcheng qu,,3,23.507507,116.3649881
445203,揭东区,,,,3,,
445222,揭西县,Jiexi,Jiexi,,3,23.4852998,115.9006655
445224,惠来县,Huilai,Huilai,,3,23.0346178,116.2478077
445281,普宁市,,,,3,23.3122176,116.0409987
445300,云浮市,Yunfu shi,Yunfu shi,YFS,2,22.9293756,112.0440245
445301,市辖区,City area,Yunfu shixiaqu,,3,,
445302,云城区,Yunfu: Yuncheng qu,Yunfu: Yuncheng qu,,3,22.9299685,112.0390785
445321,新兴县,Xinxing,Xinxing,,3,22.6956943,112.2253418
445322,郁南县,,,,3,23.0371651,111.5992713
445323,云安县,,,,3,23.0710162,112.003212
445381,罗定市,,,,3,22.7683268,111.5699816
450000,广西壮族自治区,Guangxi,,GX,1,22.8065434,108.3117676
450100,南宁市,Nanning,,NNG,2,22.6537992,108.3109045
450101,市辖区,City area,Nanning shixiaqu,,3,,
450102,兴宁区,,,,3,22.8158041,108.3159685
450103,青秀区,,,,3,22.8230726,108.3486485
450105,江南区,Nanning: Jiangnan qu,Nanning: Jiangnan qu,JNA,3,22.7951337,108.3158612
450107,西乡塘区,,,,3,22.8339598,108.313576
450108,良庆区,,,,3,22.7558712,108.3211935
450109,邕宁区,,,,3,22.7581863,108.4878123
450122,武鸣县,Wuming,Wuming,,3,23.2267749,108.229301
450123,隆安县,,,,3,23.1311156,107.7381992
450124,马山县,,,,3,23.6364059,108.2320046
450125,上林县,,,,3,23.4962514,108.623457
450126,宾阳县,,,,3,23.1771637,108.897922
450127,横县,,,,3,22.7550599,109.2071915
450200,柳州市,Liuzhou shi,Liuzhou shi,LZH,2,24.3992435,109.3799257
450201,市辖区,City area,Liuzhou shixiaqu,,3,,
450202,城中区,Liuzhou: Chengzhong qu,Liuzhou: Chengzhong qu,,3,24.3114043,109.4139791
450203,鱼峰区,Liuzhou: Yufeng qu,Liuzhou: Yufeng qu,,3,24.3062026,109.4475603
450204,柳南区,Liuzhou: liunan qu,Liuzhou: liunan qu,,3,24.3359921,109.3854833
450205,柳北区,Liuzhou: Liubei qu,Liuzhou: Liubei qu,,3,24.3222763,109.408443
450221,柳江县,Liujiang,Liujiang,,3,24.2028579,109.3524599
450222,柳城县,Liucheng,Liucheng,,3,24.6310726,109.2436802
450223,鹿寨县,,,,3,24.5349041,109.8238635
450224,融安县,,,,3,25.163474,109.4974494
450225,融水苗族自治县,,,,3,25.0317946,109.1724515
450226,三江侗族自治县,,,,3,25.6357422,109.5924532
450300,桂林市,Guilin shi,Guilin shi,KWL,2,25.1756214,110.3516686
450301,市辖区,City area,Guilin shixiaqu,,3,,
450302,秀峰区,Guilin: Xiufeng qu,Guilin: Xiufeng qu,,3,25.2824975,110.2891517
450303,叠彩区,Guilin: Diecai qu,Guilin: Diecai qu,,3,25.3138185,110.3019512
450304,象山区,Guilin: Xiangshan qu,Guilin: Xiangshan qu,,3,25.2616868,110.2810836
450305,七星区,Guilin: Qixing qu,Guilin: Qixing qu,,3,25.2526046,110.3179479
450311,雁山区,,,,3,25.2474616,110.2828646
450312,临桂区,,,,3,,
450321,阳朔县,Yangshuo,Yangshuo,,3,24.846283,110.4515219
450323,灵川县,,,,3,25.4050968,110.4405463
450324,全州县,,,,3,25.8979416,111.0099471
450325,兴安县,,,,3,25.6016797,110.585686
450326,永福县,,,,3,25.0329903,109.9264956
450327,灌阳县,,,,3,25.4652068,111.0304499
450328,龙胜各族自治县,,,,3,25.7421527,110.0400066
450329,资源县,,,,3,26.0053703,110.5999446
450330,平乐县,,,,3,24.6086006,110.8010781
450331,荔浦县,,,,3,24.5477673,110.3522694
450332,恭城瑶族自治县,,,,3,24.9590106,110.8077729
450400,梧州市,Wuzhou shi,Wuzhou shi,WUZ,2,23.4904461,111.2959242
450401,市辖区,City area,Wuzhou shixiaqu,,3,,
450403,万秀区,Wuzhou: Wanxiu qu,Wuzhou: Wanxiu qu,,3,23.472261,111.3194311
450405,长洲区,,,,3,23.4841682,111.2761295
450406,龙圩区,,,,3,,
450421,苍梧县,Cangwu,Cangwu,,3,23.2501295,111.2660229
450422,藤县,,,,3,23.376207,110.7974303
450423,蒙山县,,,,3,24.1300506,110.571599
450481,岑溪市,,,,3,22.9297017,111.018616
450500,北海市,Beihai shi,Beihai shi,BHY,2,21.5337492,109.321003
450501,市辖区,City area,Beihai shixiaqu,,3,,
450502,海城区,Beihai: Haicheng qu,Beihai: Haicheng qu,,3,21.4750151,109.1174448
450503,银海区,Beihai: Yinghai qu,Beihai: Yinghai qu,,3,21.4783098,109.1302979
450512,铁山港区,,,,3,21.5291284,109.4213712
450521,合浦县,Hepu,Hepu,,3,21.660629,109.207449
450600,防城港市,Fangchenggang shi,Fangchenggang shi,FAN,2,21.6156617,108.3466101
450601,市辖区,City area,Fangchenggang shixiaqu,,3,,
450602,港口区,Fangchenggang: Gangkou qu,Fangchenggang: Gangkou qu,,3,21.633744,108.4459054
450603,防城区,Fangchenggang: Fangcheng qu,Fangchenggang: Fangcheng qu,,3,21.7418517,107.9978049
450621,上思县,Shangsi,Shangsi,,3,22.0977681,107.9579794
450681,东兴市,,,,3,21.6134274,108.0530369
450700,钦州市,Qinzhou shi,Qinzhou shi,QZH,2,21.9816823,108.6537981
450701,市辖区,City area,Qinzhou shixiaqu,,3,,
450702,钦南区,Qinzhou: Qinnan qu,Qinzhou: Qinnan qu,,3,21.9078922,108.7193406
450703,钦北区,Qinzhou: Qinbei qu,Qinzhou: Qinbei qu,,3,22.1295649,108.6351085
450721,灵山县,Lingshan,Lingshan,,3,22.3203537,109.1248369
450722,浦北县,,,,3,22.247813,109.4715607
450800,贵港市,Guigang,,GUG,2,23.1120031,109.5989442
450801,市辖区,City area,,,3,,
450802,港北区,,,,3,23.1115295,109.5722401
450803,港南区,,,,3,23.0753,109.5998132
450804,覃塘区,,,,3,23.1298724,109.4056106
450821,平南县,,,,3,23.5191945,110.4624867
450881,桂平市,,,,3,23.3109367,110.0903249
450900,玉林市,Yulin,,YUL,2,22.6384616,110.1654696
450901,市辖区,City area,,,3,,
450902,玉州区,,,,3,22.629173,110.1510179
450903,福绵区,,,,3,,
450921,容县,,,,3,22.8456074,110.6210804
450922,陆川县,,,,3,22.2388061,110.2641428
450923,博白县,,,,3,22.0821205,109.8767459
450924,兴业县,,,,3,22.7401096,109.8804688
450981,北流市,,,,3,22.5167593,110.4823565
451000,百色市,Baise,,BSS,2,23.9021997,106.6187418
451001,市辖区,City area,,,3,,
451002,右江区,,,,3,23.9699993,106.46945
451021,田阳县,,,,3,23.7216329,106.8435752
451022,田东县,,,,3,23.6221632,107.1841407
451023,平果县,,,,3,23.3279025,107.580539
451024,德保县,,,,3,23.3957739,106.6266382
451025,靖西县,,,,3,23.1606028,106.2887013
451026,那坡县,,,,3,23.2581336,105.822072
451027,凌云县,,,,3,24.3929022,106.6333866
451028,乐业县,,,,3,24.8198768,106.5119362
451029,田林县,,,,3,24.3883781,106.0062647
451030,西林县,,,,3,24.3458748,105.3138685
451031,隆林各族自治县,,,,3,24.6812301,105.3346717
451100,贺州市,Hezhou,,HZO,2,24.403562,111.5666556
451101,市辖区,City area,,,3,,
451102,八步区,,,,3,24.3461192,111.7168486
451121,昭平县,,,,3,24.0959428,110.9911287
451122,钟山县,,,,3,24.4960724,111.2440181
451123,富川瑶族自治县,,,,3,24.874348,111.3150752
451200,河池市,Hechi,,HCS,2,24.6925965,108.0855668
451201,市辖区,City area,,,3,,
451202,金城江区,,,,3,24.6720269,107.849586
451221,南丹县,,,,3,25.1042635,107.5097072
451222,天峨县,,,,3,25.0004109,107.0453846
451223,凤山县,,,,3,24.5387983,106.991322
451224,东兰县,,,,3,24.5189941,107.4101758
451225,罗城仫佬族自治县,,,,3,24.9059488,108.8423359
451226,环江毛南族自治县,,,,3,25.1072461,108.3151746
451227,巴马瑶族自治县,,,,3,24.1640808,107.2051692
451228,都安瑶族自治县,,,,3,24.2002843,108.1405628
451229,大化瑶族自治县,,,,3,23.9635386,107.7064419
451281,宜州市,,,,3,24.47465,108.586121
451300,来宾市,Laibin,,LIB,2,23.752354,109.219551
451301,市辖区,City area,,,3,,
451302,兴宾区,,,,3,23.6958565,109.213028
451321,忻城县,,,,3,24.0113663,108.7125791
451322,象州县,,,,3,24.0454286,109.8544195
451323,武宣县,,,,3,23.5630297,109.7115472
451324,金秀瑶族自治县,,,,3,24.1755866,110.2355647
451381,合山市,,,,3,23.8241868,108.9264524
451400,崇左市,Chongzuo,,COZ,2,22.4026273,107.3579478
451401,市辖区,City area,,,3,,
451402,江州区,,,,3,,
451421,扶绥县,,,,3,22.4641419,107.8393507
451422,宁明县,,,,3,22.0103919,107.3252678
451423,龙州县,,,,3,22.3912876,106.8178377
451424,大新县,,,,3,22.7629945,107.1120322
451425,天等县,,,,3,23.1058554,107.0677006
451481,凭祥市,,,,3,22.06286,106.8650395
460000,海南省,Hainan,,HI,1,20.0317936,110.3465118
460100,海口市,Haikou shi,Haikou shi,HAK,2,20.0158451,110.3311872
460101,市辖区,City area,Haikou shixiaqu,,3,,
460105,秀英区,,,,3,19.8708368,110.2391124
460106,龙华区,,,,3,19.8832269,110.3345132
460107,琼山区,,,,3,19.7720446,110.5034709
460108,美兰区,,,,3,20.0158451,110.3311872
460200,三亚市,Sanya shi,Sanya shi,SYX,2,18.2526246,109.5119226
460201,市辖区,City area,Sanya shixiaqu,,3,,
460300,三沙市,,,,2,,
460321,西沙群岛,,,,3,,
460322,南沙群岛,,,,3,,
460323,中沙群岛的岛礁及其海域,,,,3,,
469000,省直辖县级行政区划,Directly under the provincial level administrative divisions,,,2,,
469001,五指山市,,,,3,18.2526246,109.5119226
469002,琼海市,,,,3,19.254108,110.45517
469003,儋州市,,,,3,11.3185451,116.5623856
469005,文昌市,,,,3,11.3185451,116.5623856
469006,万宁市,,,,3,11.3185451,116.5623856
469007,东方市,,,,3,18.2520133,109.5041335
469021,定安县,,,,3,11.3185451,116.5623856
469022,屯昌县,,,,3,11.3185451,116.5623856
469023,澄迈县,,,,3,18.2497309,109.5070517
469024,临高县,,,,3,11.652236,116.455078
469025,白沙黎族自治县,,,,3,11.3185451,116.5623856
469026,昌江黎族自治县,,,,3,11.3185451,116.5623856
469027,乐东黎族自治县,,,,3,18.745108,109.17663
469028,陵水黎族自治县,,,,3,18.5167257,110.0290847
469029,保亭黎族苗族自治县,,,,3,18.6263091,109.7003424
469030,琼中黎族苗族自治县,,,,3,11.3185451,116.5623856
500000,重庆市,Chongqing,,CQ,1,29.5549144,106.548425
500100,市辖区,City area,,,2,,
500101,万州区,,,,3,30.7056357,108.3138978
500102,涪陵区,,,,3,29.6859463,107.2871053
500103,渝中区,,,,3,29.5565663,106.5525663
500104,大渡口区,,,,3,29.4845671,106.482228
500105,江北区,,,,3,29.5732798,106.531527
500106,沙坪坝区,,,,3,29.5411196,106.4574552
500107,九龙坡区,,,,3,29.5021608,106.5111315
500108,南岸区,,,,3,29.5228884,106.5635097
500109,北碚区,,,,3,29.8050315,106.3955712
500110,綦江区,,,,3,,
500111,大足区,,,,3,,
500112,渝北区,,,,3,29.7186939,106.6309512
500113,巴南区,,,,3,29.3832034,106.5238237
500114,黔江区,,,,3,29.3657948,108.6874759
500115,长寿区,,,,3,29.9693975,107.1599579
500116,江津区,,,,3,29.2901886,106.2592721
500117,合川区,,,,3,29.3,106.266667
500118,永川区,,,,3,29.3581553,105.9305406
500119,南川区,,,,3,29.1578486,107.0992756
500200,县,County,,,2,,
500223,潼南县,,,,3,30.0583414,105.7704341
500224,铜梁县,,,,3,29.8057484,106.0310805
500226,荣昌县,,,,3,29.4667367,105.5139077
500227,璧山县,,,,3,29.582116,106.1995447
500228,梁平县,,,,3,30.6276095,107.7409673
500229,城口县,,,,3,31.8240988,108.6294973
500230,丰都县,,,,3,30.0064099,107.7954698
500231,垫江县,,,,3,30.2452027,107.4479628
500232,武隆县,,,,3,29.351226,107.6168454
500233,忠县,,,,3,30.3170528,107.8909457
500234,开县,,,,3,31.2510477,108.4971893
500235,云阳县,,,,3,30.9543063,108.8319826
500236,奉节县,,,,3,31.0546803,109.4111788
500237,巫山县,,,,3,31.1140732,109.8794496
500238,巫溪县,,,,3,31.3701365,109.6299183
500240,石柱土家族自治县,,,,3,30.0234014,108.1850123
500241,秀山土家族苗族自治县,,,,3,28.4714547,109.0211105
500242,酉阳土家族苗族自治县,,,,3,28.8908908,108.6583793
500243,彭水苗族土家族自治县,,,,3,29.3308562,108.246038
510000,四川省,Sichuan,,SC,1,30.6610565,104.0817566
510100,成都市,Chengdu shi,Chengdu shi,CTU,2,30.7105892,104.0886676
510101,市辖区,City area,Chengdu shixiaqu,,3,,
510104,锦江区,Chengdu: Jinjiang qu,Chengdu: Jinjiang qu,,3,30.6548682,104.0817904
510105,青羊区,Chengdu: Qingyang qu,Chengdu: Qingyang qu,,3,30.6684346,104.0633154
510106,金牛区,Chengdu: Jinniu qu,Chengdu: Jinniu qu,,3,30.6967519,104.0462887
510107,武侯区,Chengdu: Wuhou qu,Chengdu: Wuhou qu,,3,30.626954,104.036032
510108,成华区,Chengdu: Chenghua qu,Chengdu: Chenghua qu,,3,30.6654077,104.1173244
510112,龙泉驿区,Chengdu: Longquanyi qu,Chengdu: Longquanyi qu,,3,30.559203,104.2662513
510113,青白江区,Chengdu: Qingbaijiang qu,Chengdu: Qingbaijiang qu,,3,30.8796309,104.2592883
510114,新都区,,,,3,30.8211423,104.1581476
510115,温江区,,,,3,30.6950636,103.8296199
510121,金堂县,Jintang,Jintang,,3,30.7177653,104.6239829
510122,双流县,Shuangliu,Shuangliu,,3,30.4449462,104.0312684
510124,郫县,Pi xian,Pi xian,,3,30.8381307,103.8842726
510129,大邑县,Dayi,Dayi,,3,30.587229,103.4442401
510131,蒲江县,Pujiang,Pujiang,,3,30.214538,103.4900308
510132,新津县,Xinjin,Xinjin,,3,30.4260661,103.8212943
510181,都江堰市,Dujiangyan shi,Dujiangyan shi,,3,30.9962987,103.6122644
510182,彭州市,,,,3,31.162523,103.9251173
510183,邛崃市,,,,3,30.3788824,103.4201539
510184,崇州市,,,,3,30.7062445,103.6132514
510300,自贡市,Zigong shi,Zigong shi,ZGS,2,29.2999945,104.8091197
510301,市辖区,City area,Zigong shixiaqu,,3,,
510302,自流井区,Zigong: Ziliujing qu,Zigong: Ziliujing qu,,3,29.3374595,104.7771907
510303,贡井区,Zigong: Gongjing qu,Zigong: Gongjing qu,,3,29.3455494,104.7151136
510304,大安区,Zigong: Da'an qu,Zigong: Da'an qu,,3,29.3636442,104.7740257
510311,沿滩区,Zigong: Yantan qu,Zigong: Yantan qu,,3,29.2725769,104.8740721
510321,荣县,Rong xian,Rong xian,,3,29.3927106,104.3655038
510322,富顺县,Fushun,Fushun,,3,29.2041037,104.9796546
510400,攀枝花市,Panzhihua,Panzhihua shi,PZH,2,26.5837779,101.7189145
510401,市辖区,City area,Panzhihua shixiaqu,,3,,
510402,东区,Panzhihua: Dong qu,Panzhihua: Dong qu,,3,26.5464873,101.7041087
510403,西区,Panzhihua: Xi qu,Panzhihua: Xi qu,,3,26.5977852,101.6306162
510411,仁和区,Panzhihua: Renhe qu,Panzhihua: Renhe qu,,3,26.4977685,101.7385268
510421,米易县,Miyi,Miyi,,3,26.8906888,102.1103346
510422,盐边县,Yanbian,Yanbian,,3,26.6832114,101.8550742
510500,泸州市,Luzhou shi,Luzhou shi,LUZ,2,28.7635962,105.4086256
510501,市辖区,City area,Luzhou shixiaqu,,3,,
510502,江阳区,,,,3,28.8889933,105.4534721
510503,纳溪区,,,,3,28.7733582,105.371182
510504,龙马潭区,,,,3,28.9132544,105.4377866
510521,泸县,Lu xian,Lu xian,,3,29.1088168,105.4725695
510522,合江县,Hejiang,Hejiang,,3,28.7592228,105.7871819
510524,叙永县,Xuyong,Xuyong,,3,28.0880251,105.4675484
510525,古蔺县,Gulin,Gulin,,3,27.9210991,105.9564614
510600,德阳市,Deyang shi,Deyang shi,DEY,2,31.127538,104.3978083
510601,市辖区,City area,Deyang shixiaqu,,3,,
510603,旌阳区,,,,3,31.1309085,104.4034195
510623,中江县,Zhongjiang,Zhongjiang,,3,31.0330603,104.6787
510626,罗江县,,,,3,31.3169446,104.5103538
510681,广汉市,Guanghan shi,Guanghan shi,,3,30.9761833,104.2824304
510682,什邡市,,,,3,31.1268584,104.1672564
510683,绵竹市,,,,3,31.343274,104.1980481
510700,绵阳市,Mianyang shi,Mianyang shi,MYG,2,31.4614774,104.7430837
510701,市辖区,City area,Mianyang shixiaqu,,3,,
510703,涪城区,Mianyang: Fucheng qu,Mianyang: Fucheng qu,,3,31.4379365,104.6605897
510704,游仙区,Mianyang: Youxian qu,Mianyang: Youxian qu,,3,31.534881,104.9299908
510722,三台县,Santai,Santai,,3,31.0767548,105.0054359
510723,盐亭县,Yanting,Yanting,,3,31.2304633,105.4649734
510724,安县,An xian,An xian,,3,31.5820269,104.382627
510725,梓潼县,Zitong,Zitong,,3,31.6692528,105.2102923
510726,北川羌族自治县,Beichuan,Beichuan,,3,31.8938917,104.4368398
510727,平武县,Pingwu,Pingwu,,3,32.4458447,104.5536447
510781,江油市,Jiangyou shi,Jiangyou shi,,3,31.8929352,104.9064088
510800,广元市,Guangyuan shi,Guangyuan shi,GYC,2,32.4354319,105.843358
510801,市辖区,City area,Guangyuan shixiaqu,,3,,
510802,利州区,,,,3,,
510811,元坝区,Guangyuan: Yuanba qu,Guangyuan: Yuanba qu,,3,32.3232602,105.9628129
510812,朝天区,Guangyuan: Chaotian qu,Guangyuan: Chaotian qu,,3,32.6439824,105.8904469
510821,旺苍县,Wangcang,Wangcang,,3,32.2289211,106.2899029
510822,青川县,Qingchuan,Qingchuan,,3,32.5842561,105.2381873
510823,剑阁县,Jiange,Jiange,,3,32.2877222,105.5247653
510824,苍溪县,Cangxi,Cangxi,,3,31.7324286,105.9347999
510900,遂宁市,,,,2,30.4275926,105.5369318
510901,市辖区,City area,Suining shixiaqu,,3,,
510903,船山区,,,,3,30.4997896,105.5809736
510904,安居区,,,,3,30.3501297,105.46242
510921,蓬溪县,Pengxi,Pengxi,,3,30.7635584,105.705117
510922,射洪县,Shehong,Shehong,,3,30.8711316,105.388391
510923,大英县,,,,3,30.5941835,105.2370071
511000,内江市,Neijiang shi,Neijiang shi,NJS,2,29.6340538,105.1274228
511001,市辖区,City area,Neijiang shixiaqu,,3,,
511002,市中区,Neijiang: Shizhong qu,Neijiang: Shizhong qu,,3,29.5870983,105.06791
511011,东兴区,Neijiang: Dongxing qu,Neijiang: Dongxing qu,,3,29.5927893,105.0755382
511024,威远县,Weiyuan,Weiyuan,,3,29.5776747,104.5690084
511025,资中县,Zizhong,Zizhong,,3,29.8003208,104.7869325
511028,隆昌县,Longchang,Longchang,,3,29.3625502,105.2423716
511100,乐山市,Leshan shi,Leshan shi,LES,2,29.4703703,103.7012172
511101,市辖区,City area,Leshan shixiaqu,,3,,
511102,市中区,Leshan: Shizhong qu,Leshan: Shizhong qu,,3,29.5554371,103.7615883
511111,沙湾区,Leshan: Shawan qu,Leshan: Shawan qu,,3,29.4130867,103.5499942
511112,五通桥区,Leshan: Wutongqiao qu,Leshan: Wutongqiao qu,,3,29.4067313,103.8183975
511113,金口河区,Leshan: Jinkouhe qu,Leshan: Jinkouhe qu,,3,29.2444311,103.0786121
511123,犍为县,Qianwei,Qianwei,,3,29.2354438,103.9427555
511124,井研县,Jingyan,Jingyan,,3,29.6565631,104.0632403
511126,夹江县,Jiajiang,Jiajiang,,3,29.7773315,103.5173249
511129,沐川县,Muchuan,Muchuan,,3,29.0451493,103.8465714
511132,峨边彝族自治县,Ebian Yizu zizhixian,Ebian Yizu zizhixian,,3,29.1603689,103.1486392
511133,马边彝族自治县,Mabian Yizu zizhixian,Mabian Yizu zizhixian,,3,28.6854488,103.6762512
511181,峨眉山市,Emeishan shi,Emeishan shi,,3,29.4961191,103.3985889
511300,南充市,Nanchong shi,Nanchong shi,NCO,2,30.7912579,106.0829973
511301,市辖区,City area,Nanchong shixiaqu,,3,,
511302,顺庆区,Nanchong: Shunqing qu,Nanchong: Shunqing qu,,3,30.7965204,106.0924602
511303,高坪区,Nanchong: Gaoping qu,Nanchong: Gaoping qu,,3,30.781617,106.1189497
511304,嘉陵区,Nanchong: Jialing qu,Nanchong: Jialing qu,,3,30.7587459,106.0717964
511321,南部县,Nanbu,Nanbu,,3,31.3534903,106.0674298
511322,营山县,Yingshan,Yingshan,,3,31.0765435,106.5654516
511323,蓬安县,Peng'an,Peng'an,,3,31.028528,106.4122117
511324,仪陇县,Yilong,Yilong,,3,31.2715727,106.3030994
511325,西充县,Xichong,Xichong,,3,30.9952595,105.9008217
511381,阆中市,Langzhong shi,Langzhong shi,,3,31.577722,105.9773612
511400,眉山市,Meishan,,MSS,2,30.1014839,103.8442969
511401,市辖区,City area,,,3,,
511402,东坡区,,,,3,30.0823706,103.7398732
511421,仁寿县,,,,3,29.9837376,104.2106545
511422,彭山县,,,,3,30.2380379,103.8516462
511423,洪雅县,,,,3,29.7379703,103.2318842
511424,丹棱县,,,,3,30.0002313,103.4121072
511425,青神县,,,,3,29.8174778,103.839705
511500,宜宾市,Yibin,,YBS,2,28.7705275,104.6212792
511501,市辖区,City area,,,3,,
511502,翠屏区,,,,3,28.7931991,104.6674347
511503,南溪区,,,,3,,
511521,宜宾县,,,,3,28.8398337,104.3775523
511523,江安县,,,,3,28.657576,105.1060939
511524,长宁县,,,,3,28.5253593,104.9013877
511525,高县,,,,3,28.4636265,104.5978045
511526,珙县,,,,3,28.2471313,104.8259532
511527,筠连县,,,,3,28.1147516,104.580735
511528,兴文县,,,,3,28.2701047,105.1095593
511529,屏山县,,,,3,28.6727323,104.0108836
511600,广安市,Guang'an,,GAC,2,30.4559247,106.6332042
511601,市辖区,City area,,,3,,
511602,广安区,,,,3,30.4739298,106.6416264
511603,前锋区,,,,3,,
511621,岳池县,,,,3,30.5379241,106.4401066
511622,武胜县,,,,3,30.3480836,106.2955034
511623,邻水县,,,,3,30.3345927,106.9305325
511681,华蓥市,,,,3,30.3904051,106.7831933
511700,达州市,Dazhou,,DAZ,2,31.2171048,107.5009739
511701,市辖区,City area,,,3,,
511702,通川区,,,,3,31.2171048,107.5009739
511703,达川区,,,,3,,
511722,宣汉县,,,,3,31.5197567,107.9531836
511723,开江县,,,,3,31.1283469,107.9057813
511724,大竹县,,,,3,30.7362659,107.2045469
511725,渠县,,,,3,30.8364173,106.9733727
511781,万源市,,,,3,32.0681379,108.0416
511800,雅安市,Ya'an,,YAS,2,29.9805129,103.0131662
511801,市辖区,City area,,,3,,
511802,雨城区,,,,3,30.0053879,103.0331111
511803,名山区,,,,3,,
511822,荥经县,,,,3,29.7929283,102.8467405
511823,汉源县,,,,3,29.3516749,102.6780725
511824,石棉县,,,,3,29.2278695,102.3594582
511825,天全县,,,,3,30.0667077,102.7583134
511826,芦山县,,,,3,30.1441252,102.9283762
511827,宝兴县,,,,3,30.3681173,102.8146398
511900,巴中市,Bazhong,,BZS,2,31.8652392,106.7447305
511901,市辖区,City area,,,3,,
511902,巴州区,,,,3,31.8514791,106.7688811
511903,恩阳区,,,,3,,
511921,通江县,,,,3,31.911853,107.2449946
511922,南江县,,,,3,32.3529113,106.842041
511923,平昌县,,,,3,31.560875,107.104007
512000,资阳市,Ziyang,,ZYS,2,30.1272472,104.627738
512001,市辖区,City area,,,3,,
512002,雁江区,,,,3,30.0740334,104.7521603
512021,安岳县,,,,3,29.9870366,105.3507221
512022,乐至县,,,,3,30.3378059,105.0274301
512081,简阳市,,,,3,30.3662937,104.5382488
513200,阿坝藏族羌族自治州,Aba Zangzu Qiangzu zizhizhou,Aba Zangzu Qiangzu zizhizhou,ABA,2,31.8991657,102.222451
513221,汶川县,Wenchuan,Wenchuan,,3,31.084,103.267
513222,理县,Li xian,Li xian,,3,30.911944,102.546111
513223,茂县,Mao xian,Mao xian,,3,31.6811501,103.8534808
513224,松潘县,Songpan,Songpan,,3,32.6379835,103.5989499
513225,九寨沟县,,,,3,33.2613338,104.2355025
513226,金川县,Jinchuan,Jinchuan,,3,31.4762743,102.0638251
513227,小金县,Xiaojin,Xiaojin,,3,30.9990301,102.364372
513228,黑水县,Heishui,Heishui,,3,32.0616552,102.9901743
513229,马尔康县,Markam,Ma'erkang,,3,31.905842,102.2062612
513230,壤塘县,Zamtang,Rangtang,,3,32.2655163,100.9787536
513231,阿坝县,Aba,Aba,,3,32.9024612,101.7066514
513232,若尔盖县,Zoige,Ruo'ergai,,3,33.5758695,102.9618287
513233,红原县,Hongyuan,Hongyuan,,3,32.7908913,102.5444019
513300,甘孜藏族自治州,Ganzi,Ganzi Zangzu zizhizhou,GAZ,2,30.1413603,101.8657064
513321,康定县,Kangding,Kangding,,3,30.0553048,101.9648302
513322,泸定县,Luding,Luding,,3,29.9141554,102.2346175
513323,丹巴县,Danba,Danba,,3,30.8786273,101.8906295
513324,九龙县,Jiulong,Jiulong,,3,29.0003429,101.5072989
513325,雅江县,Yajiang,Yajiang,,3,30.0315291,101.0144269
513326,道孚县,Dawu,Daofu,,3,30.9795408,101.1252344
513327,炉霍县,Luhuo,Luhuo,,3,31.3917895,100.6763721
513328,甘孜县,Garze,Ganzi,,3,31.6229368,99.9926662
513329,新龙县,Xinlong,Xinlong,,3,30.9391697,100.3113663
513330,德格县,Dege,Dege,,3,31.8061203,98.5809124
513331,白玉县,Baiyu,Baiyu,,3,31.2114434,98.8283193
513332,石渠县,Serxu,Shiqu,,3,32.9789591,98.1028998
513333,色达县,Sertar,Seda,,3,32.2681291,100.3327382
513334,理塘县,Litang,Litang,,3,29.99605,100.2698135
513335,巴塘县,Batang,Batang,,3,30.0045889,99.1077411
513336,乡城县,Xiangcheng,Xiangcheng,,3,28.9320733,99.7992897
513337,稻城县,Daocheng,Daocheng,,3,29.0370076,100.2984059
513338,得荣县,Derong,Derong,,3,28.7130413,99.2863333
513400,凉山彝族自治州,Liangshan Yizu zizhizhou,Liangshan Yizu zizhizhou,LSY,2,27.9095234,102.2422886
513401,西昌市,Xichang shi,Xichang shi,,3,27.8972454,102.2652664
513422,木里藏族自治县,Muli Zangzu zizhixian,Muli Zangzu zizhixian,,3,27.9286069,101.2794185
513423,盐源县,Yanyuan,Yanyuan,,3,27.4226428,101.5091872
513424,德昌县,Dechang,Dechang,,3,27.4029088,102.1753299
513425,会理县,Huili,Huili,,3,26.6553216,102.2446167
513426,会东县,Huidong,Huidong,,3,26.6345029,102.5779617
513427,宁南县,,,,3,27.0663774,102.7598047
513428,普格县,Puge,Puge,,3,27.376188,102.5399387
513429,布拖县,Butuo,Butuo,,3,27.711428,102.8073013
513430,金阳县,Jinyang,Jinyang,,3,27.6968567,103.2487714
513431,昭觉县,Zhaojue,Zhaojue,,3,28.0141613,102.8426743
513432,喜德县,Xide,Xide,,3,28.3067233,102.412523
513433,冕宁县,,,,3,28.5498086,102.1770787
513434,越西县,Yuexi,Yuexi,,3,28.6397997,102.5076771
513435,甘洛县,Ganluo,Ganluo,,3,28.9660682,102.7717459
513436,美姑县,Meigu,Meigu,,3,28.3286355,103.1321812
513437,雷波县,Leibo,Leibo,,3,28.2627152,103.5717416
520000,贵州省,Guizhou,,GZ,1,26.5768738,106.7113724
520100,贵阳市,Guiyang shi,Guiyang shi,KWE,2,26.5434927,106.7611027
520101,市辖区,City area,Guiyang shixiaqu,,3,,
520102,南明区,Guiyang: Nanming qu,Guiyang: Nanming qu,,3,26.5679266,106.7141533
520103,云岩区,Guiyang: Yunyan qu,Guiyang: Yunyan qu,,3,26.6048457,106.7248499
520111,花溪区,Guiyang: Huaxi qu,Guiyang: Huaxi qu,,3,26.4294123,106.6722357
520112,乌当区,Guiyang: Wudang qu,Guiyang: Wudang qu,,3,26.6287485,106.7506206
520113,白云区,Guiyang: Baiyun qu,Guiyang: Baiyun qu,,3,23.2705232,113.3684671
520115,观山湖区,,,,3,,
520121,开阳县,,,,3,27.0694441,107.0125008
520122,息烽县,,,,3,27.145856,106.6817307
520123,修文县,,,,3,26.9734472,106.8355286
520181,清镇市,,,,3,26.679722,106.3369703
520200,六盘水市,Liupanshui,Lupanshui shi,LPS,2,26.5821372,104.8727953
520201,钟山区,,,,3,26.5845359,104.8590732
520203,六枝特区,Luzhi tequ,Luzhi tequ,,3,26.2012303,105.480026
520221,水城县,Shuicheng,Shuicheng,,3,26.5480133,104.9579501
520222,盘县,,,,3,25.7038767,104.4682646
520300,遵义市,Zunyi,,ZNY,2,27.6583199,106.9090748
520301,市辖区,City area,,,3,,
520302,红花岗区,,,,3,27.6451196,106.8931854
520303,汇川区,,,,3,27.7056054,106.9386756
520321,遵义县,,,,3,27.5362255,106.8298638
520322,桐梓县,,,,3,28.1335528,106.8256366
520323,绥阳县,,,,3,27.9468529,107.1903312
520324,正安县,,,,3,28.5500253,107.4439609
520325,道真仡佬族苗族自治县,,,,3,28.8624057,107.6097
520326,务川仡佬族苗族自治县,,,,3,28.5222768,107.8893471
520327,凤冈县,,,,3,27.9546907,107.7163553
520328,湄潭县,,,,3,27.7488542,107.4656439
520329,余庆县,,,,3,27.2253449,107.8882849
520330,习水县,,,,3,28.3275684,106.2034714
520381,赤水市,,,,3,28.5775499,105.7021451
520382,仁怀市,,,,3,27.7919814,106.4011502
520400,安顺市,Anshun,,ASS,2,26.2450223,105.9386194
520401,市辖区,City area,,,3,,
520402,西秀区,,,,3,26.2449165,105.9658492
520421,平坝县,,,,3,26.4054967,106.2555599
520422,普定县,,,,3,26.3014464,105.7431936
520423,镇宁布依族苗族自治县,,,,3,26.0573612,105.770402
520424,关岭布依族苗族自治县,,,,3,25.8758668,105.6215608
520425,紫云苗族布依族自治县,,,,3,25.7496518,106.0888016
520500,毕节市,Bijie,,BJD,2,,
520501,市辖区,,,,3,,
520502,七星关区,,,,3,,
520521,大方县,,,,3,,
520522,黔西县,,,,3,,
520523,金沙县,,,,3,,
520524,织金县,,,,3,,
520525,纳雍县,,,,3,,
520526,威宁彝族回族苗族自治县,,,,3,,
520527,赫章县,,,,3,,
520600,铜仁市,Tongren,,TRD,2,,
520601,市辖区,,,,3,,
520602,碧江区,,,,3,,
520603,万山区,,,,3,,
520621,江口县,,,,3,,
520622,玉屏侗族自治县,,,,3,,
520623,石阡县,,,,3,,
520624,思南县,,,,3,,
520625,印江土家族苗族自治县,,,,3,,
520626,德江县,,,,3,,
520627,沿河土家族自治县,,,,3,,
520628,松桃苗族自治县,,,,3,,
522300,黔西南布依族苗族自治州,Southwest Guizhou,Qianxi'nan Buyizu Miaozu zizhizhou,QXZ,2,25.093547,104.8948967
522301,兴义市,Xingyi shi,Xingyi shi,,3,25.0868282,104.8958969
522322,兴仁县,Xingren,Xingren,,3,25.4665436,105.2890849
522323,普安县,Pu'an,Pu'an,,3,25.7557106,105.0026894
522324,晴隆县,Qinglong,Qinglong,,3,25.8405502,105.2178562
522325,贞丰县,Zhenfeng,Zhenfeng,,3,25.4231117,105.6981647
522326,望谟县,Wangmo,Wangmo,,3,25.2518962,106.1742568
522327,册亨县,Ceheng,Ceheng,,3,24.93042,105.8447528
522328,安龙县,Anlong,Anlong,,3,25.1334061,105.3998065
522600,黔东南苗族侗族自治州,Southeast Guizhou,Qiandongnan Miaozu Dongzu zizhizhou,QND,2,26.5830679,107.9810035
522601,凯里市,Kaili shi,Kaili shi,,3,26.5888844,107.9771118
522622,黄平县,Huangping,Huangping,,3,26.9643154,107.8912997
522623,施秉县,Shibing,Shibing,,3,27.0362501,108.192941
522624,三穗县,Sansui,Sansui,,3,26.9446723,108.7900972
522625,镇远县,Zhenyuan,Zhenyuan,,3,27.0987219,108.4867072
522626,岑巩县,Cengong,Cengong,,3,27.364183,108.716948
522627,天柱县,Tianzhu,Tianzhu,,3,26.9275894,109.2547202
522628,锦屏县,Jinping,Jinping,,3,26.5769176,109.1882551
522629,剑河县,Jianhe,Jianhe,,3,26.635999,108.6928511
522630,台江县,Taijiang,Taijiang,,3,26.6483984,108.3054435
522631,黎平县,Liping,Liping,,3,26.1357907,109.1539979
522632,榕江县,Rongjiang,Rongjiang,,3,26.0095937,108.4506047
522633,从江县,Congjiang,Congjiang,,3,25.7286705,108.7027431
522634,雷山县,Leishan,Leishan,,3,26.3504501,108.1697989
522635,麻江县,Majiang,Majiang,,3,26.4618426,107.6334536
522636,丹寨县,Danzhai,Danzhai,,3,26.2164198,107.9219627
522700,黔南布依族苗族自治州,South Guizhou,Qiannan Buyizu Miaozu zizhizhou,QNZ,2,26.2830359,107.5112951
522701,都匀市,Duyun shi,Duyun shi,,3,26.1415022,107.488271
522702,福泉市,,,,3,26.7576435,107.5443506
522722,荔波县,Libo,Libo,,3,25.3828435,107.9149139
522723,贵定县,Guiding,Guiding,,3,26.436512,107.2160375
522725,瓮安县,Weng'an,Weng'an,,3,27.1737108,107.4060667
522726,独山县,Dushan,Dushan,,3,25.5946067,107.5436211
522727,平塘县,Pingtang,Pingtang,,3,25.7982587,107.1139634
522728,罗甸县,Luodian,Luodian,,3,25.4316094,106.7133057
522729,长顺县,Changshun,Changshun,,3,25.9945991,106.4114928
522730,龙里县,Longli,Longli,,3,26.4666257,106.9879961
522731,惠水县,Huishui,Huishui,,3,25.9654915,106.735847
522732,三都水族自治县,Sandu Shuizu zizhixian,Sandu Shuizu zizhixian,,3,25.8487383,107.9551363
530000,云南省,Yunnan,,YN,1,25.0438442,102.704567
530100,昆明市,Kunming shi,Kunming shi,KMG,2,25.0125259,102.7000129
530101,市辖区,City area,Kunming shixiaqu,,3,,
530102,五华区,Kunming: Wuhua qu,Kunming: Wuhua qu,,3,25.0562214,102.6962578
530103,盘龙区,Kunming: Panlong qu,Kunming: Panlong qu,,3,25.0654834,102.7359009
530111,官渡区,Kunming: Guandu qu,Kunming: Guandu qu,,3,25.0089674,102.7515864
530112,西山区,Kunming: Xishan qu,Kunming: Xishan qu,,3,25.0158704,102.6904321
530113,东川区,,,,3,26.088547,103.176727
530114,呈贡区,,,,3,,
530122,晋宁县,,,,3,24.598241,102.532053
530124,富民县,Fumin,Fumin,,3,25.3710367,102.5796998
530125,宜良县,Yiliang,Yiliang,,3,24.8967818,103.2272387
530126,石林彝族自治县,,,,3,24.8088531,103.4003484
530127,嵩明县,Songming,Songming,,3,25.275367,103.0039716
530128,禄劝彝族苗族自治县,Luquan Yizu Miaozu zizhixian,Luquan Yizu Miaozu zizhixian,,3,25.8696114,102.5934649
530129,寻甸回族彝族自治县,,,,3,25.6787974,103.106271
530181,安宁市,,,,3,24.8140827,102.3969877
530300,曲靖市,Qujing,,QJS,2,25.4960156,103.8014781
530301,市辖区,City area,,,3,,
530302,麒麟区,,,,3,25.4951537,103.8050401
530321,马龙县,,,,3,25.4281309,103.5784578
530322,陆良县,,,,3,25.0295685,103.6667454
530323,师宗县,,,,3,24.8285237,103.9898551
530324,罗平县,,,,3,24.8846262,104.3087912
530325,富源县,,,,3,25.6742625,104.2550933
530326,会泽县,,,,3,26.41795,103.2973623
530328,沾益县,,,,3,25.60048,103.8221097
530381,宣威市,,,,3,26.2197693,104.1044712
530400,玉溪市,Yuxi,,YXS,2,24.3519252,102.5462043
530401,市辖区,City area,,,3,,
530402,红塔区,,,,3,24.3395797,102.4941158
530421,江川县,,,,3,24.3582099,102.748636
530422,澄江县,,,,3,24.706769,102.9286766
530423,通海县,,,,3,24.0801344,102.6968694
530424,华宁县,,,,3,24.2768071,102.9700041
530425,易门县,,,,3,24.6989129,102.1143472
530426,峨山彝族自治县,,,,3,24.2713106,102.2397888
530427,新平彝族傣族自治县,,,,3,24.0271316,101.8283808
530428,元江哈尼族彝族傣族自治县,,,,3,23.6137879,102.0158243
530500,保山市,Baoshan,,BOS,2,25.1162128,99.1625977
530501,市辖区,City area,,,3,,
530502,隆阳区,,,,3,25.1116275,99.1633379
530521,施甸县,,,,3,24.7274986,99.183476
530522,腾冲县,,,,3,25.0206149,98.4900069
530523,龙陵县,,,,3,24.5866903,98.6891663
530524,昌宁县,,,,3,24.8278519,99.6051407
530600,昭通市,Zhaotong,,ZTS,2,27.3392446,103.7140167
530601,市辖区,City area,,,3,,
530602,昭阳区,,,,3,27.3200772,103.7065387
530621,鲁甸县,,,,3,27.1866526,103.5580409
530622,巧家县,,,,3,26.9084566,102.9301679
530623,盐津县,,,,3,28.1087141,104.2344403
530624,大关县,,,,3,27.7480376,103.8913536
530625,永善县,,,,3,28.2305905,103.6367691
530626,绥江县,,,,3,28.5396299,103.9540207
530627,镇雄县,,,,3,27.4416401,104.8736429
530628,彝良县,,,,3,27.625416,104.0482843
530629,威信县,,,,3,27.8469786,105.0489306
530630,水富县,,,,3,28.5013003,104.2285287
530700,丽江市,Lijiang,,LJH,2,26.8760955,100.2299452
530701,市辖区,City area,,,3,,
530702,古城区,,,,3,26.8768133,100.2256966
530721,玉龙纳西族自治县,,,,3,26.8214282,100.2370048
530722,永胜县,,,,3,26.684218,100.750798
530723,华坪县,,,,3,26.6296405,101.2658894
530724,宁蒗彝族自治县,,,,3,27.2821997,100.8519495
530800,普洱市,Pu'er,,PRS,2,22.7777939,100.9705353
530801,市辖区,City area,,,3,,
530802,思茅区,,,,3,22.6976541,100.8607364
530821,宁洱哈尼族彝族自治县,,,,3,23.061688,101.0453367
530822,墨江哈尼族自治县,,,,3,23.4318967,101.6924572
530823,景东彝族自治县,,,,3,24.6157006,100.7097867
530824,景谷傣族彝族自治县,,,,3,23.2242813,100.439656
530825,镇沅彝族哈尼族拉祜族自治县,,,,3,24.0044444,101.1085939
530826,江城哈尼族彝族自治县,,,,3,22.5858708,101.862123
530827,孟连傣族拉祜族佤族自治县,,,,3,22.2484641,99.456155
530828,澜沧拉祜族自治县,,,,3,22.5558822,99.932102
530829,西盟佤族自治县,,,,3,22.6445117,99.5901203
530900,临沧市,Lincang,,LIH,2,23.880344,100.0927556
530901,市辖区,City area,,,3,,
530902,临翔区,,,,3,23.8951568,100.0825524
530921,凤庆县,,,,3,24.5804463,99.92854
530922,云县,,,,3,24.43706,100.1232469
530923,永德县,,,,3,24.0279351,99.2532885
530924,镇康县,,,,3,23.7633418,98.8252401
530925,双江拉祜族佤族布朗族傣族自治县,,,,3,23.473501,99.8276997
530926,耿马傣族佤族自治县,,,,3,23.5310778,99.4118607
530927,沧源佤族自治县,,,,3,23.1468514,99.2460465
532300,楚雄彝族自治州,Chuxiong Yizu zizhizhou,Chuxiong Yizu zizhizhou,CXD,2,25.0549287,101.5447211
532301,楚雄市,Chuxiong shi,Chuxiong shi,,3,25.0329028,101.5461588
532322,双柏县,Shuangbai,Shuangbai,,3,24.6888728,101.6419351
532323,牟定县,Mouding,Mouding,,3,25.3131202,101.5465665
532324,南华县,Nanhua,Nanhua,,3,25.1922918,101.2735498
532325,姚安县,Yao'an,Yao'an,,3,25.5043339,101.2415564
532326,大姚县,Dayao,Dayao,,3,25.7221463,101.3243294
532327,永仁县,Yongren,Yongren,,3,26.0563492,101.6698408
532328,元谋县,Yuanmou,Yuanmou,,3,25.7045534,101.8744719
532329,武定县,Wuding,Wuding,,3,25.532528,102.404938
532331,禄丰县,Lufeng,Lufeng,,3,25.1501988,102.0790172
532500,红河哈尼族彝族自治州,Honghe Ha'nizu Yizu zizhizhou,Honghe Ha'nizu Yizu zizhizhou,HHZ,2,23.4301346,103.1800318
532501,个旧市,Gejiu shi,Gejiu shi,,3,23.3591192,103.1600332
532502,开远市,Kaiyuan shi,Kaiyuan shi,,3,23.7142856,103.267858
532503,蒙自市,,,,3,,
532504,弥勒市,,,,3,,
532523,屏边苗族自治县,Pingbian Mianzu zizhixian,Pingbian Mianzu zizhixian,,3,22.9835626,103.687613
532524,建水县,Jianshui,Jianshui,,3,23.6347448,102.8265917
532525,石屏县,Shiping,Shiping,,3,23.7148356,102.4913907
532527,泸西县,Luxi,Luxi,,3,24.5320248,103.766191
532528,元阳县,Yuanyang,Yuanyang,,3,23.2199422,102.8352177
532529,红河县,Honghe,Honghe,,3,23.3691653,102.4206018
532530,金平苗族瑶族傣族自治县,Jinping Miaozu Yaozu Daizu zizhixian,Jinping Miaozu Yaozu Daizu zizhixian,,3,22.7921862,103.0865729
532531,绿春县,Luchun,Luchun,,3,22.9941703,102.3923528
532532,河口瑶族自治县,Hekou Yaozu zizhixian,Hekou Yaozu zizhixian,,3,22.5294645,103.9392793
532600,文山壮族苗族自治州,Wenshan Zhuangzu Miaozu zizhizhou,Wenshan Zhuangzu Miaozu zizhizhou,WSZ,2,23.3802939,104.254632
532601,文山市,,,,3,,
532622,砚山县,Yanshan,Yanshan,,3,23.6057267,104.3371689
532623,西畴县,Xichou,Xichou,,3,23.4374683,104.6722519
532624,麻栗坡县,Malipo,Malipo,,3,23.125462,104.7028291
532625,马关县,Maguan,Maguan,,3,23.0129143,104.3941605
532626,丘北县,Qiubei,Qiubei,,3,24.0419178,104.1958165
532627,广南县,Guangnan,Guangnan,,3,24.0464836,105.0552607
532628,富宁县,,,,3,23.6253186,105.6309056
532800,西双版纳傣族自治州,Xishuangbanna Daizu zizhizhou,Xishuangbanna Daizu zizhizhou,XSB,2,22.0108892,100.7992601
532801,景洪市,Jinghong shi,Jinghong shi,,3,22.0107102,100.7997751
532822,勐海县,,,,3,21.9573552,100.4525471
532823,勐腊县,,,,3,21.4758338,101.5675199
532900,大理白族自治州,Dali Baizu zizhizhou,Dali Baizu zizhizhou,DLZ,2,25.5842336,100.2221239
532901,大理市,Dali shi,Dali shi,,3,25.5842336,100.2221239
532922,漾濞彝族自治县,Yangbi Yizu zizhixian,Yangbi Yizu zizhixian,,3,25.6701528,99.9580121
532923,祥云县,Xiangyun,Xiangyun,,3,25.4744861,100.5562091
532924,宾川县,Binchuan,Binchuan,,3,25.827253,100.5751455
532925,弥渡县,Midu,Midu,,3,25.3437545,100.4913211
532926,南涧彝族自治县,Nanjian Yizu zizhixian,Nanjian Yizu zizhixian,,3,25.0432261,100.5096138
532927,巍山彝族回族自治县,Weishan Yizu Huizu zizhixian,Weishan Yizu Huizu zizhixian,,3,25.2272078,100.3071713
532928,永平县,Yongping,Yongping,,3,25.4646838,99.5412397
532929,云龙县,Yunlong,Yunlong,,3,25.8856644,99.3710482
532930,洱源县,Eryuan,Eryuan,,3,26.1111595,99.9510491
532931,剑川县,Jianchuan,Jianchuan,,3,26.5370427,99.9055481
532932,鹤庆县,Heqing,Heqing,,3,26.5602304,100.1764297
533100,德宏傣族景颇族自治州,Dehong Daizu Jingpozu zizhizhou,Dehong dai Jinpozu zizhizhou,DHG,2,24.4484388,98.5669327
533102,瑞丽市,Ruili shi,Ruili shi,,3,24.012775,97.8518879
533103,芒市,,,,3,,
533122,梁河县,Lianghe,Lianghe,,3,24.8070125,98.2948923
533123,盈江县,Yingjiang,Yingjiang,,3,24.7052485,97.9318607
533124,陇川县,Longchuan,Longchuan,,3,24.1829619,97.7921069
533300,怒江傈僳族自治州,Nujiang,,NUJ,2,25.858345,98.9029491
533321,泸水县,Lushui,Lushui,,3,25.841921,98.857727
533323,福贡县,Fugong,Fugong,,3,26.9017306,98.8692069
533324,贡山独龙族怒族自治县,Gongshan Derungzu Nuzu zizhixia,Gongshan Dulongzu Nu zizhixian,,3,27.7407357,98.6658204
533325,兰坪白族普米族自治县,Lanping Baizu Primizu zizhixian,Lanping Baizu Primizu zizhixian,,3,26.4536014,99.4166887
533400,迪庆藏族自治州,Diqing,Diqing Zangzu zizhizhou,DEZ,2,27.8590162,99.7090173
533421,香格里拉县,,,,3,27.8230796,99.7060132
533422,德钦县,Deqen,Deqen,,3,28.4861098,98.9115429
533423,维西傈僳族自治县,,,,3,27.1771659,99.2871702
540000,西藏自治区,Tibet,,XZ,1,29.657589,91.1320496
540100,拉萨市,Lhasa shi,Lasa shi,LXA,2,29.6568428,91.1251009
540101,市辖区,City area,Lasa shixiaqu,,3,,
540102,城关区,Lhasa: Chengguan qu,Lasa: Chengguan qu,,3,29.6457567,91.1408186
540121,林周县,Lhunzhub,Linzhou,,3,29.8936945,91.2649083
540122,当雄县,Damxung,Dangxiong,,3,30.474984,91.0993946
540123,尼木县,Nyemo,Nimu,,3,29.4271233,90.168668
540124,曲水县,Quxu,Qushui,,3,29.3575568,90.746448
540125,堆龙德庆县,Doilungdeqen,Duilongdeqing,,3,29.6447683,91.010195
540126,达孜县,Dagze,Dazi,,3,29.6702303,91.3498592
540127,墨竹工卡县,Maizhokunggar,Mozhugongka,,3,29.8348924,91.7309582
542100,昌都地区,Qamdu,Changdu diqu,QAD,2,31.1815618,97.150265
542121,昌都县,Qamdo,Changdu,,3,31.1385032,97.1804345
542122,江达县,Jomda,Jiangda,,3,31.4992018,98.2184279
542123,贡觉县,Gonjo,Gongjue,,3,30.8600988,98.270967
542124,类乌齐县,Riwoqe,Leiwuqi,,3,31.2115994,96.6002512
542125,丁青县,Dengqen,Dingqing,,3,31.4124028,95.5957639
542126,察雅县,Zhag'yab,Chaya,,3,30.6539452,97.568754
542127,八宿县,Baxoi,Basu,,3,30.0532061,96.9178355
542128,左贡县,Zogang,Zuogong,,3,29.671116,97.8409338
542129,芒康县,Markam,Mangkang,,3,29.6799063,98.593111
542132,洛隆县,Lhorong,Luolong,,3,30.7415222,95.8245993
542133,边坝县,Banbar,Bianba,,3,30.9336482,94.7078025
542200,山南地区,Loka diqu,Shannan diqu,SND,2,29.2406678,91.804955
542221,乃东县,Nedong,Naidong,,3,29.2273808,91.7765961
542222,扎囊县,Za'nang,Za'nang,,3,29.2451145,91.3372529
542223,贡嘎县,Nedong,Gongga,,3,29.1822688,90.9438468
542224,桑日县,Sangri,Sangri,,3,29.2591929,92.0158195
542225,琼结县,Qonggyai,Qiongjie,,3,29.0243059,91.6842127
542226,曲松县,Qusum,Qusong,,3,28.9345856,92.2236667
542227,措美县,Comai,Cuomei,,3,28.5721595,91.443469
542228,洛扎县,Lhozhag,Luozha,,3,28.2033764,90.8294002
542229,加查县,Gyaca,Jiacha,,3,29.1402891,92.5939965
542231,隆子县,Lhunze,Longzi,,3,28.5498574,92.8577105
542232,错那县,Cona,Cuona,,3,27.9910951,91.957165
542233,浪卡子县,Nagarze,Langkazi,,3,28.8589326,90.4502368
542300,日喀则地区,Xigaze diqu,Rikaze diqu,XID,2,29.2717159,88.8883853
542301,日喀则市,Xigaze shi,Rikaze shi,,3,29.2717159,88.8883853
542322,南木林县,Namling,Namling,,3,29.6823391,89.0992391
542323,江孜县,Gyangze,Jiangzi,,3,28.9116578,89.6055758
542324,定日县,Tingri,Dingri,,3,28.6587434,87.1261203
542325,萨迦县,Sa'gya,Sajia,,3,28.8993164,88.0216241
542326,拉孜县,Lhaze,Lazi,,3,29.0816574,87.6370382
542327,昂仁县,Ngamring,Angren,,3,29.294811,87.2360051
542328,谢通门县,Ngamring,Xietongmen,,3,29.4324869,88.2616603
542329,白朗县,Bainang,Bailang,,3,29.1057703,89.2621887
542330,仁布县,Rinbung,Renbu,,3,29.2309311,89.8419857
542331,康马县,Kangmar,Kangma,,3,28.5556609,89.6839285
542332,定结县,Dinggye,Dingjie,,3,28.3641577,87.7658701
542333,仲巴县,Zhongba,Zhongba,,3,29.7702819,84.031527
542334,亚东县,Yadong,Yadong,,3,27.4848218,88.907032
542335,吉隆县,Gyirong,Jilong,,3,28.8523983,85.2975297
542336,聂拉木县,Nyalam,Nielamu,,3,28.1551127,85.9822333
542337,萨嘎县,Saga,Saga,,3,29.3284804,85.2333176
542338,岗巴县,Gamba,Gangba,,3,28.2746024,88.5200322
542400,那曲地区,Nagqu,Naqu diqu,NAD,2,31.452426,92.0592928
542421,那曲县,Nagqu,Naqu,,3,31.4696402,92.0534992
542422,嘉黎县,Lhari,Jiali,,3,30.6408106,93.2325232
542423,比如县,Biru,Biru,,3,31.4802454,93.6796367
542424,聂荣县,Lhari,Nierong,,3,32.1077696,92.3033416
542425,安多县,Lhari,Anduo,,3,32.2651716,91.6823351
542426,申扎县,Xainza,Shenzha,,3,30.9305008,88.7098575
542427,索县,Sog xian,Suo xian,,3,31.8869139,93.7856269
542428,班戈县,Baingoin,Bange,,3,31.3924122,90.0099564
542429,巴青县,Baqen,Baqing,,3,31.9185649,94.0534616
542430,尼玛县,Nyima,Nima,,3,31.7847002,87.2367668
542431,双湖县,,,,3,,
542500,阿里地区,Ngari,Ali diqu,NGD,2,32.5516967,80.1027453
542521,普兰县,Burang,Pulan,,3,30.2944055,81.1762404
542522,札达县,Zanda,Zhada,,3,31.4792115,79.8027027
542523,噶尔县,Gar,Ge'er,,3,32.4914837,80.0964153
542524,日土县,Rutog,Ritu,,3,33.3813578,79.7324288
542525,革吉县,Ge'gyai,Geji,,3,32.3872369,81.145438
542526,改则县,Gerze,Gaize,,3,32.3027135,84.062587
542527,措勤县,Coqen,Cuoqin,,3,31.0167685,85.1594925
542600,林芝地区,Nyingchi diqu,Linzhi diqu,NYD,2,29.6352102,94.4083178
542621,林芝县,Nyingchi,Linzhi,,3,29.6365717,94.3610895
542622,工布江达县,Gongbo'gyamda,Gongbujiangda,,3,29.8852764,93.2460737
542623,米林县,Mainling,Milin,,3,29.215697,94.2134607
542624,墨脱县,Medog,Motuo,,3,29.3253001,95.3331971
542625,波密县,Bomi,Bomi,,3,29.8590315,95.7679081
542626,察隅县,Zayu,Chayu,,3,28.6612758,97.4669158
542627,朗县,Nang xian,Lang xian,,3,29.0463405,93.074702
610000,陕西省,Shaanxi,,SN,1,34.2616844,108.949028
610100,西安市,Xi'an shi,Xi'an shi,SIA,2,34.2648777,108.9442599
610101,市辖区,City area,Xi'an shixiaqu,,3,,
610102,新城区,Xi'an: Xincheng qu,Xi'an: Xincheng qu,,3,34.2657555,109.0108216
610103,碑林区,Xi'an: Beilin qu,Xi'an: Beilin qu,,3,34.2489514,108.9531755
610104,莲湖区,Xi'an: Lianhu qu,Xi'an: Lianhu qu,,3,34.2660215,108.900497
610111,灞桥区,Xi'an: Baqiao qu,Xi'an: Baqiao qu,,3,34.3111495,109.1371322
610112,未央区,Xi'an: Weiyang qu,Xi'an: Weiyang qu,,3,34.3445345,108.9196265
610113,雁塔区,Xi'an: Yanta qu,Xi'an: Yanta qu,,3,34.2143662,108.933531
610114,阎良区,Xi'an: Yanliang qu,Xi'an: Yanliang qu,,3,34.668185,109.2986441
610115,临潼区,,,,3,34.4760311,109.2864347
610116,长安区,,,,3,34.0537439,108.9294755
610122,蓝田县,Lantian,Lantian,,3,34.0888392,109.4404042
610124,周至县,Zhouzhi,Zhouzhi,,3,33.9810276,108.2014704
610125,户县,Hu xian,Hu xian,,3,34.0133605,108.5701561
610126,高陵县,Gaoling,Gaoling,,3,34.5080066,109.0656674
610200,铜川市,Tongchuan shi,Tongchuan shi,TCN,2,34.9089154,108.9805126
610201,市辖区,City area,Tongchuan shixiaqu,,3,,
610202,王益区,,,,3,35.0689676,109.0756452
610203,印台区,,,,3,35.1144938,109.1002142
610204,耀州区,,,,3,34.9089154,108.9805126
610222,宜君县,Yijun,Yijun,,3,35.3985744,109.1169298
610300,宝鸡市,Baoji shi,Baoji shi,BJI,2,34.4267353,106.9516039
610301,市辖区,City area,Baoji shixiaqu,,3,,
610302,渭滨区,Baoji: Weibin qu,Baoji: Weibin qu,,3,34.3711585,107.1499157
610303,金台区,Baoji: Jintai qu,Baoji: Jintai qu,,3,34.3761264,107.1469116
610304,陈仓区,,,,3,34.3544553,107.3874629
610322,凤翔县,Fengxiang,Fengxiang,,3,34.5503357,107.416141
610323,岐山县,Qishan,Qishan,,3,34.3731422,107.7174926
610324,扶风县,Fufeng,Fufeng,,3,34.4146192,107.8984237
610326,眉县,Mei xian,Mei xian,,3,34.1574503,107.8439748
610327,陇县,Long xian,Long xian,,3,34.8820849,106.8122685
610328,千阳县,Qianyang,Qianyang,,3,34.738033,107.1162379
610329,麟游县,Linyou,Linyou,,3,34.7630067,107.7060771
610330,凤县,Feng xian,Feng xian,,3,33.9783941,106.77122
610331,太白县,Taibai,Taibai,,3,33.9762055,107.249372
610400,咸阳市,Xianyang shi,Xianyang shi,XYS,2,34.3663144,108.7650347
610401,市辖区,City area,Xianyang shixiaqu,,3,,
610402,秦都区,Xianyang: Qindu qu,Xianyang: Qindu qu,,3,34.3380499,108.714931
610403,杨陵区,Xianyang: Yangling qu,Xianyang: Yangling qu,,3,,
610404,渭城区,Xianyang: Weicheng qu,Xianyang: Weicheng qu,,3,34.3319813,108.7222803
610422,三原县,Sanyuan,Sanyuan,,3,34.6171663,108.9404511
610423,泾阳县,Jingyang,Jingyang,,3,34.5267564,108.842572
610424,乾县,Qian xian,Qian xian,,3,34.5275519,108.2394719
610425,礼泉县,Liquan,Liquan,,3,34.4817622,108.4250164
610426,永寿县,Yongshou,Yongshou,,3,34.69198,108.1423116
610427,彬县,Bin xian,Bin xian,,3,35.0355309,108.0813181
610428,长武县,Changwu,Changwu,,3,35.2058821,107.798785
610429,旬邑县,Xunyi,Xunyi,,3,35.111817,108.3341432
610430,淳化县,Chunhua,Chunhua,,3,34.7988187,108.5806704
610431,武功县,Wugong,Wugong,,3,34.3192401,108.1744981
610481,兴平市,Xingping shi,Xingping shi,,3,34.2995219,108.4905052
610500,渭南市,Weinan shi,Weinan shi,WNA,2,34.4999962,109.5097876
610501,市辖区,City area,Weinan shixiaqu,,3,,
610502,临渭区,Weinan: Linwei qu,Weinan: Linwei qu,,3,34.4982189,109.4929647
610521,华县,Hua xian,Hua xian,,3,34.5127099,109.7720003
610522,潼关县,Tongguan,Tongguan,,3,34.5442912,110.246526
610523,大荔县,Dali,Dali,,3,34.7965104,109.9413764
610524,合阳县,,,,3,35.2324661,110.1553953
610525,澄城县,Chengcheng,Chengcheng,,3,35.1781142,109.9363768
610526,蒲城县,,,,3,34.9543021,109.5920348
610527,白水县,,,,3,35.1809817,109.5976675
610528,富平县,Fuping,Fuping,,3,34.7575683,109.1789532
610581,韩城市,Hancheng shi,Hancheng shi,,3,35.4740916,110.4488504
610582,华阴市,Huayin shi,Huayin shi,,3,34.566081,110.092299
610600,延安市,Yan'an,,YNA,2,36.5854243,109.4896388
610601,市辖区,City area,,,3,,
610602,宝塔区,,,,3,36.4583618,109.56797
610621,延长县,,,,3,36.5800484,110.0118327
610622,延川县,,,,3,36.8781187,110.1935148
610623,子长县,,,,3,37.1424614,109.6752584
610624,安塞县,,,,3,36.8639054,109.3288779
610625,志丹县,,,,3,36.8221942,108.7684357
610626,吴起县,,,,3,36.9272186,108.1759357
610627,甘泉县,,,,3,36.2762476,109.3511188
610628,富县,,,,3,35.9880075,109.3797112
610629,洛川县,,,,3,35.7619755,109.4323683
610630,宜川县,,,,3,36.0518313,110.1642573
610631,黄龙县,,,,3,35.5844556,109.8402572
610632,黄陵县,,,,3,35.5905892,109.2597198
610700,汉中市,Hanzhong,,HZJ,2,33.068384,107.031898
610701,市辖区,City area,,,3,,
610702,汉台区,,,,3,33.0677455,107.031877
610721,南郑县,,,,3,32.999324,106.9361436
610722,城固县,,,,3,33.1567836,107.3337328
610723,洋县,,,,3,33.2228568,107.5455093
610724,西乡县,,,,3,32.9830991,107.7666092
610725,勉县,,,,3,33.1535501,106.6730404
610726,宁强县,,,,3,32.8296926,106.2571692
610727,略阳县,,,,3,33.3272832,106.1567152
610728,镇巴县,,,,3,32.5366925,107.894969
610729,留坝县,,,,3,33.6177643,106.9212306
610730,佛坪县,,,,3,33.524483,107.990638
610800,榆林市,Yulin,,YLN,2,38.2855239,109.7352111
610801,市辖区,City area,,,3,,
610802,榆阳区,,,,3,38.2784412,109.7347391
610821,神木县,,,,3,38.8425321,110.4990399
610822,府谷县,,,,3,39.0281189,111.0672712
610823,横山县,,,,3,37.9624538,109.2942131
610824,靖边县,,,,3,37.5992552,108.7940884
610825,定边县,,,,3,37.5946138,107.6012671
610826,绥德县,,,,3,37.5029425,110.2633595
610827,米脂县,,,,3,37.7548709,110.1840091
610828,佳县,,,,3,38.019486,110.4913473
610829,吴堡县,,,,3,37.4520184,110.7396984
610830,清涧县,,,,3,37.088879,110.1212132
610831,子洲县,,,,3,37.6105599,110.0351679
610900,安康市,Ankang,,ANK,2,32.6847801,109.0293074
610901,市辖区,City area,,,3,,
610902,汉滨区,,,,3,32.695173,109.0268397
610921,汉阴县,,,,3,32.8929934,108.5087335
610922,石泉县,,,,3,33.0378452,108.2477438
610923,宁陕县,,,,3,33.3103298,108.3143914
610924,紫阳县,,,,3,32.5198493,108.5351694
610925,岚皋县,,,,3,32.3067216,108.9028251
610926,平利县,,,,3,32.3888495,109.3618691
610927,镇坪县,,,,3,31.8836434,109.526943
610928,旬阳县,,,,3,32.8320906,109.3619335
610929,白河县,,,,3,32.8090993,110.1125443
611000,商洛市,Shangluo,,SLH,2,33.8627007,109.941237
611001,市辖区,City area,,,3,,
611002,商州区,,,,3,33.8627007,109.941237
611021,洛南县,,,,3,34.0905718,110.1487648
611022,丹凤县,,,,3,33.6957801,110.3273356
611023,商南县,,,,3,33.5309941,110.8818018
611024,山阳县,,,,3,33.5320047,109.8821425
611025,镇安县,,,,3,33.423311,109.1526568
611026,柞水县,,,,3,33.6862373,109.1140866
620000,甘肃省,Gansu,,GS,1,36.0680389,103.7500534
620100,兰州市,Lanzhou shi,Lanzhou shi,LHW,2,36.0758983,103.7572432
620101,市辖区,City area,Lanzhou shixiaqu,,3,,
620102,城关区,Lanzhou: Chengguan qu,Lanzhou: Chengguan qu,,3,36.057287,103.825436
620103,七里河区,Lanzhou: Qilihe qu,Lanzhou: Qilihe qu,,3,36.0659862,103.7857926
620104,西固区,Lanzhou: Xigu qu,Lanzhou: Xigu qu,,3,36.0884536,103.6279714
620105,安宁区,,,,3,36.1041968,103.7172246
620111,红古区,Lanzhou: Honggu qu,Lanzhou: Honggu qu,,3,36.3313069,102.9244065
620121,永登县,Yongdeng,Yongdeng,,3,36.7361844,103.2608843
620122,皋兰县,Gaolan,Gaolan,,3,36.3321107,103.9475298
620123,榆中县,Yuzhong,Yuzhong,,3,35.8430908,104.1125822
620200,嘉峪关市,Jiayuguan shi,Jiayuguan shi,JYG,2,39.783559,98.2778871
620201,市辖区,City area,Jiayuguan shixiaqu,,3,,
620300,金昌市,Jinchang shi,Jinchang shi,JCS,2,38.5210159,102.1937621
620301,市辖区,City area,Jinchang shixiaqu,,3,,
620302,金川区,Jinchang: Jinchuan qu,Jinchang: Jinchuan qu,,3,38.5210159,102.1937621
620321,永昌县,Yongchang,Yongchang,,3,38.2482412,101.9690573
620400,白银市,Baiyin shi,Baiyin shi,BYS,2,36.54763,104.1416359
620401,市辖区,City area,Baiyin shixiaqu,,3,,
620402,白银区,Baiyin: Baiyin qu,Baiyin: Baiyin qu,,3,36.5441134,104.1735542
620403,平川区,Baiyin: Pingchuan qu,Baiyin: Pingchuan qu,,3,36.7281276,104.8251486
620421,靖远县,Jingyuan,Jingyuan,,3,36.565168,104.6870255
620422,会宁县,,,,3,35.6931166,105.0530827
620423,景泰县,Jingtai,Jingtai,,3,37.1865017,104.060837
620500,天水市,Tianshui shi,Tianshui shi,TSU,2,34.568696,105.7260275
620501,市辖区,City area,Tianshui shixiaqu,,3,,
620502,秦州区,,,,3,34.5808869,105.7242143
620503,麦积区,,,,3,34.4062104,106.0005033
620521,清水县,Qingshui,Qingshui,,3,34.7498641,106.137296
620522,秦安县,Qin'an,Qin'an,,3,34.8588465,105.669626
620523,甘谷县,Gangu,Gangu,,3,34.7276112,105.3304017
620524,武山县,Wushan,Wushan,,3,34.7213327,104.8907661
620525,张家川回族自治县,Zhangjiachuan Huizu zizhixian,Zhanjiachuan Huizu zizhixian,,3,34.9947245,106.2120652
620600,武威市,Wuwei,,WWS,2,37.9283232,102.6420343
620601,市辖区,City area,,,3,,
620602,凉州区,,,,3,37.9283232,102.6420343
620621,民勤县,,,,3,38.6244062,103.0937719
620622,古浪县,,,,3,37.4701919,102.8975415
620623,天祝藏族自治县,,,,3,36.9718125,103.1418157
620700,张掖市,Zhangye,,ZYE,2,38.9312134,100.4610765
620701,市辖区,City area,,,3,,
620702,甘州区,,,,3,38.9294774,100.452708
620721,肃南裕固族自治县,,,,3,38.8369666,99.6155584
620722,民乐县,,,,3,38.4306311,100.8127463
620723,临泽县,,,,3,39.1526439,100.1644456
620724,高台县,,,,3,39.377734,99.8193204
620725,山丹县,,,,3,38.784674,101.0885739
620800,平凉市,Pingliang,,PLS,2,35.5299474,106.6975343
620801,市辖区,City area,,,3,,
620802,崆峒区,,,,3,35.5426329,106.6748321
620821,泾川县,,,,3,35.3326499,107.3676574
620822,灵台县,,,,3,35.0653584,107.6211262
620823,崇信县,,,,3,35.30229,107.0354283
620824,华亭县,,,,3,35.2182505,106.6531491
620825,庄浪县,,,,3,35.2023579,106.0366273
620826,静宁县,,,,3,35.5219754,105.7325613
620900,酒泉市,Jiuquan,,JQG,2,39.7336931,98.4964657
620901,市辖区,City area,,,3,,
620902,肃州区,,,,3,39.7450617,98.5077524
620921,金塔县,,,,3,39.9827352,98.9055884
620922,瓜州县,,,,3,40.5205443,95.7823062
620923,肃北蒙古族自治县,,,,3,39.512575,94.8770714
620924,阿克塞哈萨克族自治县,,,,3,39.6339357,94.3403077
620981,玉门市,,,,3,40.2918512,97.0455301
620982,敦煌市,,,,3,40.1421317,94.6618831
621000,庆阳市,Qingyang,,QYI,2,35.7386576,107.6325095
621001,市辖区,City area,,,3,,
621002,西峰区,,,,3,35.7306541,107.6510811
621021,庆城县,,,,3,36.0163029,107.8818047
621022,环县,,,,3,36.5707604,107.3085952
621023,华池县,,,,3,36.4613561,107.9900372
621024,合水县,,,,3,35.8192399,108.0195308
621025,正宁县,,,,3,35.4918876,108.3599782
621026,宁县,,,,3,35.502282,107.928282
621027,镇原县,,,,3,35.6774657,107.2008348
621100,定西市,Dingxi,,DNX,2,35.58066,104.610604
621101,市辖区,City area,,,3,,
621102,安定区,,,,3,35.58066,104.610604
621121,通渭县,,,,3,35.2108787,105.2422428
621122,陇西县,,,,3,35.0039174,104.6349692
621123,渭源县,,,,3,35.1367912,104.2153966
621124,临洮县,,,,3,35.3751942,103.8604224
621125,漳县,,,,3,34.8485543,104.4716227
621126,岷县,,,,3,34.4380798,104.0368366
621200,陇南市,Longnan,,LGN,2,33.4005814,104.9225342
621201,市辖区,City area,,,3,,
621202,武都区,,,,3,33.3923944,104.9265254
621221,成县,,,,3,33.7397043,105.730083
621222,文县,,,,3,32.9438158,104.6833777
621223,宕昌县,,,,3,34.046988,104.3936884
621224,康县,,,,3,33.3291209,105.6086755
621225,西和县,,,,3,34.0142143,105.2987516
621226,礼县,,,,3,34.1889971,105.1785994
621227,徽县,,,,3,33.7688022,106.0877073
621228,两当县,,,,3,33.9088545,106.3049769
622900,临夏回族自治州,Linxia Huizu zizhizhou,Linxia Huizu zizhizhou,LXH,2,35.5913832,103.2010818
622901,临夏市,Linxia shi,Linxia shi,,3,35.4916168,102.9955602
622921,临夏县,Linxia,Linxia,,3,35.4916168,102.9955602
622922,康乐县,Kangle,Kangle,,3,35.3698402,103.7087274
622923,永靖县,Yongjing,Yongjing,,3,35.9416801,103.3158374
622924,广河县,Guanghe,Guanghe,,3,35.48102,103.5693276
622925,和政县,Hezheng,Hezheng,,3,35.4246056,103.3509958
622926,东乡族自治县,Dongxiangzu zizhixian,Dongxiangzu zizhixian,,3,35.6637556,103.3893406
622927,积石山保安族东乡族撒拉族自治县,Jishishan Bon'anzu Dongxiangzu Salarzu zizhixian,Jishishan Bon'anzu Dongxianzu salazu  gezu zizhixian,,3,35.7176587,102.8758478
623000,甘南藏族自治州,Gannan Zangzu zizhizhou,Gannan Zang zhizhou,GNZ,2,34.9854426,102.8992152
623001,合作市,,,,3,35.0004899,102.9108131
623021,临潭县,Lintan,Lintan,,3,34.6926592,103.3531308
623022,卓尼县,Jone,Zhuoni,,3,34.5895873,103.5071111
623023,舟曲县,Zhugqu,Zhouqu,,3,33.7848009,104.3714583
623024,迭部县,Tewo,Diebu,,3,34.0559394,103.2218742
623025,玛曲县,Maqu,Maqu,,3,33.9977604,102.0726871
623026,碌曲县,Luqu,Luqu,,3,34.5904175,102.4889231
623027,夏河县,Xiahe,Xiahe,,3,35.2025595,102.5217319
630000,青海省,Qinghai,,QH,1,36.6094475,101.7874527
630100,西宁市,Xining,,XNN,2,36.6306136,101.784693
630101,市辖区,City area,Xining shixiaqu,,3,,
630102,城东区,Xining: Chengdong qu,Xining: Chengdong qu,,3,36.5997066,101.8039513
630103,城中区,Xining: Chengzhong qu,Xining: Chengzhong qu,,3,36.6234154,101.787107
630104,城西区,Xining: Chengxi qu,Xining: Chengxi qu,,3,36.6282889,101.7658854
630105,城北区,Xining: Chengbei qu,Xining: Chengbei qu,,3,36.6504654,101.7660248
630121,大通回族土族自治县,Datong Huizu Tuzu zizhixian,Datong Huizu Tuzu zizhixian,,3,36.9269698,101.6856229
630122,湟中县,,,,3,36.4716179,101.6157773
630123,湟源县,,,,3,36.6390671,101.207047
630200,海东市,Haidong,,HDD,2,,
630202,乐都区,,,,3,,
630221,平安县,,,,3,,
630222,民和回族土族自治县,,,,3,,
630223,互助土族自治县,,,,3,,
630224,化隆回族自治县,,,,3,,
630225,循化撒拉族自治县,,,,3,,
632200,海北藏族自治州,Haibei Zangzu zizhizhou,Haibei Zangzu zizhizhou,HBZ,2,36.9433152,100.9729171
632221,门源回族自治县,Menyuan Huizu zizhixia,Menyuan Huizu zizhixian,,3,37.503189,101.760864
632222,祁连县,Qilian,Qilian,,3,38.2597161,99.6284544
632223,海晏县,Haiyan,Haiyan,,3,36.8969542,100.9949327
632224,刚察县,Gangca,Gangcha,,3,37.3215658,100.1467001
632300,黄南藏族自治州,Huangnan Zangzu zizhizhou,Huangnan Zangzu zizhizhou,HNZ,2,35.5399353,102.0273364
632321,同仁县,Tongren,Tongren,,3,35.3916564,102.0602632
632322,尖扎县,Jainca,Jianzha,,3,35.8740115,101.7862487
632323,泽库县,Zekog,Zeku,,3,35.1684322,101.388799
632324,河南蒙古族自治县,Henan Mongolzu zizhixian,He'nan Mengguzu zizhixian,,3,34.5667966,101.5159893
632500,海南藏族自治州,Hainan Zangzu zizhizhou,Hainan Zangzu zizhizhou,HNN,2,36.3243834,100.6377268
632521,共和县,Gonghe,Gonghe,,3,36.4072781,99.9567997
632522,同德县,Tongde,Tongde,,3,35.1492929,100.618093
632523,贵德县,Guide,Guide,,3,35.9343659,101.4771831
632524,兴海县,Xinghai,Xinghai,,3,35.5586594,99.5635879
632525,贵南县,Guinan,Guinan,,3,35.5914879,101.0426652
632600,果洛藏族自治州,Golog Zangzu zizhizho,Guoluo Zangzu zizhizhou,GOL,2,34.4774993,100.2954233
632621,玛沁县,Maqe^n,Maqin,,3,34.5688551,99.6734834
632622,班玛县,Baima,Banma,,3,32.8929573,100.5401909
632623,甘德县,Gade,Gande,,3,34.1541653,100.1406598
632624,达日县,Darlag,Dari,,3,33.4516833,99.4474804
632625,久治县,Jigzhi,Jiuzhi,,3,33.4254511,101.1348045
632626,玛多县,Madoi,Maduo,,3,34.81124,98.3043122
632700,玉树藏族自治州,Yushu Zangzu zizhizhou,Yushu Zangzu zizhizhou,YSZ,2,33.0183078,97.0129681
632701,玉树市,,,,3,,
632722,杂多县,Zadoi,Zaduo,,3,32.9548356,94.3776119
632723,称多县,Chindu,Chenduo,,3,34.0554505,96.9991386
632724,治多县,Zhidoi,Zhiduo,,3,34.7868273,92.8896296
632725,囊谦县,Nangqe^n,Nangqian,,3,32.2723111,96.2246239
632726,曲麻莱县,Qumarle^b,Qumalai,,3,34.8246283,95.6305897
632800,海西蒙古族藏族自治州,Haixi,Haixi Mengguzu Zangzu Hasake zizhizhou,HXZ,2,38.1313666,93.2945359
632801,格尔木市,Golmud shi,Ge'ermu shi,,3,36.4016221,94.9037325
632802,德令哈市,Delingha shi,Delingha shi,,3,37.3694324,97.36099
632821,乌兰县,Ulan,Wulan,,3,36.9297486,98.48019
632822,都兰县,Dulan,Dulan,,3,36.29779,98.087182
632823,天峻县,Tianjun,Tianjun,,3,37.3012141,99.022876
640000,宁夏回族自治区,Ningxia,,NX,1,38.4680099,106.2719421
640100,银川市,Yinchuan shi,Yinchuan shi,INC,2,38.4751111,106.273241
640101,市辖区,City area,Yinchuan shixiaqu,,3,,
640104,兴庆区,,,,3,38.4736412,106.2886155
640105,西夏区,,,,3,38.4911353,106.1503744
640106,金凤区,,,,3,38.4733136,106.2422025
640121,永宁县,,,,3,38.2773041,106.2531245
640122,贺兰县,Helan,Helan,,3,38.5432566,106.3259089
640181,灵武市,,,,3,37.8788696,106.6291304
640200,石嘴山市,Shizuishan shi,Shizuishan shi,SZS,2,39.0188419,106.3682878
640201,市辖区,City area,Shizuishan shixiaqu,,3,,
640202,大武口区,Shizuishan: Dawukou qu,Shizuishan: Dawukou qu,,3,39.0122565,106.3771713
640205,惠农区,,,,3,39.1859571,106.6541469
640221,平罗县,Pingluo,Pingluo,,3,38.9060625,106.5471911
640300,吴忠市,Wuzhong,,WZS,2,37.9980819,106.2003386
640301,市辖区,City area,,,3,,
640302,利通区,,,,3,37.9851198,106.2031174
640303,红寺堡区,,,,3,,
640323,盐池县,,,,3,37.7828667,107.4071503
640324,同心县,,,,3,36.9805722,105.914458
640381,青铜峡市,,,,3,38.0212609,106.0787272
640400,固原市,Guyuan,,GYN,2,36.0159297,106.2426102
640401,市辖区,City area,,,3,,
640402,原州区,,,,3,36.1099784,106.2801611
640422,西吉县,,,,3,35.8891805,105.7132494
640423,隆德县,,,,3,35.5558139,106.0461223
640424,泾源县,,,,3,35.444318,106.3679123
640425,彭阳县,,,,3,35.9511301,106.6822886
640500,中卫市,Zhongwei,,ZWS,2,37.5169425,105.1738358
640501,市辖区,City area,,,3,,
640502,沙坡头区,,,,3,37.3466544,104.9312568
640521,中宁县,,,,3,37.4915108,105.6852686
640522,海原县,,,,3,36.6763091,105.6881788
650000,新疆维吾尔自治区,Xinjiang,,XJ,1,43.7909393,87.6061172
650100,乌鲁木齐市,Urumqi shi,Wulumuqi shi,URC,2,43.8103137,87.6051629
650101,市辖区,City area,Wulumuqi shixiaqu,,3,,
650102,天山区,Urumqi: Tianshan qu,Wulumuqi: Tianshan qu,,3,43.7944012,87.6316738
650103,沙依巴克区,Urumqi: Saybag qu,Wulumuqi: Saybag qu,,3,43.8011849,87.5978887
650104,新市区,Urumqi: Xinshi qu,Wulumuqi: Xinshi qu,,3,43.8436738,87.5739634
650105,水磨沟区,Urumqi: Shuimogou qu,Wulumuqi: Shuimogou qu,,3,43.8324759,87.6424992
650106,头屯河区,Urumqi: Toutunhe qu,Wulumuqi: Toutunhe qu,,3,43.8772626,87.4291348
650107,达坂城区,,,,3,43.3586204,88.306936
650109,米东区,,,,3,43.9452102,87.6804578
650121,乌鲁木齐县,Urumqi,Wulumuqi,,3,43.4440861,87.4473417
650200,克拉玛依市,Karamay shi,Kelamayi shi,KAR,2,45.5804213,84.8904026
650201,市辖区,City area,Kelamayi shixiaqu,,3,,
650202,独山子区,Karamay: Dushanzi qu,Kelamayi: Dushanzi qu,,3,44.3280924,84.8869693
650203,克拉玛依区,Karamay: Karamay qu,Kelamayi: Kelamayi qu,,3,45.5827716,84.8865294
650204,白碱滩区,,,,3,45.6878575,85.1316941
650205,乌尔禾区,Karamay: Urho qu,Kelamayi: Wu'erhe qu,,3,46.0891489,85.6937456
652100,吐鲁番地区,Turpan diqu,Tulufan diqu,,2,43.0069616,89.2106903
652101,吐鲁番市,Turpan shi,Tulufan Shi,,3,42.9423263,89.1859281
652122,鄯善县,Shanshan,Shanshan,,3,42.8566904,90.2157032
652123,托克逊县,Toksun,Tuokexun,,3,42.7994234,88.6482954
652200,哈密地区,Hami diqu,Hami diqu,HMD,2,42.899146,93.550204
652201,哈密市,Hami shi,Hami shi,,3,42.8270013,93.5145307
652222,巴里坤哈萨克自治县,Barkol Kazak zizhixian,Balikun Hasake zizhixian,,3,44.2121873,93.0333316
652223,伊吾县,Yiwu,Yiwu,,3,43.2548225,94.6972561
652300,昌吉回族自治州,Changji Huizu zizhizhou,Changji Huizu zizhizhou,,2,44.0044299,87.9882252
652301,昌吉市,Changji shi,Changji shi,,3,44.0139366,87.3038006
652302,阜康市,Fukang shi,Fukang shi,,3,44.157024,87.987324
652323,呼图壁县,Hutubi,Hutubi,,3,44.1914283,86.898905
652324,玛纳斯县,Manas,Manasi,,3,44.3168016,86.3194299
652325,奇台县,Qitai,Qitai,,3,44.0219991,89.5938599
652327,吉木萨尔县,Jimsar,Jimusa'er,,3,44.0005017,89.1806602
652328,木垒哈萨克自治县,Mori Kazak zizhixian,Mulei Hasake zizhixian,,3,43.8344494,90.2819538
652700,博尔塔拉蒙古自治州,Bortala Mongol zizhizhou,Bo'ertala Menggu zizhizhou,,2,44.912555,82.0787179
652701,博乐市,Bole shi,Bole shi,,3,44.9005261,82.0713043
652702,阿拉山口市,,,,3,,
652722,精河县,Jinghe,Jinghe,,3,44.6003607,82.8941846
652723,温泉县,Wenquan,Wenquan,,3,44.968859,81.0248458
652800,巴音郭楞蒙古自治州,Bayingolin Mongol zizhizhou,Bayinguoleng Menggu zizhizhou,,2,41.8973579,86.1827338
652801,库尔勒市,Korla shi,Ku'erle shi,,3,41.7660224,86.1552894
652822,轮台县,Luntai,Luntai,,3,41.7777927,84.2519295
652823,尉犁县,Yuli,Yuli,,3,41.3381779,86.2636292
652824,若羌县,Ruoqiang,Ruoqiang,,3,39.0192254,88.1689632
652825,且末县,Qiemo,Qiemo,,3,38.145636,85.5296266
652826,焉耆回族自治县,Yanqi Huizu zizhixian,Yanqi Huizu zizhixian,,3,42.0597921,86.5740788
652827,和静县,Hejing,Hejing,,3,42.3236034,86.3840604
652828,和硕县,Huxud,Heshuo,,3,42.2683697,86.8639612
652829,博湖县,Bohu,Bohu,,3,41.9801502,86.6319931
652900,阿克苏地区,Aksu diqu,Akesu diqu,,2,41.1239219,80.2445269
652901,阿克苏市,Aksu shi,Akesu Shi,,3,41.1675497,80.2633882
652922,温宿县,Wensu,Wensu,,3,41.2767744,80.2389586
652923,库车县,Kuqa,Kuche,,3,41.7179023,82.9620123
652924,沙雅县,Xayar,Shaya,,3,41.2216643,82.7818215
652925,新和县,Xinhe,Xinhe,,3,41.5481184,82.6090872
652926,拜城县,Baicheng,Baicheng,,3,41.7969119,81.8741512
652927,乌什县,Wushi,Wushi,,3,41.2146513,79.2244399
652928,阿瓦提县,Awat,Awati,,3,40.6431926,80.3753436
652929,柯坪县,Kalpin,Keping,,3,40.5083422,79.047296
653000,克孜勒苏柯尔克孜自治州,Kizilsu Kirgiz zizhizhou,Kezilesu Ke'erkezi zizhizhou,,2,39.887809,76.6699898
653001,阿图什市,Artux shi,Artux shi,,3,39.7161498,76.1682773
653022,阿克陶县,Akto,Aketao,,3,39.1480928,75.9470379
653023,阿合奇县,Akqi,Aheqi,,3,40.9369399,78.4460735
653024,乌恰县,Wuqia,Wuqia,,3,39.7193188,75.2590513
653100,喀什地区,Kaxgar diqu,Kashi diqu,KSI,2,39.4657023,75.9993732
653101,喀什市,Kaxgar shi,Kashi shi,,3,39.4676901,75.9937942
653121,疏附县,Shufu,Shufu,,3,39.3750055,75.8629239
653122,疏勒县,Shule,Shule,,3,39.4013821,76.0481358
653123,英吉沙县,Yengisar,Yingjisha,,3,38.9307209,76.1755836
653124,泽普县,Zepu,Zepu,,3,38.193917,77.2718346
653125,莎车县,Shache,Shache,,3,38.4142908,77.2460103
653126,叶城县,Yecheng,Yecheng,,3,37.8830677,77.4136913
653127,麦盖提县,Markit,Maigaiti,,3,38.8966109,77.6422155
653128,岳普湖县,Yopurga,Yuepuhu,,3,39.2332171,76.7777717
653129,伽师县,Jiashi,Jiashi,,3,39.488178,76.7237198
653130,巴楚县,Bachu,Bachu,,3,39.7851584,78.5492957
653131,塔什库尔干塔吉克自治县,TaxkorganTajik zizhixian,Tashiku'ergan Tajike zizhixian,,3,37.7728604,75.2245367
653200,和田地区,Hotan diqu,Hetian diqu,,2,37.229645,79.7640789
653201,和田市,Hotan shi,Hetian shi,,3,36.2116625,79.305582
653221,和田县,Hotan,Hetian,,3,36.2116625,79.305582
653222,墨玉县,Moyu,Moyu,,3,37.2763835,79.73804
653223,皮山县,Pishan,Pishan,,3,37.6214465,78.2836711
653224,洛浦县,Lop,Luopu,,3,37.0736692,80.1889837
653225,策勒县,Qira,Cele,,3,36.998577,80.8100009
653226,于田县,Yutian,Yutian,,3,36.8571325,81.6774917
653227,民丰县,Minfeng,Minfeng,,3,37.0640813,82.6958621
654000,伊犁哈萨克自治州,Ili Kazak zizhizhou,Yili Hasake zizhizhou,,2,43.9232522,81.3383317
654002,伊宁市,,,,3,43.9771359,81.5274489
654003,奎屯市,,,,3,44.4338871,84.9185336
654021,伊宁县,,,,3,43.9771359,81.5274489
654022,察布查尔锡伯自治县,,,,3,43.8373128,81.1756289
654023,霍城县,,,,3,44.0535906,80.8741808
654024,巩留县,,,,3,43.4826247,82.2317219
654025,新源县,,,,3,43.4299307,83.2607675
654026,昭苏县,,,,3,43.1589872,81.1227572
654027,特克斯县,,,,3,43.2171866,81.8362033
654028,尼勒克县,,,,3,43.7897234,82.4987626
654200,塔城地区,Tacheng diqu,Tacheng diqu,,2,46.752263,83.0147874
654201,塔城市,Tacheng shi,Tacheng shi,,3,46.7485213,82.9789317
654202,乌苏市,,,,3,44.4355112,84.678551
654221,额敏县,Emin,Emin,,3,46.5246708,83.6283052
654223,沙湾县,Shawan,Shawan,,3,44.3263886,85.6194162
654224,托里县,Toli,Tuoli,,3,45.9367809,83.6061716
654225,裕民县,Yumin,Yumin,,3,46.2011018,82.9826653
654226,和布克赛尔蒙古自治县,,,,3,46.7930671,85.730052
654300,阿勒泰地区,Altay diqu,Altay diqu,,2,47.8100491,88.0690134
654301,阿勒泰市,Altay shi,Altay shi,,3,47.9321015,87.7695715
654321,布尔津县,Burqin,Burqin,,3,48.3052634,87.2636104
654322,富蕴县,Fuyun,Fuyun,,3,46.5237923,89.4775379
654323,福海县,Fuhai,Fuhai,,3,46.59134,88.0380392
654324,哈巴河县,Habahe,Habahe,,3,48.435771,86.4275336
654325,青河县,Qinghe,Qinghe,,3,46.1696225,90.4287028
654326,吉木乃县,Jeminay,Jimunai,,3,47.4733373,86.2965667
659000,自治区直辖县级行政区划,Autonomous region directly under the county administrative divisions,,,2,,
659001,石河子市,Shihezi shi,Shihezi shi,,3,44.2959525,86.0369016
659002,阿拉尔市,,,,3,40.5462871,81.2803853
659003,图木舒克市,,,,3,39.8649031,79.0687752
659004,五家渠市,,,,3,44.1594024,87.5263488
710000,台湾省,Taiwan,Taiwan,,1,23.8516062,120.9581316
810000,香港特别行政区,Hong Kong,Xianggang,,1,22.391577,114.139452
820000,澳门特别行政区,Macau,Aomen,,1,22.167654,113.5678411
